number,name,region,weight,height,type1,type2,height,Evolution,Evolution2,Evolution3,Evolution4,Evolution5,Evolution6,Evolution7,Evolution8,EV Method,EV Method2,EV Method3,EV Method4,EV Method5,EV Method6,EV Method7,EV Method8,EV Stage,"R,B,Y","G,S,C","R,S,E","FR,LG","D,P,P","HG,SS","B,W,B2,W2","X,Y","OR,AS","S,M,US,UM","LGP,LGE","S,S",Entry Red,Entry Blue,Entry Yellow,Entry Gold,Entry Silver,Entry Crystal,Entry Ruby,Entry Saphire,Entry Emerald,Entry Fire Red,Entry Leaf Green,Entry Diamond,Entry Pearl,Entry Platinum,Entry Heart Gold,Entry Soul Silver,Entry Black,Entry White,Entry Black 2,Entry White 2,Entry X,Entry Y,Entry Omega Ruby,Entry Alpha Saphire,Entry Sun,Entry Moon,Entry Ultra Sun,Entry Ultra Moon,Entry Let's Go Pikachu,Entry Let's Go Eevee,Entry Sword,Entry Shield
1,Bulbasaur,Kanto,15.2,"2'04""",grass,poison,2.04,Ivysaur,,,,,,,,16,,,,,,,,1,Y,,,,,,,,,,,,,,,,,,,,,,,,,,,,,,,,,,,,,,,,,,,
2,Ivysaur,Kanto,28.7,"3'03""",grass,poison,3.03,Venusaur,,,,,,,,32,,,,,,,,2,Y,,,,,,,,,,,,,,,,,,,,,,,,,,,,,,,,,,,,,,,,,,,
3,Venusaur,Kanto,220.5,"6'07""",grass,poison,6.07,,,,,,,,,,,,,,,,,3,Y,,,,,,,,,,,,,,,,,,,,,,,,,,,,,,,,,,,,,,,,,,,
4,Charmander,Kanto,18.7,"2'00""",fire,,2,charmeleon,,,,,,,,16,,,,,,,,1,Y,,,,,,,,,,,,,,,,,,,,,,,,,,,,,,,,,,,,,,,,,,,
5,charmeleon,Kanto,41.9,"3'07""",fire,,3.04,charizard,,,,,,,,36,,,,,,,,2,Y,,,,,,,,,,,,,,,,,,,,,,,,,,,,,,,,,,,,,,,,,,,
6,charizard,Kanto,199.5,"5'07""",fire,flying,5.07,,,,,,,,,,,,,,,,,3,Y,,,,,,,,,,,,,,,,,,,,,,,,,,,,,,,,,,,,,,,,,,,
7,squirtle,Kanto,19.8,"1'08""",water,,1.08,wartortle,,,,,,,,16,,,,,,,,1,Y,,,,,,,,,,,,,,,,,,,,,,,,,,,,,,,,,,,,,,,,,,,
8,wartortle,Kanto,49.6,"3'03""",water,,3.03,blastiose,,,,,,,,36,,,,,,,,2,Y,,,,,,,,,,,,,,,,,,,,,,,,,,,,,,,,,,,,,,,,,,,
9,blastiose,Kanto,188.5,"5'03""",water,,5.03,,,,,,,,,,,,,,,,,3,Y,,,,,,,,,,,,,,,,,,,,,,,,,,,,,,,,,,,,,,,,,,,
10,caterpie,Kanto,6.4,"1'00""",bug,,1,metapod,,,,,,,,7,,,,,,,,1,Y,,,,,,,,,,,,,,,,,,,,,,,,,,,,,,,,,,,,,,,,,,,
11,metapod,Kanto,21.8,"2'04""",bug,,2.04,butterfree,,,,,,,,10,,,,,,,,2,Y,,,,,,,,,,,,,,,,,,,,,,,,,,,,,,,,,,,,,,,,,,,
12,butterfree,Kanto,70.5,"3'07""",bug,flying,3.07,,,,,,,,,,,,,,,,,3,Y,,,,,,,,,,,,,,,,,,,,,,,,,,,,,,,,,,,,,,,,,,,
13,weedle,Kanto,7.1,"1'00""",bug,poison,1,kakuna,,,,,,,,7,,,,,,,,1,Y,,,,,,,,,,,,,,,,,,,,,,,,,,,,,,,,,,,,,,,,,,,
14,kakuna,Kanto,22,"2'00""",bug,poison,2,beedrill,,,,,,,,10,,,,,,,,2,Y,,,,,,,,,,,,,,,,,,,,,,,,,,,,,,,,,,,,,,,,,,,
15,beedrill,Kanto,65,"3'03""",bug,poison,3.03,,,,,,,,,,,,,,,,,3,Y,,,,,,,,,,,,,,,,,,,,,,,,,,,,,,,,,,,,,,,,,,,
16,pidgey,Kanto,4,"1'00""",normal,flying,1,pidgeotto,,,,,,,,18,,,,,,,,1,Y,,,,,,,,,,,,,,,,,,,,,,,,,,,,,,,,,,,,,,,,,,,
17,pidgeotto,Kanto,66.1,"3'07""",normal,flying,3.07,pidgeot,,,,,,,,36,,,,,,,,2,Y,,,,,,,,,,,,,,,,,,,,,,,,,,,,,,,,,,,,,,,,,,,
18,pidgeot,Kanto,87.1,"4'11""",normal,flying,4.11,,,,,,,,,,,,,,,,,3,Y,,,,,,,,,,,,,,,,,,,,,,,,,,,,,,,,,,,,,,,,,,,
19,rattata,Kanto,7.7,"1'00""",normal,,1,raticate,,,,,,,,20,,,,,,,,1,Y,,,,,,,,,,,,,,,,,,,,,,,,,,,,,,,,,,,,,,,,,,,
19.1,rattata,Alola,8.4,"1'00""",dark,normal,1,raticate,,,,,,,,20 at night,,,,,,,,1,N,,,,,,,,,,,,,,,,,,,,,,,,,,,,,,,,,,,,,,,,,,,
20,raticate,Kanto,40.8,"2'04""",normal,,2.04,,,,,,,,,,,,,,,,,2,Y,,,,,,,,,,,,,,,,,,,,,,,,,,,,,,,,,,,,,,,,,,,
20.1,raticate,Alola,56.2,"2'04""",dark,normal,2.04,,,,,,,,,,,,,,,,,2,N,,,,,,,,,,,,,,,,,,,,,,,,,,,,,,,,,,,,,,,,,,,
21,spearow,Kanto,4.4,"1'00""",normal,flying,1,fearow,,,,,,,,20,,,,,,,,1,Y,,,,,,,,,,,,,,,,,,,,,,,,,,,,,,,,,,,,,,,,,,,
22,fearow,Kanto,83.8,"3'11""",normal,flying,3.11,,,,,,,,,,,,,,,,,2,Y,,,,,,,,,,,,,,,,,,,,,,,,,,,,,,,,,,,,,,,,,,,
23,ekans,Kanto,15.2,"6'07""",poison,,6.07,arbok,,,,,,,,22,,,,,,,,1,Y,,,,,,,,,,,,,,,,,,,,,,,,,,,,,,,,,,,,,,,,,,,
24,arbok,Kanto,143.3,"11'06""",poison,,11.06,,,,,,,,,,,,,,,,,2,Y,,,,,,,,,,,,,,,,,,,,,,,,,,,,,,,,,,,,,,,,,,,
25,pikachu,Kanto,13.2,"1'04""",electric,,1.04,raichu,raichu,,,,,,,thunderstone,thunderstone in alola,,,,,,,2,Y,,,,,,,,,,,,,,,,,,,,,,,,,,,,,,,,,,,,,,,,,,,
26,raichu,Kanto,66.1,"2'07""",electric,,2.07,,,,,,,,,,,,,,,,,3,Y,,,,,,,,,,,,,,,,,,,,,,,,,,,,,,,,,,,,,,,,,,,
26.1,raichu,Alola,46.3,"2'04""",electric,psychic,2.04,,,,,,,,,,,,,,,,,3,N,,,,,,,,,,,,,,,,,,,,,,,,,,,,,,,,,,,,,,,,,,,
27,sandshrew,Kanto,26.5,"2'00""",ground,,2,sandslash,,,,,,,,22,,,,,,,,1,Y,,,,,,,,,,,,,,,,,,,,,,,,,,,,,,,,,,,,,,,,,,,
27.1,sandshrew,Alola,88.2,"2'04""",ice,steel,2.04,sandslash,,,,,,,,ice stone,,,,,,,,1,N,,,,,,,,,,,,,,,,,,,,,,,,,,,,,,,,,,,,,,,,,,,
28,sandslash,Kanto,65,"3'03""",ground,,3.03,,,,,,,,,,,,,,,,,2,Y,,,,,,,,,,,,,,,,,,,,,,,,,,,,,,,,,,,,,,,,,,,
28.1,sandslash,Alola,121.3,"3'11""",ice,steel,3.11,,,,,,,,,,,,,,,,,2,N,,,,,,,,,,,,,,,,,,,,,,,,,,,,,,,,,,,,,,,,,,,
29,nidoran(F),Kanto,15.4,"1'04""",poison,,1.04,nidorina,,,,,,,,16,,,,,,,,1,Y,,,,,,,,,,,,,,,,,,,,,,,,,,,,,,,,,,,,,,,,,,,
30,nidorina,Kanto,44.1,"2'07""",poison,,2.07,nidoqueen,,,,,,,,moonstone,,,,,,,,2,Y,,,,,,,,,,,,,,,,,,,,,,,,,,,,,,,,,,,,,,,,,,,
31,nidoqueen,Kanto,132.3,"4'03""",poison,ground,4.03,,,,,,,,,,,,,,,,,3,Y,,,,,,,,,,,,,,,,,,,,,,,,,,,,,,,,,,,,,,,,,,,
32,nidoran(M),Kanto,19.8,"1'08""",poison,,1.08,nidorino,,,,,,,,16,,,,,,,,1,Y,,,,,,,,,,,,,,,,,,,,,,,,,,,,,,,,,,,,,,,,,,,
33,nidorino,Kanto,43,"2'11""",poison,,2.11,nidoking,,,,,,,,moonstone,,,,,,,,2,Y,,,,,,,,,,,,,,,,,,,,,,,,,,,,,,,,,,,,,,,,,,,
34,nidoking,Kanto,136.7,"4'07""",poison,ground,4.07,,,,,,,,,,,,,,,,,3,Y,,,,,,,,,,,,,,,,,,,,,,,,,,,,,,,,,,,,,,,,,,,
35,clefairy,Kanto,16.5,"2'00""",fairy,,2,clefable,,,,,,,,moonstone,,,,,,,,2,Y,,,,,,,,,,,,,,,,,,,,,,,,,,,,,,,,,,,,,,,,,,,
36,clefable,Kanto,88.2,"4'03""",fairy,,4.03,,,,,,,,,,,,,,,,,3,Y,,,,,,,,,,,,,,,,,,,,,,,,,,,,,,,,,,,,,,,,,,,
37,vulpix,Kanto,21.8,"2'00""",fire,,2,ninetails,,,,,,,,fire stone,,,,,,,,1,Y,,,,,,,,,,,,,,,,,,,,,,,,,,,,,,,,,,,,,,,,,,,
37.1,vulpix,Alola,52.9,"2'07""",ice,,2.07,ninetails,,,,,,,,ice stone,,,,,,,,1,N,,,,,,,,,,,,,,,,,,,,,,,,,,,,,,,,,,,,,,,,,,,
38,ninetails,Kanto,43.9,"3'07""",fire,,3.07,,,,,,,,,,,,,,,,,2,Y,,,,,,,,,,,,,,,,,,,,,,,,,,,,,,,,,,,,,,,,,,,
38.1,ninetails,Alola,176.4,"5'07""",ice,fairy,5.07,,,,,,,,,,,,,,,,,2,N,,,,,,,,,,,,,,,,,,,,,,,,,,,,,,,,,,,,,,,,,,,
39,Jigglypuff,Kanto,12.1,"1'08""",normal,fairy,1.08,wigglytuff,,,,,,,,moonstone,,,,,,,,2,Y,,,,,,,,,,,,,,,,,,,,,,,,,,,,,,,,,,,,,,,,,,,
40,wigglytuff,Kanto,26.5,"3'03""",normal,fairy,3.03,,,,,,,,,,,,,,,,,3,Y,,,,,,,,,,,,,,,,,,,,,,,,,,,,,,,,,,,,,,,,,,,
41,zubat,Kanto,16.5,"2'07""",poison,flying,2.07,golbat,,,,,,,,22,,,,,,,,1,Y,,,,,,,,,,,,,,,,,,,,,,,,,,,,,,,,,,,,,,,,,,,
42,golbat,Kanto,121.3,"5'03""",poison,flying,5.03,crobat,,,,,,,,lvl+ with friendship,,,,,,,,2,Y,,,,,,,,,,,,,,,,,,,,,,,,,,,,,,,,,,,,,,,,,,,
43,oddish,Kanto,11.9,"1'08""",grass,poison,1.08,gloom,,,,,,,,21,,,,,,,,1,Y,,,,,,,,,,,,,,,,,,,,,,,,,,,,,,,,,,,,,,,,,,,
44,gloom,Kanto,19,"2'07""",grass,poison,2.07,vileplume,bellossom,,,,,,,leaf stone,sun stone,,,,,,,2,Y,,,,,,,,,,,,,,,,,,,,,,,,,,,,,,,,,,,,,,,,,,,
45,vileplume,Kanto,41,"3'11""",grass,poison,3.11,,,,,,,,,,,,,,,,,3,Y,,,,,,,,,,,,,,,,,,,,,,,,,,,,,,,,,,,,,,,,,,,
46,paras,Kanto,11.9,"1'00""",bug,grass,1,parasect,,,,,,,,24,,,,,,,,1,Y,,,,,,,,,,,,,,,,,,,,,,,,,,,,,,,,,,,,,,,,,,,
47,parasect,Kanto,65,"3'03""",bug,grass,3.03,,,,,,,,,,,,,,,,,2,Y,,,,,,,,,,,,,,,,,,,,,,,,,,,,,,,,,,,,,,,,,,,
48,venonat,Kanto,66.1,"3'03""",bug,poison,3.03,venomoth,,,,,,,,31,,,,,,,,1,Y,,,,,,,,,,,,,,,,,,,,,,,,,,,,,,,,,,,,,,,,,,,
49,venomoth,Kanto,27.6,"4'11""",bug,poison,4.11,,,,,,,,,,,,,,,,,2,Y,,,,,,,,,,,,,,,,,,,,,,,,,,,,,,,,,,,,,,,,,,,
50,diglett,Kanto,1.8,"0'08""",ground,,0.08,dugtrio,,,,,,,,26,,,,,,,,1,Y,,,,,,,,,,,,,,,,,,,,,,,,,,,,,,,,,,,,,,,,,,,
50.1,diglett,Alola,2.2,"0'08""",ground,steel,0.08,dugtrio,,,,,,,,26,,,,,,,,1,N,,,,,,,,,,,,,,,,,,,,,,,,,,,,,,,,,,,,,,,,,,,
51,dugtrio,Kanto,73.4,"2'04""",ground,,2.04,,,,,,,,,,,,,,,,,2,Y,,,,,,,,,,,,,,,,,,,,,,,,,,,,,,,,,,,,,,,,,,,
51.1,dugtrio,Alola,146.8,"2'04""",ground,steel,2.04,,,,,,,,,,,,,,,,,2,N,,,,,,,,,,,,,,,,,,,,,,,,,,,,,,,,,,,,,,,,,,,
52,meowth,Kanto,9.3,"1'04""",normal,,1.04,persain,,,,,,,,28,,,,,,,,1,Y,,,,,,,,,,,,,,,,,,,,,,,,,,,,,,,,,,,,,,,,,,,
52.1,meowth,Alola,9.3,"1'04""",dark,,1.04,persain,,,,,,,,lvl+ with friendship,,,,,,,,1,N,,,,,,,,,,,,,,,,,,,,,,,,,,,,,,,,,,,,,,,,,,,
52.2,meowth,Galar,16.5,"1'04""",steel,,1.04,perrserker,,,,,,,,28,,,,,,,,1,N,,,,,,,,,,,,,,,,,,,,,,,,,,,,,,,,,,,,,,,,,,,
53,persain,Kanto,70.5,"3'03""",normal,,3.03,,,,,,,,,,,,,,,,,2,Y,,,,,,,,,,,,,,,,,,,,,,,,,,,,,,,,,,,,,,,,,,,
53.1,persain,Alola,72.8,"3'07""",dark,,3.07,,,,,,,,,,,,,,,,,2,N,,,,,,,,,,,,,,,,,,,,,,,,,,,,,,,,,,,,,,,,,,,
54,psyduck,Kanto,43.2,"2'07""",water,,2.07,golduck,,,,,,,,33,,,,,,,,1,Y,,,,,,,,,,,,,,,,,,,,,,,,,,,,,,,,,,,,,,,,,,,
55,golduck,Kanto,168.9,"5'07""",water,,5.07,,,,,,,,,,,,,,,,,2,Y,,,,,,,,,,,,,,,,,,,,,,,,,,,,,,,,,,,,,,,,,,,
56,mankey,Kanto,61.7,"1'08""",fighting,,1.08,primeape,,,,,,,,28,,,,,,,,1,Y,,,,,,,,,,,,,,,,,,,,,,,,,,,,,,,,,,,,,,,,,,,
57,primeape,Kanto,70.5,"3'08""",fighting,,3.08,,,,,,,,,,,,,,,,,2,Y,,,,,,,,,,,,,,,,,,,,,,,,,,,,,,,,,,,,,,,,,,,
58,growlithe,Kanto,41.9,"2'04""",fire,,2.04,arcanine,,,,,,,,fire stone,,,,,,,,1,Y,,,,,,,,,,,,,,,,,,,,,,,,,,,,,,,,,,,,,,,,,,,
59,arcanine,Kanto,341.7,"6'03""",fire,,6.03,,,,,,,,,,,,,,,,,2,Y,,,,,,,,,,,,,,,,,,,,,,,,,,,,,,,,,,,,,,,,,,,
60,poliwag,Kanto,27.3,"2'00""",water,,2,poliwhirl,,,,,,,,25,,,,,,,,1,Y,,,,,,,,,,,,,,,,,,,,,,,,,,,,,,,,,,,,,,,,,,,
61,poliwhirl,Kanto,44.1,"3'03""",water,,3.03,poliwrath,politoed,,,,,,,water stone,trade with king's rock,,,,,,,2,Y,,,,,,,,,,,,,,,,,,,,,,,,,,,,,,,,,,,,,,,,,,,
62,poliwrath,Kanto,119,"4'03""",water,fighting,4.03,,,,,,,,,,,,,,,,,3,Y,,,,,,,,,,,,,,,,,,,,,,,,,,,,,,,,,,,,,,,,,,,
63,abra,Kanto,43,"2'11""",psychic,,2.11,kadabra,,,,,,,,16,,,,,,,,1,Y,,,,,,,,,,,,,,,,,,,,,,,,,,,,,,,,,,,,,,,,,,,
64,kadabra,Kanto,124.6,"4'03""",psychic,,4.03,alakazam,,,,,,,,trade,,,,,,,,2,Y,,,,,,,,,,,,,,,,,,,,,,,,,,,,,,,,,,,,,,,,,,,
65,alakazam,Kanto,105.8,"4'11""",psychic,,4.11,,,,,,,,,,,,,,,,,3,Y,,,,,,,,,,,,,,,,,,,,,,,,,,,,,,,,,,,,,,,,,,,
66,machop,Kanto,43,"2'07""",fighting,,2.07,machoke,,,,,,,,28,,,,,,,,1,Y,,,,,,,,,,,,,,,,,,,,,,,,,,,,,,,,,,,,,,,,,,,
67,machoke,Kanto,155.4,"4'11""",fighting,,4.11,machamp,,,,,,,,trade,,,,,,,,2,Y,,,,,,,,,,,,,,,,,,,,,,,,,,,,,,,,,,,,,,,,,,,
68,machamp,Kanto,286.6,"5'03""",fighting,,5.03,,,,,,,,,,,,,,,,,3,Y,,,,,,,,,,,,,,,,,,,,,,,,,,,,,,,,,,,,,,,,,,,
69,bellsprout,Kanto,8.8,"2'04""",grass,poison,2.04,weepinbell,,,,,,,,21,,,,,,,,1,Y,,,,,,,,,,,,,,,,,,,,,,,,,,,,,,,,,,,,,,,,,,,
70,weepinbell,Kanto,14.1,"3'03""",grass,poison,3.03,victreebel,,,,,,,,leaf stone,,,,,,,,2,Y,,,,,,,,,,,,,,,,,,,,,,,,,,,,,,,,,,,,,,,,,,,
71,victreebel,Kanto,34.2,"5'07""",grass,poison,5.07,,,,,,,,,,,,,,,,,3,Y,,,,,,,,,,,,,,,,,,,,,,,,,,,,,,,,,,,,,,,,,,,
72,tentacool,Kanto,100.3,"2'11""",water,poison,2.11,tentacruel,,,,,,,,30,,,,,,,,1,Y,,,,,,,,,,,,,,,,,,,,,,,,,,,,,,,,,,,,,,,,,,,
73,tentacruel,Kanto,121.3,"5'03""",water,poison,5.03,,,,,,,,,,,,,,,,,2,Y,,,,,,,,,,,,,,,,,,,,,,,,,,,,,,,,,,,,,,,,,,,
74,geodude,Kanto,44.1,"1'04""",rock,ground,1.04,graveler,,,,,,,,25,,,,,,,,1,Y,,,,,,,,,,,,,,,,,,,,,,,,,,,,,,,,,,,,,,,,,,,
74.1,geodude,Alola,44.8,"1'04""",rock,electric,1.04,graveler,,,,,,,,25,,,,,,,,1,N,,,,,,,,,,,,,,,,,,,,,,,,,,,,,,,,,,,,,,,,,,,
75,graveler,Kanto,231.5,"3'03""",rock,ground,3.03,golem,,,,,,,,trade,,,,,,,,2,Y,,,,,,,,,,,,,,,,,,,,,,,,,,,,,,,,,,,,,,,,,,,
75.1,graveler,Alola,242.5,"3'03""",rock,electric,3.03,golem,,,,,,,,trade,,,,,,,,2,N,,,,,,,,,,,,,,,,,,,,,,,,,,,,,,,,,,,,,,,,,,,
76,golem,Kanto,661.4,"4'07""",rock,ground,4.07,,,,,,,,,,,,,,,,,3,Y,,,,,,,,,,,,,,,,,,,,,,,,,,,,,,,,,,,,,,,,,,,
76.1,golem,Alola,696.7,"5'07""",rock,electric,5.07,,,,,,,,,,,,,,,,,3,N,,,,,,,,,,,,,,,,,,,,,,,,,,,,,,,,,,,,,,,,,,,
77,ponyta,Kanto,66.1,"3'03""",fire,,3.03,rapidash,,,,,,,,40,,,,,,,,1,Y,,,,,,,,,,,,,,,,,,,,,,,,,,,,,,,,,,,,,,,,,,,
77.1,ponyta,Galar,52.9,"2'07""",psychic,,2.07,rapidash,,,,,,,,40,,,,,,,,1,N,,,,,,,,,,,,,,,,,,,,,,,,,,,,,,,,,,,,,,,,,,,
78,rapidash,Kanto,209.4,"5'07""",fire,,5.07,,,,,,,,,,,,,,,,,2,Y,,,,,,,,,,,,,,,,,,,,,,,,,,,,,,,,,,,,,,,,,,,
78.1,rapidash,Galar,176.4,"5'07""",psychic,fairy,5.07,,,,,,,,,,,,,,,,,2,N,,,,,,,,,,,,,,,,,,,,,,,,,,,,,,,,,,,,,,,,,,,
79,slowpoke,Kanto,79.4,"3'11""",water,psychic,3.11,slowbro,slowking,,,,,,,37,trade with kings rock,,,,,,,1,Y,,,,,,,,,,,,,,,,,,,,,,,,,,,,,,,,,,,,,,,,,,,
79.1,slowpoke,Galar,79.4,"3'11""",psychic,,3.11,slowbro,slowking,,,,,,,galarica cuff,galarica wreath,,,,,,,1,N,,,,,,,,,,,,,,,,,,,,,,,,,,,,,,,,,,,,,,,,,,,
80,slowbro,Kanto,173.1,"5'03""",water,psychic,5.03,,,,,,,,,,,,,,,,,2,Y,,,,,,,,,,,,,,,,,,,,,,,,,,,,,,,,,,,,,,,,,,,
80.1,slowbro,Galar,155.4,"5'03""",poison,psychic,5.03,,,,,,,,,,,,,,,,,2,N,,,,,,,,,,,,,,,,,,,,,,,,,,,,,,,,,,,,,,,,,,,
81,magnemite,Kanto,13.2,"1'00""",electric,steel,1,magneton,,,,,,,,30,,,,,,,,1,Y,,,,,,,,,,,,,,,,,,,,,,,,,,,,,,,,,,,,,,,,,,,
82,magneton,Kanto,132.3,"3'03""",electric,steel,3.03,magnezone,,,,,,,,thunderstone or lvl+ in electric area,,,,,,,,2,Y,,,,,,,,,,,,,,,,,,,,,,,,,,,,,,,,,,,,,,,,,,,
83,farfetch'd,Kanto,33.1,"2'07""",normal,flying,2.07,,,,,,,,,,,,,,,,,0,Y,,,,,,,,,,,,,,,,,,,,,,,,,,,,,,,,,,,,,,,,,,,
83.1,farfetch'd,Galar,92.6,"2'07""",fighting,,2.07,sirfetch'd,,,,,,,,3 critical hits in one battle,,,,,,,,1,N,,,,,,,,,,,,,,,,,,,,,,,,,,,,,,,,,,,,,,,,,,,
84,doduo,Kanto,86.4,"4'07""",normal,flying,4.07,dodrio,,,,,,,,31,,,,,,,,1,Y,,,,,,,,,,,,,,,,,,,,,,,,,,,,,,,,,,,,,,,,,,,
85,dodrio,Kanto,187.8,"5'11""",normal,flying,5.11,,,,,,,,,,,,,,,,,2,Y,,,,,,,,,,,,,,,,,,,,,,,,,,,,,,,,,,,,,,,,,,,
86,seel,Kanto,198.4,"3'07""",water,,3.07,dewgong,,,,,,,,34,,,,,,,,1,Y,,,,,,,,,,,,,,,,,,,,,,,,,,,,,,,,,,,,,,,,,,,
87,dewgong,Kanto,264.6,"5'07""",water,ice,5.07,,,,,,,,,,,,,,,,,2,Y,,,,,,,,,,,,,,,,,,,,,,,,,,,,,,,,,,,,,,,,,,,
88,grimer,Kanto,66.1,"2'11""",poison,,2.11,muk,,,,,,,,38,,,,,,,,1,Y,,,,,,,,,,,,,,,,,,,,,,,,,,,,,,,,,,,,,,,,,,,
88.1,grimer,Alola,92.6,"2'04""",poison,dark,2.04,muk,,,,,,,,38,,,,,,,,1,N,,,,,,,,,,,,,,,,,,,,,,,,,,,,,,,,,,,,,,,,,,,
89,muk,Kanto,66.1,"3'11""",poison,,3.11,,,,,,,,,,,,,,,,,2,Y,,,,,,,,,,,,,,,,,,,,,,,,,,,,,,,,,,,,,,,,,,,
89.1,muk,Alola,114.6,"3'03""",poison,dark,3.03,,,,,,,,,,,,,,,,,2,N,,,,,,,,,,,,,,,,,,,,,,,,,,,,,,,,,,,,,,,,,,,
90,shellder,Kanto,8.8,"1'00""",water,,1,cloyster,,,,,,,,water stone,,,,,,,,1,Y,,,,,,,,,,,,,,,,,,,,,,,,,,,,,,,,,,,,,,,,,,,
91,cloyster,Kanto,292.1,"4'11""",water,ice,4.11,,,,,,,,,,,,,,,,,2,Y,,,,,,,,,,,,,,,,,,,,,,,,,,,,,,,,,,,,,,,,,,,
92,gastley,Kanto,0.2,"4'03""",ghost,poison,4.03,haunter,,,,,,,,25,,,,,,,,1,Y,,,,,,,,,,,,,,,,,,,,,,,,,,,,,,,,,,,,,,,,,,,
93,haunter,Kanto,0.2,"5'03""",ghost,poison,5.03,gengar,,,,,,,,trade,,,,,,,,2,Y,,,,,,,,,,,,,,,,,,,,,,,,,,,,,,,,,,,,,,,,,,,
94,gengar,Kanto,89.3,"4'11""",ghost,poison,4.11,,,,,,,,,,,,,,,,,3,Y,,,,,,,,,,,,,,,,,,,,,,,,,,,,,,,,,,,,,,,,,,,
95,onix,Kanto,463,"28'10""",rock,ground,28.1,steelix,,,,,,,,trade with metal coat,,,,,,,,1,Y,,,,,,,,,,,,,,,,,,,,,,,,,,,,,,,,,,,,,,,,,,,
96,drowzee,Kanto,71.4,"3'03""",psychic,,3.03,hypno,,,,,,,,36,,,,,,,,1,Y,,,,,,,,,,,,,,,,,,,,,,,,,,,,,,,,,,,,,,,,,,,
97,hypno,Kanto,166.7,"5'03""",psychic,,5.03,,,,,,,,,,,,,,,,,2,Y,,,,,,,,,,,,,,,,,,,,,,,,,,,,,,,,,,,,,,,,,,,
98,krabby,Kanto,14.3,"1'04""",water,,1.04,kingler,,,,,,,,28,,,,,,,,1,Y,,,,,,,,,,,,,,,,,,,,,,,,,,,,,,,,,,,,,,,,,,,
99,kingler,Kanto,132.3,"4'03""",water,,4.03,,,,,,,,,,,,,,,,,2,Y,,,,,,,,,,,,,,,,,,,,,,,,,,,,,,,,,,,,,,,,,,,
100,voltorb,Kanto,22.9,"1'08""",electric,,1.08,electrode,,,,,,,,30,,,,,,,,1,Y,,,,,,,,,,,,,,,,,,,,,,,,,,,,,,,,,,,,,,,,,,,
101,electrode,Kanto,146.8,"3'11""",electric,,3.11,,,,,,,,,,,,,,,,,2,Y,,,,,,,,,,,,,,,,,,,,,,,,,,,,,,,,,,,,,,,,,,,
102,exeggcute,Kanto,5.5,"1'04""",grass,psychic,1.04,exeggutor,exeggutor,,,,,,,leaf stone,leaf stone in alola,,,,,,,1,Y,,,,,,,,,,,,,,,,,,,,,,,,,,,,,,,,,,,,,,,,,,,
103,exeggutor,Kanto,264.6,"6'07""",grass,psychic,6.007,,,,,,,,,,,,,,,,,2,Y,,,,,,,,,,,,,,,,,,,,,,,,,,,,,,,,,,,,,,,,,,,
103.1,exeggutor,Alola,916.2,"35'09""",grass,dragon,35.09,,,,,,,,,,,,,,,,,2,N,,,,,,,,,,,,,,,,,,,,,,,,,,,,,,,,,,,,,,,,,,,
104,cubone,Kanto,14.3,"1'04""",ground,,1.04,marowak,marowak,,,,,,,28,28 at night in alola,,,,,,,1,Y,,,,,,,,,,,,,,,,,,,,,,,,,,,,,,,,,,,,,,,,,,,
105,marowak,Kanto,99.2,"3'03""",ground,,3.03,,,,,,,,,,,,,,,,,2,Y,,,,,,,,,,,,,,,,,,,,,,,,,,,,,,,,,,,,,,,,,,,
105.1,marowak,Alola,75,"3'03""",fire,ghost,3.03,,,,,,,,,,,,,,,,,2,N,,,,,,,,,,,,,,,,,,,,,,,,,,,,,,,,,,,,,,,,,,,
106,hitmonlee,Kanto,109.8,"4'11""",fighting,,4.11,,,,,,,,,,,,,,,,,2,Y,,,,,,,,,,,,,,,,,,,,,,,,,,,,,,,,,,,,,,,,,,,
107,hitmonchan,Kanto,110.7,"4'07""",fighting,,4.07,,,,,,,,,,,,,,,,,2,Y,,,,,,,,,,,,,,,,,,,,,,,,,,,,,,,,,,,,,,,,,,,
108,lickitung,Kanto,144.4,"3'11""",normal,,3.11,lickilicky,,,,,,,,lvl+ with roll out,,,,,,,,1,Y,,,,,,,,,,,,,,,,,,,,,,,,,,,,,,,,,,,,,,,,,,,
109,koffing,Kanto,2.2,"2'00""",poison,,2,weezing,weezing,,,,,,,35 with a non galar koffing,35 with a galar koffing,,,,,,,1,Y,,,,,,,,,,,,,,,,,,,,,,,,,,,,,,,,,,,,,,,,,,,
110,weezing,Kanto,20.9,"3'11""",poison,,3.11,,,,,,,,,,,,,,,,,2,Y,,,,,,,,,,,,,,,,,,,,,,,,,,,,,,,,,,,,,,,,,,,
110.1,weezing,Galar,35.3,"9'10""",poison,fairy,9.1,,,,,,,,,,,,,,,,,2,N,,,,,,,,,,,,,,,,,,,,,,,,,,,,,,,,,,,,,,,,,,,
111,rhyhorn,Kanto,253.5,"3'03""",ground,rock,3.03,rhydon,,,,,,,,42,,,,,,,,1,Y,,,,,,,,,,,,,,,,,,,,,,,,,,,,,,,,,,,,,,,,,,,
112,rhydon,Kanto,264.6,"6'03""",ground,rock,6.03,rhyperior,,,,,,,,trade with protector,,,,,,,,2,Y,,,,,,,,,,,,,,,,,,,,,,,,,,,,,,,,,,,,,,,,,,,
113,chansey,Kanto,76.3,"3'07""",normal,,3.07,blissey,,,,,,,,lvl+ with friendship,,,,,,,,2,Y,,,,,,,,,,,,,,,,,,,,,,,,,,,,,,,,,,,,,,,,,,,
114,tangela,Kanto,77.2,"3'03""",grass,,3.03,tangrowth,,,,,,,,lvl+ ancient power,,,,,,,,1,Y,,,,,,,,,,,,,,,,,,,,,,,,,,,,,,,,,,,,,,,,,,,
115,kangaskhan,Kanto,176.4,"7'03""",normal,,7.03,,,,,,,,,,,,,,,,,0,Y,,,,,,,,,,,,,,,,,,,,,,,,,,,,,,,,,,,,,,,,,,,
116,horsea,Kanto,17.6,"1'04""",water,,1.04,seadra,,,,,,,,32,,,,,,,,1,Y,,,,,,,,,,,,,,,,,,,,,,,,,,,,,,,,,,,,,,,,,,,
117,seadra,Kanto,55.1,"3'11""",water,,3.11,kingdra,,,,,,,,trade with dragon scale,,,,,,,,2,Y,,,,,,,,,,,,,,,,,,,,,,,,,,,,,,,,,,,,,,,,,,,
118,goldeen,Kanto,33.1,"2'00""",water,,2,seaking,,,,,,,,33,,,,,,,,1,Y,,,,,,,,,,,,,,,,,,,,,,,,,,,,,,,,,,,,,,,,,,,
119,seaking,Kanto,86,"4'03""",water,,4.03,,,,,,,,,,,,,,,,,2,Y,,,,,,,,,,,,,,,,,,,,,,,,,,,,,,,,,,,,,,,,,,,
120,staryu,Kanto,76.1,"2'07""",water,,2.07,starmie,,,,,,,,water stone,,,,,,,,1,Y,,,,,,,,,,,,,,,,,,,,,,,,,,,,,,,,,,,,,,,,,,,
121,starmie,Kanto,176.4,"3'07""",water,psychic,3.07,,,,,,,,,,,,,,,,,2,Y,,,,,,,,,,,,,,,,,,,,,,,,,,,,,,,,,,,,,,,,,,,
122,mr. mime,Kanto,120.2,"4'03""",psychic,fairy,4.03,,,,,,,,,,,,,,,,,2,Y,,,,,,,,,,,,,,,,,,,,,,,,,,,,,,,,,,,,,,,,,,,
122.1,mr. mime,Galar,125.2,"4'07""",ice,psychic,4.07,mr. rime,,,,,,,,42,,,,,,,,2,N,,,,,,,,,,,,,,,,,,,,,,,,,,,,,,,,,,,,,,,,,,,
123,scyther,Kanto,123.5,"4'11""",bug,flying,4.11,scizor,,,,,,,,trade with metal coat,,,,,,,,1,Y,,,,,,,,,,,,,,,,,,,,,,,,,,,,,,,,,,,,,,,,,,,
124,jynx,Kanto,89.5,"4'07""",ice,psychic,4.07,,,,,,,,,,,,,,,,,2,Y,,,,,,,,,,,,,,,,,,,,,,,,,,,,,,,,,,,,,,,,,,,
125,electabuzz,Kanto,66.1,"3'07""",electric,,3.07,electrivire,,,,,,,,trade with electirizer,,,,,,,,2,Y,,,,,,,,,,,,,,,,,,,,,,,,,,,,,,,,,,,,,,,,,,,
126,magmar,Kanto,98.1,"4'03""",fire,,4.03,magmortar,,,,,,,,trade with magmarizer,,,,,,,,2,Y,,,,,,,,,,,,,,,,,,,,,,,,,,,,,,,,,,,,,,,,,,,
127,pinsir,Kanto,121.3,"4'11""",bug,,4.11,,,,,,,,,,,,,,,,,0,Y,,,,,,,,,,,,,,,,,,,,,,,,,,,,,,,,,,,,,,,,,,,
128,tauros,Kanto,194.9,"4'07""",normal,,4.07,,,,,,,,,,,,,,,,,0,Y,,,,,,,,,,,,,,,,,,,,,,,,,,,,,,,,,,,,,,,,,,,
129,magikarp,Kanto,22,"2'11""",water,,2.11,gyarados,,,,,,,,20,,,,,,,,1,Y,,,,,,,,,,,,,,,,,,,,,,,,,,,,,,,,,,,,,,,,,,,
130,gyarados,Kanto,518.1,"21'04""",water,flying,21.04,,,,,,,,,,,,,,,,,2,Y,,,,,,,,,,,,,,,,,,,,,,,,,,,,,,,,,,,,,,,,,,,
131,lapras,Kanto,485,"8'02""",water,ice,8.04,,,,,,,,,,,,,,,,,0,Y,,,,,,,,,,,,,,,,,,,,,,,,,,,,,,,,,,,,,,,,,,,
132,ditto,Kanto,8.8,"1'00""",normal,,1,,,,,,,,,,,,,,,,,0,Y,,,,,,,,,,,,,,,,,,,,,,,,,,,,,,,,,,,,,,,,,,,
133,eevee,Kanto,14.3,"1'00""",normal,,1,vaporeon,jolteon,flareon,espeon,umbreon,leafeon,glaceon,sylveon,water stone,thunderstone,fire stone,lvl+ with friendship at day,lvl+ with friendship at night,leaf stone,ice stone,lvl+ with love and fairy move,1,Y,,,,,,,,,,,,,,,,,,,,,,,,,,,,,,,,,,,,,,,,,,,
134,vaporeon,Kanto,63.9,"3'03""",water,,3.03,,,,,,,,,,,,,,,,,2,Y,,,,,,,,,,,,,,,,,,,,,,,,,,,,,,,,,,,,,,,,,,,
135,jolteon,Kanto,54,"2'07""",electric,,2.07,,,,,,,,,,,,,,,,,2,Y,,,,,,,,,,,,,,,,,,,,,,,,,,,,,,,,,,,,,,,,,,,
136,flareon,Kanto,55.1,"2'11""",fire,,2.11,,,,,,,,,,,,,,,,,2,Y,,,,,,,,,,,,,,,,,,,,,,,,,,,,,,,,,,,,,,,,,,,
137,porygon,Kanto,80.5,"2'07""",normal,,2.07,porygon2,,,,,,,,trade with up-grade,,,,,,,,1,Y,,,,,,,,,,,,,,,,,,,,,,,,,,,,,,,,,,,,,,,,,,,
138,omanyte,Kanto,16.5,"1'04""",rock,water,1.04,omastar,,,,,,,,40,,,,,,,,1,Y,,,,,,,,,,,,,,,,,,,,,,,,,,,,,,,,,,,,,,,,,,,
139,omastar,Kanto,77.2,"3'03""",rock,water,3.03,,,,,,,,,,,,,,,,,2,Y,,,,,,,,,,,,,,,,,,,,,,,,,,,,,,,,,,,,,,,,,,,
140,kabuto,Kanto,25.4,"1'08""",rock,water,1.08,kabutops,,,,,,,,40,,,,,,,,1,Y,,,,,,,,,,,,,,,,,,,,,,,,,,,,,,,,,,,,,,,,,,,
141,kabutops,Kanto,89.3,"4'03""",rock,water,4.03,,,,,,,,,,,,,,,,,2,Y,,,,,,,,,,,,,,,,,,,,,,,,,,,,,,,,,,,,,,,,,,,
142,aerodactyl,Kanto,130.1,"5'11""",rock,flying,5.11,,,,,,,,,,,,,,,,,0,Y,,,,,,,,,,,,,,,,,,,,,,,,,,,,,,,,,,,,,,,,,,,
143,snorlax,Kanto,1014.1,"6'11""",normal,,6.11,,,,,,,,,,,,,,,,,2,Y,,,,,,,,,,,,,,,,,,,,,,,,,,,,,,,,,,,,,,,,,,,
144,articuno,Kanto,122.1,"5'07""",ice,flying,5.07,,,,,,,,,,,,,,,,,0,Y,,,,,,,,,,,,,,,,,,,,,,,,,,,,,,,,,,,,,,,,,,,
144.1,articuno,Galar,112.2,"5'07""",psychic,flying,5.07,,,,,,,,,,,,,,,,,0,N,,,,,,,,,,,,,,,,,,,,,,,,,,,,,,,,,,,,,,,,,,,
145,zapdos,Kanto,116,"5'03""",electric,flying,5.03,,,,,,,,,,,,,,,,,0,Y,,,,,,,,,,,,,,,,,,,,,,,,,,,,,,,,,,,,,,,,,,,
145.1,zapdos,Galar,128.3,"5'03""",fighting,flying,5.03,,,,,,,,,,,,,,,,,0,N,,,,,,,,,,,,,,,,,,,,,,,,,,,,,,,,,,,,,,,,,,,
146,moltres,Kanto,132.3,"6'07""",fire,flying,6.07,,,,,,,,,,,,,,,,,0,Y,,,,,,,,,,,,,,,,,,,,,,,,,,,,,,,,,,,,,,,,,,,
146.1,moltres,Galar,145.5,"6'07""",dark,flying,6.07,,,,,,,,,,,,,,,,,0,N,,,,,,,,,,,,,,,,,,,,,,,,,,,,,,,,,,,,,,,,,,,
147,dratini,Kanto,7.3,"5'11""",dragon,,5.11,dragonair,,,,,,,,30,,,,,,,,1,Y,,,,,,,,,,,,,,,,,,,,,,,,,,,,,,,,,,,,,,,,,,,
148,dragonair,Kanto,36.4,"13'01""",dragon,,13.01,dragonite,,,,,,,,55,,,,,,,,2,Y,,,,,,,,,,,,,,,,,,,,,,,,,,,,,,,,,,,,,,,,,,,
149,dragonite,Kanto,463,"7'03""",dragon,flying,7.03,,,,,,,,,,,,,,,,,3,Y,,,,,,,,,,,,,,,,,,,,,,,,,,,,,,,,,,,,,,,,,,,
150,mewtwo,Kanto,269,"6'07""",psychic,,6.07,,,,,,,,,,,,,,,,,0,Y,,,,,,,,,,,,,,,,,,,,,,,,,,,,,,,,,,,,,,,,,,,
151,mew,Kanto,8.8,"1'04""",psychic,,1.04,,,,,,,,,,,,,,,,,0,Y,,,,,,,,,,,,,,,,,,,,,,,,,,,,,,,,,,,,,,,,,,,
152,chikorita,Johto,14.1,"2'11""",grass,,2.11,bayleef,,,,,,,,16,,,,,,,,1,N,Y,,,,,,,,,,,,,,,,,,,,,,,,,,,,,,,,,,,,,,,,,,
153,bayleef,Johto,34.8,"3'11""",grass,,3.11,meganium,,,,,,,,32,,,,,,,,2,N,Y,,,,,,,,,,,,,,,,,,,,,,,,,,,,,,,,,,,,,,,,,,
154,meganium,Johto,221.6,"5'11""",grass,,5.11,,,,,,,,,,,,,,,,,3,N,Y,,,,,,,,,,,,,,,,,,,,,,,,,,,,,,,,,,,,,,,,,,
155,cyndaquil,Johto,17.4,"1'08""",fire,,1.08,quilava,,,,,,,,14,,,,,,,,1,N,Y,,,,,,,,,,,,,,,,,,,,,,,,,,,,,,,,,,,,,,,,,,
156,quilava,Johto,41.9,"2'11""",fire,,2.11,typhlosion,,,,,,,,36,,,,,,,,2,N,Y,,,,,,,,,,,,,,,,,,,,,,,,,,,,,,,,,,,,,,,,,,
157,typhlosion,Johto,175.3,"5'07""",fire,,5.07,,,,,,,,,,,,,,,,,3,N,Y,,,,,,,,,,,,,,,,,,,,,,,,,,,,,,,,,,,,,,,,,,
158,totodile,Johto,20.9,"2'00""",water,,2,croconaw,,,,,,,,18,,,,,,,,1,N,Y,,,,,,,,,,,,,,,,,,,,,,,,,,,,,,,,,,,,,,,,,,
159,croconaw,Johto,55.1,"3'07""",water,,3.07,feraligatr,,,,,,,,30,,,,,,,,2,N,Y,,,,,,,,,,,,,,,,,,,,,,,,,,,,,,,,,,,,,,,,,,
160,feraligatr,Johto,195.8,"7'07""",water,,7.07,,,,,,,,,,,,,,,,,3,N,Y,,,,,,,,,,,,,,,,,,,,,,,,,,,,,,,,,,,,,,,,,,
161,sentret,Johto,13.2,"2'07""",normal,,2.07,furret,,,,,,,,15,,,,,,,,1,N,Y,,,,,,,,,,,,,,,,,,,,,,,,,,,,,,,,,,,,,,,,,,
162,furret,Johto,71.6,"5'11""",normal,,5.11,,,,,,,,,,,,,,,,,2,N,Y,,,,,,,,,,,,,,,,,,,,,,,,,,,,,,,,,,,,,,,,,,
163,hoothoot,Johto,46.7,"2'04""",normal,flying,2.04,noctowl,,,,,,,,20,,,,,,,,1,N,Y,,,,,,,,,,,,,,,,,,,,,,,,,,,,,,,,,,,,,,,,,,
164,noctowl,Johto,89.9,"5'03""",normal,flying,5.03,,,,,,,,,,,,,,,,,2,N,Y,,,,,,,,,,,,,,,,,,,,,,,,,,,,,,,,,,,,,,,,,,
165,ledyba,Johto,23.8,"3'03""",bug,flying,3.03,ledian,,,,,,,,18,,,,,,,,1,N,Y,,,,,,,,,,,,,,,,,,,,,,,,,,,,,,,,,,,,,,,,,,
166,ledian,Johto,78.5,"4'07""",bug,flying,4.07,,,,,,,,,,,,,,,,,2,N,Y,,,,,,,,,,,,,,,,,,,,,,,,,,,,,,,,,,,,,,,,,,
167,spinarak,Johto,18.7,"1'08""",bug,poison,1.08,ariados,,,,,,,,22,,,,,,,,1,N,Y,,,,,,,,,,,,,,,,,,,,,,,,,,,,,,,,,,,,,,,,,,
168,ariados,Johto,73.9,"3'07""",bug,poison,3.07,,,,,,,,,,,,,,,,,2,N,Y,,,,,,,,,,,,,,,,,,,,,,,,,,,,,,,,,,,,,,,,,,
169,crobat,Johto,165.3,"5'11""",poison,flying,5.11,,,,,,,,,,,,,,,,,3,N,Y,,,,,,,,,,,,,,,,,,,,,,,,,,,,,,,,,,,,,,,,,,
170,chinchou,Johto,26.5,"1'08""",water,electric,1.08,lanturn,,,,,,,,27,,,,,,,,1,N,Y,,,,,,,,,,,,,,,,,,,,,,,,,,,,,,,,,,,,,,,,,,
171,lanturn,Johto,49.6,"3'11""",water,electric,3.11,,,,,,,,,,,,,,,,,2,N,Y,,,,,,,,,,,,,,,,,,,,,,,,,,,,,,,,,,,,,,,,,,
172,pichu,Johto,4.4,"1'00""",electric,,1,pikachu,,,,,,,,lvl+ with friendship,,,,,,,,1,N,Y,,,,,,,,,,,,,,,,,,,,,,,,,,,,,,,,,,,,,,,,,,
173,cleffa,Johto,6.6,"1'00""",fairy,,1,clefairy,,,,,,,,lvl+ with friendship,,,,,,,,1,N,Y,,,,,,,,,,,,,,,,,,,,,,,,,,,,,,,,,,,,,,,,,,
174,igglybuff,Johto,2.2,"1'00""",normal,fairy,1,jigglypuff,,,,,,,,lvl+ with friendship,,,,,,,,1,N,Y,,,,,,,,,,,,,,,,,,,,,,,,,,,,,,,,,,,,,,,,,,
175,togepi,Johto,3.3,"1'00""",fairy,,1,togetic,,,,,,,,lvl+  with friendship,,,,,,,,1,N,Y,,,,,,,,,,,,,,,,,,,,,,,,,,,,,,,,,,,,,,,,,,
176,togetic,Johto,7.1,"2'00""",fairy,flying,2,togekiss,,,,,,,,shiny stone,,,,,,,,2,N,Y,,,,,,,,,,,,,,,,,,,,,,,,,,,,,,,,,,,,,,,,,,
177,natu,Johto,4.4,"0'08""",psychic,flying,0.08,xatu,,,,,,,,25,,,,,,,,1,N,Y,,,,,,,,,,,,,,,,,,,,,,,,,,,,,,,,,,,,,,,,,,
178,xatu,Johto,33.1,"4'11""",psychic,flying,4.11,,,,,,,,,,,,,,,,,2,N,Y,,,,,,,,,,,,,,,,,,,,,,,,,,,,,,,,,,,,,,,,,,
179,mareep,Johto,17.2,"2'00""",electric,,2,flaafy,,,,,,,,15,,,,,,,,1,N,Y,,,,,,,,,,,,,,,,,,,,,,,,,,,,,,,,,,,,,,,,,,
180,flaafy,Johto,29.3,"2'07""",electric,,2.07,ampharos,,,,,,,,30,,,,,,,,2,N,Y,,,,,,,,,,,,,,,,,,,,,,,,,,,,,,,,,,,,,,,,,,
181,ampharos,Johto,135.6,"4'07""",electric,,4.07,,,,,,,,,,,,,,,,,3,N,Y,,,,,,,,,,,,,,,,,,,,,,,,,,,,,,,,,,,,,,,,,,
182,bellossom,Johto,12.8,"1'04""",grass,,1.04,,,,,,,,,,,,,,,,,3,N,Y,,,,,,,,,,,,,,,,,,,,,,,,,,,,,,,,,,,,,,,,,,
183,marill,Johto,18.7,"1'04""",water,fairy,1.04,azumarill,,,,,,,,18,,,,,,,,2,N,Y,,,,,,,,,,,,,,,,,,,,,,,,,,,,,,,,,,,,,,,,,,
184,azumarill,Johto,62.8,"2'07""",water,fairy,2.07,,,,,,,,,,,,,,,,,3,N,Y,,,,,,,,,,,,,,,,,,,,,,,,,,,,,,,,,,,,,,,,,,
185,sudowoodo,Johto,83.8,"3'11""",rock,,3.11,,,,,,,,,,,,,,,,,2,N,Y,,,,,,,,,,,,,,,,,,,,,,,,,,,,,,,,,,,,,,,,,,
186,politoed,Johto,74.7,"3'07""",water,,3.07,,,,,,,,,,,,,,,,,3,N,Y,,,,,,,,,,,,,,,,,,,,,,,,,,,,,,,,,,,,,,,,,,
187,hoppip,Johto,1.1,"1'04""",grass,flying,1.04,skiploom,,,,,,,,18,,,,,,,,1,N,Y,,,,,,,,,,,,,,,,,,,,,,,,,,,,,,,,,,,,,,,,,,
188,skiploom,Johto,2.2,"2'00""",grass,flying,2,jumpluff,,,,,,,,27,,,,,,,,2,N,Y,,,,,,,,,,,,,,,,,,,,,,,,,,,,,,,,,,,,,,,,,,
189,jumpluff,Johto,6.6,"2'07""",grass,flying,2.07,,,,,,,,,,,,,,,,,3,N,Y,,,,,,,,,,,,,,,,,,,,,,,,,,,,,,,,,,,,,,,,,,
190,aipom,Johto,25.4,"2'07""",normal,,2.07,ambipom,,,,,,,,lvl+ with double hit,,,,,,,,1,N,Y,,,,,,,,,,,,,,,,,,,,,,,,,,,,,,,,,,,,,,,,,,
191,sunkern,Johto,4,"1'00""",grass,,1,sunflora,,,,,,,,sun stone,,,,,,,,1,N,Y,,,,,,,,,,,,,,,,,,,,,,,,,,,,,,,,,,,,,,,,,,
192,sunflora,Johto,18.7,"2'07""",grass,,2.07,,,,,,,,,,,,,,,,,2,N,Y,,,,,,,,,,,,,,,,,,,,,,,,,,,,,,,,,,,,,,,,,,
193,yanma,Johto,83.8,"3'11""",bug,flying,3.11,yanmega,,,,,,,,lvl+ with ancient power,,,,,,,,1,N,Y,,,,,,,,,,,,,,,,,,,,,,,,,,,,,,,,,,,,,,,,,,
194,wooper,Johto,18.7,"1'04""",water,ground,1.04,quagsire,,,,,,,,20,,,,,,,,1,N,Y,,,,,,,,,,,,,,,,,,,,,,,,,,,,,,,,,,,,,,,,,,
195,quagsire,Johto,165.3,"4'07""",water,ground,4.07,,,,,,,,,,,,,,,,,2,N,Y,,,,,,,,,,,,,,,,,,,,,,,,,,,,,,,,,,,,,,,,,,
196,espeon,Johto,58.4,"2'11""",psychic,,2.11,,,,,,,,,,,,,,,,,2,N,Y,,,,,,,,,,,,,,,,,,,,,,,,,,,,,,,,,,,,,,,,,,
197,umbreon,Johto,59.5,"3'03""",dark,,3.03,,,,,,,,,,,,,,,,,2,N,Y,,,,,,,,,,,,,,,,,,,,,,,,,,,,,,,,,,,,,,,,,,
198,murkrow,Johto,4.6,"1'08""",dark,flying,1.08,honchkrow,,,,,,,,dusk stone,,,,,,,,1,N,Y,,,,,,,,,,,,,,,,,,,,,,,,,,,,,,,,,,,,,,,,,,
199,slowking,Johto,175.3,"6'07""",water,psychic,6.07,,,,,,,,,,,,,,,,,2,N,Y,,,,,,,,,,,,,,,,,,,,,,,,,,,,,,,,,,,,,,,,,,
199.1,slowking,Galar,175.3,"5'11""",poison,psychic,5.11,,,,,,,,,,,,,,,,,2,N,N,,,,,,,,,,,,,,,,,,,,,,,,,,,,,,,,,,,,,,,,,,
200,misdreavus,Johto,2.2,"2'04""",ghost,,2.04,mismagius,,,,,,,,dusk stone,,,,,,,,1,N,Y,,,,,,,,,,,,,,,,,,,,,,,,,,,,,,,,,,,,,,,,,,
201,unown,Johto,11,"1'08""",psychic,,1.08,,,,,,,,,,,,,,,,,0,N,Y,,,,,,,,,,,,,,,,,,,,,,,,,,,,,,,,,,,,,,,,,,
202,wobbuffet,Johto,62.8,"4'03""",psychic,,4.03,,,,,,,,,,,,,,,,,2,N,Y,,,,,,,,,,,,,,,,,,,,,,,,,,,,,,,,,,,,,,,,,,
203,girafarig,Johto,91.5,"4'11""",normal,psychic,4.11,,,,,,,,,,,,,,,,,0,N,Y,,,,,,,,,,,,,,,,,,,,,,,,,,,,,,,,,,,,,,,,,,
204,pineco,Johto,15.9,"2'00""",bug,,2,forretress,,,,,,,,31,,,,,,,,1,N,Y,,,,,,,,,,,,,,,,,,,,,,,,,,,,,,,,,,,,,,,,,,
205,forretress,Johto,277.3,"3'11""",bug,steel,3.11,,,,,,,,,,,,,,,,,2,N,Y,,,,,,,,,,,,,,,,,,,,,,,,,,,,,,,,,,,,,,,,,,
206,dunsparce,Johto,30.9,"4'11""",normal,,4.11,,,,,,,,,,,,,,,,,0,N,Y,,,,,,,,,,,,,,,,,,,,,,,,,,,,,,,,,,,,,,,,,,
207,gligar,Johto,142.9,"3'07""",ground,flying,3.07,gliscor,,,,,,,,lvl+ at night holding razor fang,,,,,,,,1,N,Y,,,,,,,,,,,,,,,,,,,,,,,,,,,,,,,,,,,,,,,,,,
208,steelix,Johto,881.8,"30'02""",steel,ground,30.02,,,,,,,,,,,,,,,,,2,N,Y,,,,,,,,,,,,,,,,,,,,,,,,,,,,,,,,,,,,,,,,,,
209,snubbull,Johto,17.2,"2'00""",fairy,,2,granbull,,,,,,,,23,,,,,,,,1,N,Y,,,,,,,,,,,,,,,,,,,,,,,,,,,,,,,,,,,,,,,,,,
210,granbull,Johto,107.4,"4'07""",fairy,,4.07,,,,,,,,,,,,,,,,,2,N,Y,,,,,,,,,,,,,,,,,,,,,,,,,,,,,,,,,,,,,,,,,,
211,qwilfish,Johto,8.6,"1'08""",water,poison,1.08,,,,,,,,,,,,,,,,,0,N,Y,,,,,,,,,,,,,,,,,,,,,,,,,,,,,,,,,,,,,,,,,,
212,scizor,Johto,260.1,"5'11""",bug,steel,5.11,,,,,,,,,,,,,,,,,2,N,Y,,,,,,,,,,,,,,,,,,,,,,,,,,,,,,,,,,,,,,,,,,
213,shuckle,Johto,45.2,"2'00""",bug,rock,2,,,,,,,,,,,,,,,,,0,N,Y,,,,,,,,,,,,,,,,,,,,,,,,,,,,,,,,,,,,,,,,,,
214,heracross,Johto,119,"4'11""",bug,fighting,4.11,,,,,,,,,,,,,,,,,0,N,Y,,,,,,,,,,,,,,,,,,,,,,,,,,,,,,,,,,,,,,,,,,
215,sneasel,Johto,61.7,"2'11""",dark,ice,2.11,weavile,,,,,,,,lvl+ at night holding razor claw,,,,,,,,1,N,Y,,,,,,,,,,,,,,,,,,,,,,,,,,,,,,,,,,,,,,,,,,
216,teddiursa,Johto,19.4,"2'00""",normal,,2,ursaring,,,,,,,,30,,,,,,,,1,N,Y,,,,,,,,,,,,,,,,,,,,,,,,,,,,,,,,,,,,,,,,,,
217,ursaring,Johto,277.3,"5'11""",normal,,5.11,,,,,,,,,,,,,,,,,2,N,Y,,,,,,,,,,,,,,,,,,,,,,,,,,,,,,,,,,,,,,,,,,
218,slugma,Johto,77.2,"2'04""",fire,,2.04,magcargo,,,,,,,,38,,,,,,,,1,N,Y,,,,,,,,,,,,,,,,,,,,,,,,,,,,,,,,,,,,,,,,,,
219,magcargo,Johto,121.3,"2'07""",fire,rock,2.07,,,,,,,,,,,,,,,,,2,N,Y,,,,,,,,,,,,,,,,,,,,,,,,,,,,,,,,,,,,,,,,,,
220,swinub,Johto,14.3,"1'04""",ice,ground,1.04,piloswine,,,,,,,,33,,,,,,,,1,N,Y,,,,,,,,,,,,,,,,,,,,,,,,,,,,,,,,,,,,,,,,,,
221,piloswine,Johto,123,"3'07""",ice,ground,3.07,mamoswine,,,,,,,,lvl+ with ancient power,,,,,,,,2,N,Y,,,,,,,,,,,,,,,,,,,,,,,,,,,,,,,,,,,,,,,,,,
222,corsola,Johto,11,"2'00""",water,rock,2,,,,,,,,,,,,,,,,,0,N,Y,,,,,,,,,,,,,,,,,,,,,,,,,,,,,,,,,,,,,,,,,,
222.1,corsola,Galar,13.9,"1'00""",ghost,,1,cursola,,,,,,,,38,,,,,,,,1,N,N,,,,,,,,,,,,,,,,,,,,,,,,,,,,,,,,,,,,,,,,,,
223,remoraid,Johto,26.5,"2'00""",water,,2,octillery,,,,,,,,25,,,,,,,,1,N,Y,,,,,,,,,,,,,,,,,,,,,,,,,,,,,,,,,,,,,,,,,,
224,octillery,Johto,62.8,"2'11""",water,,2.11,,,,,,,,,,,,,,,,,2,N,Y,,,,,,,,,,,,,,,,,,,,,,,,,,,,,,,,,,,,,,,,,,
225,delibird,Johto,35.3,"2'11""",ice,flying,2.11,,,,,,,,,,,,,,,,,0,N,Y,,,,,,,,,,,,,,,,,,,,,,,,,,,,,,,,,,,,,,,,,,
226,mantine,Johto,485,"6'11""",water,flying,6.11,,,,,,,,,,,,,,,,,2,N,Y,,,,,,,,,,,,,,,,,,,,,,,,,,,,,,,,,,,,,,,,,,
227,skarmory,Johto,111.3,"5'07""",steel,flying,5.07,,,,,,,,,,,,,,,,,0,N,Y,,,,,,,,,,,,,,,,,,,,,,,,,,,,,,,,,,,,,,,,,,
228,houndour,Johto,23.8,"2'00""",dark,fire,2,houndoom,,,,,,,,24,,,,,,,,1,N,Y,,,,,,,,,,,,,,,,,,,,,,,,,,,,,,,,,,,,,,,,,,
229,houndoom,Johto,77.2,"4'07""",dark,fire,4.07,,,,,,,,,,,,,,,,,2,N,Y,,,,,,,,,,,,,,,,,,,,,,,,,,,,,,,,,,,,,,,,,,
230,kingdra,Johto,335.1,"5'11""",water,dragon,5.11,,,,,,,,,,,,,,,,,3,N,Y,,,,,,,,,,,,,,,,,,,,,,,,,,,,,,,,,,,,,,,,,,
231,phanpy,Johto,73.9,"1'08""",ground,,1.08,donphan,,,,,,,,25,,,,,,,,1,N,Y,,,,,,,,,,,,,,,,,,,,,,,,,,,,,,,,,,,,,,,,,,
232,donphan,Johto,264.6,"3'07""",ground,,3.07,,,,,,,,,,,,,,,,,2,N,Y,,,,,,,,,,,,,,,,,,,,,,,,,,,,,,,,,,,,,,,,,,
233,porygon2,Johto,71.3,"2'00""",normal,,2,porygon-Z,,,,,,,,trade with dubious disc,,,,,,,,2,N,Y,,,,,,,,,,,,,,,,,,,,,,,,,,,,,,,,,,,,,,,,,,
234,stantler,Johto,157,"4'07""",normal,,4.07,,,,,,,,,,,,,,,,,0,N,Y,,,,,,,,,,,,,,,,,,,,,,,,,,,,,,,,,,,,,,,,,,
235,smeargle,Johto,127.9,"3'11""",normal,,3.11,,,,,,,,,,,,,,,,,0,N,Y,,,,,,,,,,,,,,,,,,,,,,,,,,,,,,,,,,,,,,,,,,
236,tyrogue,Johto,46.3,"2'04""",fighting,,2.04,hitmonlee,hitmonchan,hitmontop,,,,,,20 with attack higher than defense,20 with defense higher than attack,20 with attack equal to defense,,,,,,1,N,Y,,,,,,,,,,,,,,,,,,,,,,,,,,,,,,,,,,,,,,,,,,
237,hitmontop,Johto,105.8,"4'07""",fighting,,4.07,,,,,,,,,,,,,,,,,2,N,Y,,,,,,,,,,,,,,,,,,,,,,,,,,,,,,,,,,,,,,,,,,
238,smoochum,Johto,13.2,"1'04""",ice,psychic,1.04,jynx,,,,,,,,30,,,,,,,,1,N,Y,,,,,,,,,,,,,,,,,,,,,,,,,,,,,,,,,,,,,,,,,,
239,elekid,Johto,51.8,"2'00""",electric,,2,electabuzz,,,,,,,,30,,,,,,,,1,N,Y,,,,,,,,,,,,,,,,,,,,,,,,,,,,,,,,,,,,,,,,,,
240,magby,Johto,47.2,"2'04""",fire,,2.04,magmar,,,,,,,,30,,,,,,,,1,N,Y,,,,,,,,,,,,,,,,,,,,,,,,,,,,,,,,,,,,,,,,,,
241,miltank,Johto,166.4,"3'11""",normal,,3.11,,,,,,,,,,,,,,,,,0,N,Y,,,,,,,,,,,,,,,,,,,,,,,,,,,,,,,,,,,,,,,,,,
242,blissey,Johto,103.2,"4'11""",normal,,4.11,,,,,,,,,,,,,,,,,2,N,Y,,,,,,,,,,,,,,,,,,,,,,,,,,,,,,,,,,,,,,,,,,
243,raikou,Johto,392.4,"6'03""",electric,,6.03,,,,,,,,,,,,,,,,,0,N,Y,,,,,,,,,,,,,,,,,,,,,,,,,,,,,,,,,,,,,,,,,,
244,entei,Johto,436.5,"6'11""",fire,,6.11,,,,,,,,,,,,,,,,,0,N,Y,,,,,,,,,,,,,,,,,,,,,,,,,,,,,,,,,,,,,,,,,,
245,suicune,Johto,412.3,"6'07""",water,,6.07,,,,,,,,,,,,,,,,,0,N,Y,,,,,,,,,,,,,,,,,,,,,,,,,,,,,,,,,,,,,,,,,,
246,larvitar,Johto,158.7,"2'00""",rock,ground,2,pupitar,,,,,,,,30,,,,,,,,1,N,Y,,,,,,,,,,,,,,,,,,,,,,,,,,,,,,,,,,,,,,,,,,
247,pupitar,Johto,335.1,"3'11""",rock,ground,3.11,tyranitar,,,,,,,,55,,,,,,,,2,N,Y,,,,,,,,,,,,,,,,,,,,,,,,,,,,,,,,,,,,,,,,,,
248,tyranitar,Johto,445.3,"6'07""",rock,dark,6.07,,,,,,,,,,,,,,,,,3,N,Y,,,,,,,,,,,,,,,,,,,,,,,,,,,,,,,,,,,,,,,,,,
249,lugia,Johto,476.2,"17'01""",psychic,flying,17.01,,,,,,,,,,,,,,,,,0,N,Y,,,,,,,,,,,,,,,,,,,,,,,,,,,,,,,,,,,,,,,,,,
250,Ho-Oh,Johto,438.7,"12'06""",fire,flying,12.06,,,,,,,,,,,,,,,,,0,N,Y,,,,,,,,,,,,,,,,,,,,,,,,,,,,,,,,,,,,,,,,,,
251,celebi,Johto,11,"2'00""",psychic,grass,2,,,,,,,,,,,,,,,,,0,N,Y,,,,,,,,,,,,,,,,,,,,,,,,,,,,,,,,,,,,,,,,,,
252,treecko,Hoenn,11,"1'08""",grass,,1.08,grovyle,,,,,,,,16,,,,,,,,1,N,N,Y,,,,,,,,,,,,,,,,,,,,,,,,,,,,,,,,,,,,,,,,,
253,grovyle,Hoenn,47.6,"2'11""",grass,,2.11,sceptile,,,,,,,,36,,,,,,,,2,N,N,Y,,,,,,,,,,,,,,,,,,,,,,,,,,,,,,,,,,,,,,,,,
254,sceptile,Hoenn,115.1,"5'07""",grass,,5.07,,,,,,,,,,,,,,,,,3,N,N,Y,,,,,,,,,,,,,,,,,,,,,,,,,,,,,,,,,,,,,,,,,
255,torchic,Hoenn,5.5,"1'04""",fire,,1.04,combusken,,,,,,,,16,,,,,,,,1,N,N,Y,,,,,,,,,,,,,,,,,,,,,,,,,,,,,,,,,,,,,,,,,
256,combusken,Hoenn,43,"2'11""",fire,fighting,2.11,blaziken,,,,,,,,36,,,,,,,,2,N,N,Y,,,,,,,,,,,,,,,,,,,,,,,,,,,,,,,,,,,,,,,,,
257,blaziken,Hoenn,114.6,"6'03""",fire,fighting,6.03,,,,,,,,,,,,,,,,,3,N,N,Y,,,,,,,,,,,,,,,,,,,,,,,,,,,,,,,,,,,,,,,,,
258,mudkip,Hoenn,16.8,"1'04""",water,,1.04,marshtomp,,,,,,,,16,,,,,,,,1,N,N,Y,,,,,,,,,,,,,,,,,,,,,,,,,,,,,,,,,,,,,,,,,
259,marshtomp,Hoenn,61.7,"2'04""",water,ground,2.04,swampert,,,,,,,,36,,,,,,,,2,N,N,Y,,,,,,,,,,,,,,,,,,,,,,,,,,,,,,,,,,,,,,,,,
260,swampert,Hoenn,180.6,"4'11""",water,ground,4.11,,,,,,,,,,,,,,,,,3,N,N,Y,,,,,,,,,,,,,,,,,,,,,,,,,,,,,,,,,,,,,,,,,
261,poochyena,Hoenn,30,"1'08""",dark,,1.08,mightyena,,,,,,,,18,,,,,,,,1,N,N,Y,,,,,,,,,,,,,,,,,,,,,,,,,,,,,,,,,,,,,,,,,
262,mightyena,Hoenn,81.6,"3'03""",dark,,3.03,,,,,,,,,,,,,,,,,2,N,N,Y,,,,,,,,,,,,,,,,,,,,,,,,,,,,,,,,,,,,,,,,,
263,zigzagoon,Hoenn,38.6,"1'04""",normal,,1.04,linoone,,,,,,,,20,,,,,,,,1,N,N,Y,,,,,,,,,,,,,,,,,,,,,,,,,,,,,,,,,,,,,,,,,
263.1,zigzagoon,Galar,65.9,"2'11""",dark,normal,2.11,linoone,,,,,,,,20,,,,,,,,1,N,N,N,,,,,,,,,,,,,,,,,,,,,,,,,,,,,,,,,,,,,,,,,
264,linoone,Hoenn,71.7,"1'08""",normal,,1.08,,,,,,,,,,,,,,,,,2,N,N,Y,,,,,,,,,,,,,,,,,,,,,,,,,,,,,,,,,,,,,,,,,
264.1,linoone,Galar,71.7,"1'08""",dark,normal,1.08,obstagoon,,,,,,,,35 at night,,,,,,,,2,N,N,N,,,,,,,,,,,,,,,,,,,,,,,,,,,,,,,,,,,,,,,,,
265,wurmple,Hoenn,7.9,"1'00""",bug,,1,silcoon,cascoon,,,,,,,7 random,7 random,,,,,,,1,N,N,Y,,,,,,,,,,,,,,,,,,,,,,,,,,,,,,,,,,,,,,,,,
266,silcoon,Hoenn,22,"2'00""",bug,,2,beautifly,,,,,,,,10,,,,,,,,2,N,N,Y,,,,,,,,,,,,,,,,,,,,,,,,,,,,,,,,,,,,,,,,,
267,beautifly,Hoenn,62.6,"3'03""",bug,flying,3.03,,,,,,,,,,,,,,,,,3,N,N,Y,,,,,,,,,,,,,,,,,,,,,,,,,,,,,,,,,,,,,,,,,
268,cascoon,Hoenn,25.4,"2'04""",bug,,2.04,dustox,,,,,,,,10,,,,,,,,2,N,N,Y,,,,,,,,,,,,,,,,,,,,,,,,,,,,,,,,,,,,,,,,,
269,dustox,Hoenn,69.7,"3'11""",bug,poison,3.11,,,,,,,,,,,,,,,,,3,N,N,Y,,,,,,,,,,,,,,,,,,,,,,,,,,,,,,,,,,,,,,,,,
270,lotad,Hoenn,5.7,"1'08""",water,grass,1.08,lombre,,,,,,,,14,,,,,,,,1,N,N,Y,,,,,,,,,,,,,,,,,,,,,,,,,,,,,,,,,,,,,,,,,
271,lombre,Hoenn,71.6,"3'11""",water,grass,3.11,ludicolo,,,,,,,,water stone,,,,,,,,2,N,N,Y,,,,,,,,,,,,,,,,,,,,,,,,,,,,,,,,,,,,,,,,,
272,ludicolo,Hoenn,121.3,"4'11""",water,grass,4.11,,,,,,,,,,,,,,,,,3,N,N,Y,,,,,,,,,,,,,,,,,,,,,,,,,,,,,,,,,,,,,,,,,
273,seedot,Hoenn,8.8,"1'08""",grass,,1.08,nuzleaf,,,,,,,,14,,,,,,,,1,N,N,Y,,,,,,,,,,,,,,,,,,,,,,,,,,,,,,,,,,,,,,,,,
274,nuzleaf,Hoenn,61.7,"3'03""",grass,dark,3.03,shiftry,,,,,,,,leaf stone,,,,,,,,2,N,N,Y,,,,,,,,,,,,,,,,,,,,,,,,,,,,,,,,,,,,,,,,,
275,shiftry,Hoenn,131.4,"4'03""",grass,dark,4.03,,,,,,,,,,,,,,,,,3,N,N,Y,,,,,,,,,,,,,,,,,,,,,,,,,,,,,,,,,,,,,,,,,
276,taillow,Hoenn,5.1,1'00',normal,flying,1,swellow,,,,,,,,22,,,,,,,,1,N,N,Y,,,,,,,,,,,,,,,,,,,,,,,,,,,,,,,,,,,,,,,,,
277,swellow,Hoenn,43.7,"2'04""",normal,flying,2.04,,,,,,,,,,,,,,,,,2,N,N,Y,,,,,,,,,,,,,,,,,,,,,,,,,,,,,,,,,,,,,,,,,
278,wingull,Hoenn,20.9,"2'00""",water,flying,2,pelipper,,,,,,,,25,,,,,,,,1,N,N,Y,,,,,,,,,,,,,,,,,,,,,,,,,,,,,,,,,,,,,,,,,
279,pelipper,Hoenn,61.7,"3'11""",water,flying,3.11,,,,,,,,,,,,,,,,,2,N,N,Y,,,,,,,,,,,,,,,,,,,,,,,,,,,,,,,,,,,,,,,,,
280,ralts,Hoenn,14.6,1'04,psychic,fairy,1.04,kirlia,,,,,,,,20,,,,,,,,1,N,N,Y,,,,,,,,,,,,,,,,,,,,,,,,,,,,,,,,,,,,,,,,,
281,kirlia,Hoenn,44.5,"2'07""",psychic,fairy,2.07,gardevoir,gallade,,,,,,,30,dawn stone on male,,,,,,,2,N,N,Y,,,,,,,,,,,,,,,,,,,,,,,,,,,,,,,,,,,,,,,,,
282,gardevoir,Hoenn,106.7,"5'03""",psychic,fairy,5.03,,,,,,,,,,,,,,,,,3,N,N,Y,,,,,,,,,,,,,,,,,,,,,,,,,,,,,,,,,,,,,,,,,
283,surskit,Hoenn,3.7,"1'08""",bug,water,1.08,masquerain,,,,,,,,22,,,,,,,,1,N,N,Y,,,,,,,,,,,,,,,,,,,,,,,,,,,,,,,,,,,,,,,,,
284,masquerain,Hoenn,7.9,"2'07""",bug,flying,2.07,,,,,,,,,,,,,,,,,2,N,N,Y,,,,,,,,,,,,,,,,,,,,,,,,,,,,,,,,,,,,,,,,,
285,shroomish,Hoenn,9.9,"1'04""",grass,,1.04,breloom,,,,,,,,23,,,,,,,,1,N,N,Y,,,,,,,,,,,,,,,,,,,,,,,,,,,,,,,,,,,,,,,,,
286,breloom,Hoenn,86.4,"3'11""",grass,fighting,3.11,,,,,,,,,,,,,,,,,2,N,N,Y,,,,,,,,,,,,,,,,,,,,,,,,,,,,,,,,,,,,,,,,,
287,slakoth,Hoenn,52.9,"2'07""",normal,,2.07,vigoroth,,,,,,,,18,,,,,,,,1,N,N,Y,,,,,,,,,,,,,,,,,,,,,,,,,,,,,,,,,,,,,,,,,
288,vigoroth,Hoenn,102.5,"4'07""",normal,,4.07,slaking,,,,,,,,36,,,,,,,,2,N,N,Y,,,,,,,,,,,,,,,,,,,,,,,,,,,,,,,,,,,,,,,,,
289,slaking,Hoenn,287.7,"6'07""",normal,,6.07,,,,,,,,,,,,,,,,,3,N,N,Y,,,,,,,,,,,,,,,,,,,,,,,,,,,,,,,,,,,,,,,,,
290,nincada,Hoenn,12.1,"1'08""",bug,ground,1.08,ninjask,shedinja,,,,,,,20,20 with a free spot on your team,,,,,,,1,N,N,Y,,,,,,,,,,,,,,,,,,,,,,,,,,,,,,,,,,,,,,,,,
291,ninjask,Hoenn,26.5,"2'07""",bug,flying,2.07,,,,,,,,,,,,,,,,,2,N,N,Y,,,,,,,,,,,,,,,,,,,,,,,,,,,,,,,,,,,,,,,,,
292,shedinja,Hoenn,2.6,"2'07""",bug,ghost,2.07,,,,,,,,,,,,,,,,,2,N,N,Y,,,,,,,,,,,,,,,,,,,,,,,,,,,,,,,,,,,,,,,,,
293,whismur,Hoenn,35.9,"2'00""",normal,,2,loudred,,,,,,,,20,,,,,,,,1,N,N,Y,,,,,,,,,,,,,,,,,,,,,,,,,,,,,,,,,,,,,,,,,
294,loudred,Hoenn,89.3,"3'03""",normal,,3.03,exploud,,,,,,,,40,,,,,,,,2,N,N,Y,,,,,,,,,,,,,,,,,,,,,,,,,,,,,,,,,,,,,,,,,
295,exploud,Hoenn,185.2,"4'11""",normal,,4.11,,,,,,,,,,,,,,,,,3,N,N,Y,,,,,,,,,,,,,,,,,,,,,,,,,,,,,,,,,,,,,,,,,
296,makuhita,Hoenn,190.5,"3'03""",fighting,,3.03,hariyama,,,,,,,,24,,,,,,,,1,N,N,Y,,,,,,,,,,,,,,,,,,,,,,,,,,,,,,,,,,,,,,,,,
297,hariyama,Hoenn,559.5,"7'07""",fighting,,7.07,,,,,,,,,,,,,,,,,2,N,N,Y,,,,,,,,,,,,,,,,,,,,,,,,,,,,,,,,,,,,,,,,,
298,azuril,Hoenn,4.4,"0'08""",normal,fairy,0.08,marill,,,,,,,,lvl+ with friendship,,,,,,,,1,N,N,Y,,,,,,,,,,,,,,,,,,,,,,,,,,,,,,,,,,,,,,,,,
299,nosepass,Hoenn,213.8,"3'03""",rock,,3.03,probopass,,,,,,,,lvl+ in electric area,,,,,,,,1,N,N,Y,,,,,,,,,,,,,,,,,,,,,,,,,,,,,,,,,,,,,,,,,
300,skitty,Hoenn,24.3,"2'00""",normal,,2,delcatty,,,,,,,,moon stone,,,,,,,,1,N,N,Y,,,,,,,,,,,,,,,,,,,,,,,,,,,,,,,,,,,,,,,,,
301,delcatty,Hoenn,71.9,"3'07""",normal,,3.07,,,,,,,,,,,,,,,,,2,N,N,Y,,,,,,,,,,,,,,,,,,,,,,,,,,,,,,,,,,,,,,,,,
302,sableye,Hoenn,24.3,"1'08""",dark,ghost,1.08,,,,,,,,,,,,,,,,,0,N,N,Y,,,,,,,,,,,,,,,,,,,,,,,,,,,,,,,,,,,,,,,,,
303,mawile,Hoenn,25.4,"2'00""",steel,fairy,2,,,,,,,,,,,,,,,,,0,N,N,Y,,,,,,,,,,,,,,,,,,,,,,,,,,,,,,,,,,,,,,,,,
304,aron,Hoenn,132.3,"1'04""",steel,rock,1.04,lairon,,,,,,,,32,,,,,,,,1,N,N,Y,,,,,,,,,,,,,,,,,,,,,,,,,,,,,,,,,,,,,,,,,
305,lairon,Hoenn,264.6,"2'11""",steel,rock,2.11,aggron,,,,,,,,42,,,,,,,,2,N,N,Y,,,,,,,,,,,,,,,,,,,,,,,,,,,,,,,,,,,,,,,,,
306,aggron,Hoenn,793.7,"6'11""",steel,rock,6.11,,,,,,,,,,,,,,,,,3,N,N,Y,,,,,,,,,,,,,,,,,,,,,,,,,,,,,,,,,,,,,,,,,
307,meditite,Hoenn,24.7,"2'00""",fighting,psychic,2,medicham,,,,,,,,37,,,,,,,,1,N,N,Y,,,,,,,,,,,,,,,,,,,,,,,,,,,,,,,,,,,,,,,,,
308,medicham,Hoenn,69.4,"4'03""",fighting,psychic,4.03,,,,,,,,,,,,,,,,,2,N,N,Y,,,,,,,,,,,,,,,,,,,,,,,,,,,,,,,,,,,,,,,,,
309,electrike,Hoenn,33.5,"2'00""",electric,,2,manetric,,,,,,,,26,,,,,,,,1,N,N,Y,,,,,,,,,,,,,,,,,,,,,,,,,,,,,,,,,,,,,,,,,
310,manetric,Hoenn,88.6,"4'11""",electric,,4.11,,,,,,,,,,,,,,,,,2,N,N,Y,,,,,,,,,,,,,,,,,,,,,,,,,,,,,,,,,,,,,,,,,
311,plusle,Hoenn,9.3,"1'04""",electric,,1.04,,,,,,,,,,,,,,,,,0,N,N,Y,,,,,,,,,,,,,,,,,,,,,,,,,,,,,,,,,,,,,,,,,
312,minun,Hoenn,9.3,"1'04""",electric,,1.04,,,,,,,,,,,,,,,,,0,N,N,Y,,,,,,,,,,,,,,,,,,,,,,,,,,,,,,,,,,,,,,,,,
313,volbeat,Hoenn,39,"2'04""",bug,,2.04,,,,,,,,,,,,,,,,,0,N,N,Y,,,,,,,,,,,,,,,,,,,,,,,,,,,,,,,,,,,,,,,,,
314,illumise,Hoenn,39,"2'00""",bug,,2,,,,,,,,,,,,,,,,,0,N,N,Y,,,,,,,,,,,,,,,,,,,,,,,,,,,,,,,,,,,,,,,,,
315,roselia,Hoenn,4.4,"1'00""",grass,poison,1,roserade,,,,,,,,shiny stone,,,,,,,,2,N,N,Y,,,,,,,,,,,,,,,,,,,,,,,,,,,,,,,,,,,,,,,,,
316,gulpin,Hoenn,22.7,"1'04""",poison,,1.04,swalot,,,,,,,,26,,,,,,,,1,N,N,Y,,,,,,,,,,,,,,,,,,,,,,,,,,,,,,,,,,,,,,,,,
317,swalot,Hoenn,176.4,"5'07""",poison,,5.07,,,,,,,,,,,,,,,,,2,N,N,Y,,,,,,,,,,,,,,,,,,,,,,,,,,,,,,,,,,,,,,,,,
318,carvanha,Hoenn,45.9,"2'07""",water,dark,2.07,sharpedo,,,,,,,,30,,,,,,,,1,N,N,Y,,,,,,,,,,,,,,,,,,,,,,,,,,,,,,,,,,,,,,,,,
319,sharpedo,Hoenn,195.8,"5'11""",water,dark,5.11,,,,,,,,,,,,,,,,,2,N,N,Y,,,,,,,,,,,,,,,,,,,,,,,,,,,,,,,,,,,,,,,,,
320,wailmer,Hoenn,286.6,"6'07""",water,,6.07,wailord,,,,,,,,40,,,,,,,,1,N,N,Y,,,,,,,,,,,,,,,,,,,,,,,,,,,,,,,,,,,,,,,,,
321,wailord,Hoenn,877.4,"47'07""",water,,47.07,,,,,,,,,,,,,,,,,2,N,N,Y,,,,,,,,,,,,,,,,,,,,,,,,,,,,,,,,,,,,,,,,,
322,numel,Hoenn,52.9,"2'04""",fire,ground,2.04,camerupt,,,,,,,,33,,,,,,,,1,N,N,Y,,,,,,,,,,,,,,,,,,,,,,,,,,,,,,,,,,,,,,,,,
323,camerupt,Hoenn,485,"6'03""",fire,ground,6.03,,,,,,,,,,,,,,,,,2,N,N,Y,,,,,,,,,,,,,,,,,,,,,,,,,,,,,,,,,,,,,,,,,
324,torkoal,Hoenn,177.2,"1'08""",fire,,1.08,,,,,,,,,,,,,,,,,0,N,N,Y,,,,,,,,,,,,,,,,,,,,,,,,,,,,,,,,,,,,,,,,,
325,spoink,Hoenn,67.5,"2'04""",psychic,,2.04,grumpig,,,,,,,,32,,,,,,,,1,N,N,Y,,,,,,,,,,,,,,,,,,,,,,,,,,,,,,,,,,,,,,,,,
326,grumpig,Hoenn,157.6,"2'11""",psychic,,2.11,,,,,,,,,,,,,,,,,2,N,N,Y,,,,,,,,,,,,,,,,,,,,,,,,,,,,,,,,,,,,,,,,,
327,spinda,Hoenn,11,"3'07""",normal,,3.07,,,,,,,,,,,,,,,,,0,N,N,Y,,,,,,,,,,,,,,,,,,,,,,,,,,,,,,,,,,,,,,,,,
328,trapinch,Hoenn,33.1,"2'04""",ground,,2.04,vibrava,,,,,,,,35,,,,,,,,1,N,N,Y,,,,,,,,,,,,,,,,,,,,,,,,,,,,,,,,,,,,,,,,,
329,vibrava,Hoenn,33.7,"3'07""",ground,dragon,3.07,flygon,,,,,,,,45,,,,,,,,2,N,N,Y,,,,,,,,,,,,,,,,,,,,,,,,,,,,,,,,,,,,,,,,,
330,flygon,Hoenn,180.8,"6'07""",ground,dragon,6.07,,,,,,,,,,,,,,,,,3,N,N,Y,,,,,,,,,,,,,,,,,,,,,,,,,,,,,,,,,,,,,,,,,
331,cacnea,Hoenn,113.1,"1'04""",grass,,1.04,cacturne,,,,,,,,32,,,,,,,,1,N,N,Y,,,,,,,,,,,,,,,,,,,,,,,,,,,,,,,,,,,,,,,,,
332,cacturne,Hoenn,170.6,"4'03""",grass,dark,4.03,,,,,,,,,,,,,,,,,2,N,N,Y,,,,,,,,,,,,,,,,,,,,,,,,,,,,,,,,,,,,,,,,,
333,swablu,Hoenn,2.6,"1'04""",normal,flying,1.04,altaria,,,,,,,,35,,,,,,,,1,N,N,Y,,,,,,,,,,,,,,,,,,,,,,,,,,,,,,,,,,,,,,,,,
334,altaria,Hoenn,45.4,"3'07""",dragon,flying,3.07,,,,,,,,,,,,,,,,,2,N,N,Y,,,,,,,,,,,,,,,,,,,,,,,,,,,,,,,,,,,,,,,,,
335,zangoose,Hoenn,88.8,"4'03""",normal,,4.03,,,,,,,,,,,,,,,,,0,N,N,Y,,,,,,,,,,,,,,,,,,,,,,,,,,,,,,,,,,,,,,,,,
336,seviper,Hoenn,115.7,"8'10""",poison,,8.1,,,,,,,,,,,,,,,,,0,N,N,Y,,,,,,,,,,,,,,,,,,,,,,,,,,,,,,,,,,,,,,,,,
337,lunatone,Hoenn,370.4,"3'03""",rock,psychic,3.03,,,,,,,,,,,,,,,,,0,N,N,Y,,,,,,,,,,,,,,,,,,,,,,,,,,,,,,,,,,,,,,,,,
338,solrock,Hoenn,339.5,"3'11""",rock,psychic,3.11,,,,,,,,,,,,,,,,,0,N,N,Y,,,,,,,,,,,,,,,,,,,,,,,,,,,,,,,,,,,,,,,,,
339,barboach,Hoenn,4.2,"1'04""",water,ground,1.04,whiscash,,,,,,,,30,,,,,,,,1,N,N,Y,,,,,,,,,,,,,,,,,,,,,,,,,,,,,,,,,,,,,,,,,
340,whiscash,Hoenn,52,"2'11""",water,ground,2.11,,,,,,,,,,,,,,,,,2,N,N,Y,,,,,,,,,,,,,,,,,,,,,,,,,,,,,,,,,,,,,,,,,
341,corphish,Hoenn,25.4,"2'00""",water,,2,crawdaunt,,,,,,,,30,,,,,,,,1,N,N,Y,,,,,,,,,,,,,,,,,,,,,,,,,,,,,,,,,,,,,,,,,
342,crawdaunt,Hoenn,72.3,"3'07""",water,dark,3.07,,,,,,,,,,,,,,,,,2,N,N,Y,,,,,,,,,,,,,,,,,,,,,,,,,,,,,,,,,,,,,,,,,
343,baltoy,Hoenn,47.4,"1'08""",ground,psychic,1.08,claydol,,,,,,,,36,,,,,,,,1,N,N,Y,,,,,,,,,,,,,,,,,,,,,,,,,,,,,,,,,,,,,,,,,
344,claydol,Hoenn,238.1,"4'11""",ground,psychic,4.11,,,,,,,,,,,,,,,,,2,N,N,Y,,,,,,,,,,,,,,,,,,,,,,,,,,,,,,,,,,,,,,,,,
345,lileep,Hoenn,52.5,"3'03""",rock,grass,3.03,cradily,,,,,,,,40,,,,,,,,1,N,N,Y,,,,,,,,,,,,,,,,,,,,,,,,,,,,,,,,,,,,,,,,,
346,cradily,Hoenn,133.2,"4'11""",rock,grass,4.11,,,,,,,,,,,,,,,,,2,N,N,Y,,,,,,,,,,,,,,,,,,,,,,,,,,,,,,,,,,,,,,,,,
347,anorith,Hoenn,27.6,"2'04""",rock,bug,2.04,armaldo,,,,,,,,40,,,,,,,,1,N,N,Y,,,,,,,,,,,,,,,,,,,,,,,,,,,,,,,,,,,,,,,,,
348,armaldo,Hoenn,150.4,"4'11""",rock,bug,4.11,,,,,,,,,,,,,,,,,2,N,N,Y,,,,,,,,,,,,,,,,,,,,,,,,,,,,,,,,,,,,,,,,,
349,feebas,Hoenn,16.3,"2'00""",water,,2,milotic,,,,,,,,trade with prism scale,,,,,,,,1,N,N,Y,,,,,,,,,,,,,,,,,,,,,,,,,,,,,,,,,,,,,,,,,
350,milotic,Hoenn,357.1,"20'04""",water,,20.04,,,,,,,,,,,,,,,,,2,N,N,Y,,,,,,,,,,,,,,,,,,,,,,,,,,,,,,,,,,,,,,,,,
351,castform,Hoenn,1.8,"1'00""",normal,,1,,,,,,,,,,,,,,,,,0,N,N,Y,,,,,,,,,,,,,,,,,,,,,,,,,,,,,,,,,,,,,,,,,
352,kecleon,Hoenn,48.5,"3'03""",normal,,3.03,,,,,,,,,,,,,,,,,0,N,N,Y,,,,,,,,,,,,,,,,,,,,,,,,,,,,,,,,,,,,,,,,,
353,shuppet,Hoenn,5.1,"2'00""",ghost,,2,banette,,,,,,,,37,,,,,,,,1,N,N,Y,,,,,,,,,,,,,,,,,,,,,,,,,,,,,,,,,,,,,,,,,
354,banette,Hoenn,27.6,"3'07""",ghost,,3.07,,,,,,,,,,,,,,,,,2,N,N,Y,,,,,,,,,,,,,,,,,,,,,,,,,,,,,,,,,,,,,,,,,
355,duskull,Hoenn,33.1,"2'07""",ghost,,2.07,dusclops,,,,,,,,37,,,,,,,,1,N,N,Y,,,,,,,,,,,,,,,,,,,,,,,,,,,,,,,,,,,,,,,,,
356,dusclops,Hoenn,67.5,"5'03""",ghost,,5.03,dusknoir,,,,,,,,trade with reaper cloth,,,,,,,,2,N,N,Y,,,,,,,,,,,,,,,,,,,,,,,,,,,,,,,,,,,,,,,,,
357,tropius,Hoenn,220.5,"6'07""",grass,flying,6.07,,,,,,,,,,,,,,,,,0,N,N,Y,,,,,,,,,,,,,,,,,,,,,,,,,,,,,,,,,,,,,,,,,
358,chimecho,Hoenn,2.2,"2'00""",psychic,,2,,,,,,,,,,,,,,,,,2,N,N,Y,,,,,,,,,,,,,,,,,,,,,,,,,,,,,,,,,,,,,,,,,
359,absol,Hoenn,103.6,"3'11""",dark,,3.11,,,,,,,,,,,,,,,,,0,N,N,Y,,,,,,,,,,,,,,,,,,,,,,,,,,,,,,,,,,,,,,,,,
360,wynaut,Hoenn,30.9,"2'00""",psychic,,2,wobbuffet,,,,,,,,15,,,,,,,,1,N,N,Y,,,,,,,,,,,,,,,,,,,,,,,,,,,,,,,,,,,,,,,,,
361,snorunt,Hoenn,37,"2'04""",ice,,2.04,glalie,froslass,,,,,,,42,dawn stone on female,,,,,,,1,N,N,Y,,,,,,,,,,,,,,,,,,,,,,,,,,,,,,,,,,,,,,,,,
362,glalie,Hoenn,565.5,"4'11""",ice,,4.11,,,,,,,,,,,,,,,,,2,N,N,Y,,,,,,,,,,,,,,,,,,,,,,,,,,,,,,,,,,,,,,,,,
363,spheal,Hoenn,87.1,"2'07""",ice,water,2.07,sealeo,,,,,,,,32,,,,,,,,1,N,N,Y,,,,,,,,,,,,,,,,,,,,,,,,,,,,,,,,,,,,,,,,,
364,sealeo,Hoenn,193.1,"3'07""",ice,water,3.07,walrein,,,,,,,,44,,,,,,,,2,N,N,Y,,,,,,,,,,,,,,,,,,,,,,,,,,,,,,,,,,,,,,,,,
365,walrein,Hoenn,332,"4'07""",ice,water,4.07,,,,,,,,,,,,,,,,,3,N,N,Y,,,,,,,,,,,,,,,,,,,,,,,,,,,,,,,,,,,,,,,,,
366,clamperl,Hoenn,115.7,"1'04""",water,,1.04,huntail,gorebyss,,,,,,,trade with deep sea tooth,trade with deep sea scale,,,,,,,1,N,N,Y,,,,,,,,,,,,,,,,,,,,,,,,,,,,,,,,,,,,,,,,,
367,huntail,Hoenn,59.5,"5'07""",water,,5.07,,,,,,,,,,,,,,,,,2,N,N,Y,,,,,,,,,,,,,,,,,,,,,,,,,,,,,,,,,,,,,,,,,
368,gorebyss,Hoenn,49.8,"5'11""",water,,5.11,,,,,,,,,,,,,,,,,2,N,N,Y,,,,,,,,,,,,,,,,,,,,,,,,,,,,,,,,,,,,,,,,,
369,relicanth,Hoenn,51.6,"3'03""",water,rock,3.03,,,,,,,,,,,,,,,,,0,N,N,Y,,,,,,,,,,,,,,,,,,,,,,,,,,,,,,,,,,,,,,,,,
370,luvdisc,Hoenn,19.2,"2'00""",water,,2,,,,,,,,,,,,,,,,,0,N,N,Y,,,,,,,,,,,,,,,,,,,,,,,,,,,,,,,,,,,,,,,,,
371,bagon,Hoenn,92.8,"2'00""",dragon,,2,shelgon,,,,,,,,30,,,,,,,,1,N,N,Y,,,,,,,,,,,,,,,,,,,,,,,,,,,,,,,,,,,,,,,,,
372,shelgon,Hoenn,243.6,"3'07""",dragon,,3.07,salamence,,,,,,,,50,,,,,,,,2,N,N,Y,,,,,,,,,,,,,,,,,,,,,,,,,,,,,,,,,,,,,,,,,
373,salamence,Hoenn,226.2,"4'11""",dragon,flying,4.11,,,,,,,,,,,,,,,,,3,N,N,Y,,,,,,,,,,,,,,,,,,,,,,,,,,,,,,,,,,,,,,,,,
374,beldum,Hoenn,209.9,"2'00""",steel,psychic,2,metang,,,,,,,,20,,,,,,,,1,N,N,Y,,,,,,,,,,,,,,,,,,,,,,,,,,,,,,,,,,,,,,,,,
375,metang,Hoenn,446.4,"3'11""",steel,psychic,3.11,metagross,,,,,,,,45,,,,,,,,2,N,N,Y,,,,,,,,,,,,,,,,,,,,,,,,,,,,,,,,,,,,,,,,,
376,metagross,Hoenn,1212.5,"5'03""",steel,psychic,5.03,,,,,,,,,,,,,,,,,3,N,N,Y,,,,,,,,,,,,,,,,,,,,,,,,,,,,,,,,,,,,,,,,,
377,regirock,Hoenn,507.1,"5'07""",rock,,5.07,,,,,,,,,,,,,,,,,0,N,N,Y,,,,,,,,,,,,,,,,,,,,,,,,,,,,,,,,,,,,,,,,,
378,regice,Hoenn,385.8,"5'11""",ice,,5.11,,,,,,,,,,,,,,,,,0,N,N,Y,,,,,,,,,,,,,,,,,,,,,,,,,,,,,,,,,,,,,,,,,
379,registeel,Hoenn,451.9,"6'03""",steel,,6.03,,,,,,,,,,,,,,,,,0,N,N,Y,,,,,,,,,,,,,,,,,,,,,,,,,,,,,,,,,,,,,,,,,
380,latias,Hoenn,88.2,"4'07""",dragon,psychic,4.07,,,,,,,,,,,,,,,,,0,N,N,Y,,,,,,,,,,,,,,,,,,,,,,,,,,,,,,,,,,,,,,,,,
381,latios,Hoenn,132.3,"6'07""",dragon,psychic,6.07,,,,,,,,,,,,,,,,,0,N,N,Y,,,,,,,,,,,,,,,,,,,,,,,,,,,,,,,,,,,,,,,,,
382,kyogre,Hoenn,776,"14'09""",water,,14.09,,,,,,,,,,,,,,,,,0,N,N,Y,,,,,,,,,,,,,,,,,,,,,,,,,,,,,,,,,,,,,,,,,
383,groudon,Hoenn,2094.4,"11'06""",ground,,11.06,,,,,,,,,,,,,,,,,0,N,N,Y,,,,,,,,,,,,,,,,,,,,,,,,,,,,,,,,,,,,,,,,,
384,rayquaza,Hoenn,455.2,"23'00""",dragon,flying,23,,,,,,,,,,,,,,,,,0,N,N,Y,,,,,,,,,,,,,,,,,,,,,,,,,,,,,,,,,,,,,,,,,
385,jirachi,Hoenn,2.4,"1'00""",steel,psychic,1,,,,,,,,,,,,,,,,,0,N,N,Y,,,,,,,,,,,,,,,,,,,,,,,,,,,,,,,,,,,,,,,,,
386,deoxys,Hoenn,134,"5'07""",psychic,,5.07,,,,,,,,,,,,,,,,,0,N,N,Y,,,,,,,,,,,,,,,,,,,,,,,,,,,,,,,,,,,,,,,,,
387,turtwig,Sinnoh,22.5,"1'04""",grass,,1.04,grotle,,,,,,,,18,,,,,,,,1,N,N,N,,Y,,,,,,,,,,,,,,,,,,,,,,,,,,,,,,,,,,,,,,,
388,grotle,Sinnoh,213.8,"3'07""",grass,,3.07,torterra,,,,,,,,32,,,,,,,,2,N,N,N,,Y,,,,,,,,,,,,,,,,,,,,,,,,,,,,,,,,,,,,,,,
389,torterra,Sinnoh,683.4,"7'03""",grass,ground,7.03,,,,,,,,,,,,,,,,,3,N,N,N,,Y,,,,,,,,,,,,,,,,,,,,,,,,,,,,,,,,,,,,,,,
390,chimchar,Sinnoh,13.7,"1'08""",fire,,1.08,monferno,,,,,,,,14,,,,,,,,1,N,N,N,,Y,,,,,,,,,,,,,,,,,,,,,,,,,,,,,,,,,,,,,,,
391,monferno,Sinnoh,48.5,"2'11""",fire,fighting,2.11,infernape,,,,,,,,36,,,,,,,,2,N,N,N,,Y,,,,,,,,,,,,,,,,,,,,,,,,,,,,,,,,,,,,,,,
392,infernape,Sinnoh,121.3,"3'11""",fire,fighting,3.11,,,,,,,,,,,,,,,,,3,N,N,N,,Y,,,,,,,,,,,,,,,,,,,,,,,,,,,,,,,,,,,,,,,
393,piplup,Sinnoh,11.5,"1'04""",water,,1.04,prinplup,,,,,,,,16,,,,,,,,1,N,N,N,,Y,,,,,,,,,,,,,,,,,,,,,,,,,,,,,,,,,,,,,,,
394,prinplup,Sinnoh,50.7,"2'07""",water,,2.07,empoleon,,,,,,,,36,,,,,,,,2,N,N,N,,Y,,,,,,,,,,,,,,,,,,,,,,,,,,,,,,,,,,,,,,,
395,empoleon,Sinnoh,186.3,"5'07""",water,steel,5.07,,,,,,,,,,,,,,,,,3,N,N,N,,Y,,,,,,,,,,,,,,,,,,,,,,,,,,,,,,,,,,,,,,,
396,starly,Sinnoh,4.4,"1'00""",normal,flying,1,staravia,,,,,,,,14,,,,,,,,1,N,N,N,,Y,,,,,,,,,,,,,,,,,,,,,,,,,,,,,,,,,,,,,,,
397,staravia,Sinnoh,34.2,"2'00""",normal,flying,2,staraptor,,,,,,,,34,,,,,,,,2,N,N,N,,Y,,,,,,,,,,,,,,,,,,,,,,,,,,,,,,,,,,,,,,,
398,staraptor,Sinnoh,54.9,"3'11""",normal,flying,3.11,,,,,,,,,,,,,,,,,3,N,N,N,,Y,,,,,,,,,,,,,,,,,,,,,,,,,,,,,,,,,,,,,,,
399,bidoof,Sinnoh,44.1,"1'08""",normal,,1.08,bibarel,,,,,,,,15,,,,,,,,1,N,N,N,,Y,,,,,,,,,,,,,,,,,,,,,,,,,,,,,,,,,,,,,,,
400,bibarel,Sinnoh,69.4,"3'03""",normal,water,3.03,,,,,,,,,,,,,,,,,2,N,N,N,,Y,,,,,,,,,,,,,,,,,,,,,,,,,,,,,,,,,,,,,,,
401,kricketot,Sinnoh,4.9,"1'00""",bug,,1,kricketune,,,,,,,,10,,,,,,,,1,N,N,N,,Y,,,,,,,,,,,,,,,,,,,,,,,,,,,,,,,,,,,,,,,
402,kricketune,Sinnoh,56.2,"3'03""",bug,,3.03,,,,,,,,,,,,,,,,,2,N,N,N,,Y,,,,,,,,,,,,,,,,,,,,,,,,,,,,,,,,,,,,,,,
403,shinx,Sinnoh,20.9,"1'08""",electric,,1.08,luxio,,,,,,,,15,,,,,,,,1,N,N,N,,Y,,,,,,,,,,,,,,,,,,,,,,,,,,,,,,,,,,,,,,,
404,luxio,Sinnoh,67.2,"2'11""",electric,,2.11,luxray,,,,,,,,30,,,,,,,,2,N,N,N,,Y,,,,,,,,,,,,,,,,,,,,,,,,,,,,,,,,,,,,,,,
405,luxray,Sinnoh,92.6,"4'07""",electric,,4.07,,,,,,,,,,,,,,,,,3,N,N,N,,Y,,,,,,,,,,,,,,,,,,,,,,,,,,,,,,,,,,,,,,,
406,budew,Sinnoh,2.6,"0'08""",grass,poison,0.08,roselia,,,,,,,,lvl+ with friendship at day,,,,,,,,1,N,N,N,,Y,,,,,,,,,,,,,,,,,,,,,,,,,,,,,,,,,,,,,,,
407,roserade,Sinnoh,32,"2'11""",grass,poison,2.11,,,,,,,,,,,,,,,,,3,N,N,N,,Y,,,,,,,,,,,,,,,,,,,,,,,,,,,,,,,,,,,,,,,
408,cranidos,Sinnoh,69.4,"2'11""",rock,,2.11,rampardos,,,,,,,,30,,,,,,,,1,N,N,N,,Y,,,,,,,,,,,,,,,,,,,,,,,,,,,,,,,,,,,,,,,
409,rampardos,Sinnoh,226,"5'03""",rock,,5.03,,,,,,,,,,,,,,,,,2,N,N,N,,Y,,,,,,,,,,,,,,,,,,,,,,,,,,,,,,,,,,,,,,,
410,shieldon,Sinnoh,125.7,"1'08""",rock,steel,1.08,bastiodon,,,,,,,,30,,,,,,,,1,N,N,N,,Y,,,,,,,,,,,,,,,,,,,,,,,,,,,,,,,,,,,,,,,
411,bastiodon,Sinnoh,329.6,"4'03""",rock,steel,4.03,,,,,,,,,,,,,,,,,2,N,N,N,,Y,,,,,,,,,,,,,,,,,,,,,,,,,,,,,,,,,,,,,,,
412,burmy,Sinnoh,7.5,"0'08""",bug,,0.08,wormadam,mothim,,,,,,,20 female,20 male,,,,,,,1,N,N,N,,Y,,,,,,,,,,,,,,,,,,,,,,,,,,,,,,,,,,,,,,,
413,wormadam,Sinnoh,14.3,"1'08""",bug,grass,1.08,,,,,,,,,,,,,,,,,2,N,N,N,,Y,,,,,,,,,,,,,,,,,,,,,,,,,,,,,,,,,,,,,,,
413.1,wormadam,Sinnoh,14.3,"1'08""",bug,ground,1.08,,,,,,,,,,,,,,,,,2,N,N,N,,Y,,,,,,,,,,,,,,,,,,,,,,,,,,,,,,,,,,,,,,,
413.2,wormadam,Sinnoh,14.3,"1'08""",bug,steel,1.08,,,,,,,,,,,,,,,,,2,N,N,N,,Y,,,,,,,,,,,,,,,,,,,,,,,,,,,,,,,,,,,,,,,
414,mothim,Sinnoh,51.4,"2'11""",bug,flying,2.11,,,,,,,,,,,,,,,,,2,N,N,N,,Y,,,,,,,,,,,,,,,,,,,,,,,,,,,,,,,,,,,,,,,
415,combee,Sinnoh,12.1,"1'00""",bug,flying,1,vespiquen,,,,,,,,21 female,,,,,,,,1,N,N,N,,Y,,,,,,,,,,,,,,,,,,,,,,,,,,,,,,,,,,,,,,,
416,vespiquen,Sinnoh,84.9,"3'11""",bug,flying,3.11,,,,,,,,,,,,,,,,,2,N,N,N,,Y,,,,,,,,,,,,,,,,,,,,,,,,,,,,,,,,,,,,,,,
417,pachirisu,Sinnoh,8.6,"1'04""",electric,,1.04,,,,,,,,,,,,,,,,,0,N,N,N,,Y,,,,,,,,,,,,,,,,,,,,,,,,,,,,,,,,,,,,,,,
418,buizel,Sinnoh,65,"2'04""",water,,2.04,floatzel,,,,,,,,26,,,,,,,,1,N,N,N,,Y,,,,,,,,,,,,,,,,,,,,,,,,,,,,,,,,,,,,,,,
419,floatzel,Sinnoh,73.9,"3'07""",water,,3.07,,,,,,,,,,,,,,,,,2,N,N,N,,Y,,,,,,,,,,,,,,,,,,,,,,,,,,,,,,,,,,,,,,,
420,cherubi,Sinnoh,7.3,"1'04""",grass,,1.04,cherrim,,,,,,,,25,,,,,,,,1,N,N,N,,Y,,,,,,,,,,,,,,,,,,,,,,,,,,,,,,,,,,,,,,,
421,cherrim,Sinnoh,20.5,"1'08""",grass,,1.08,,,,,,,,,,,,,,,,,2,N,N,N,,Y,,,,,,,,,,,,,,,,,,,,,,,,,,,,,,,,,,,,,,,
422,shellos,Sinnoh,13.9,"1'00""",water,,1,gastrodon,,,,,,,,30,,,,,,,,1,N,N,N,,Y,,,,,,,,,,,,,,,,,,,,,,,,,,,,,,,,,,,,,,,
423,gastrodon,Sinnoh,65.9,"2'11""",water,ground,2.11,,,,,,,,,,,,,,,,,2,N,N,N,,Y,,,,,,,,,,,,,,,,,,,,,,,,,,,,,,,,,,,,,,,
424,ambipom,Sinnoh,44.8,"3'11""",normal,,3.11,,,,,,,,,,,,,,,,,2,N,N,N,,Y,,,,,,,,,,,,,,,,,,,,,,,,,,,,,,,,,,,,,,,
425,drifloon,Sinnoh,2.6,"1'04""",ghost,flying,1.04,drifblim,,,,,,,,28,,,,,,,,1,N,N,N,,Y,,,,,,,,,,,,,,,,,,,,,,,,,,,,,,,,,,,,,,,
426,drifblim,Sinnoh,33.1,"3'11""",ghost,flying,3.11,,,,,,,,,,,,,,,,,2,N,N,N,,Y,,,,,,,,,,,,,,,,,,,,,,,,,,,,,,,,,,,,,,,
427,buneary,Sinnoh,12.1,"1'04""",normal,,1.04,lopunny,,,,,,,,lvl+ with friendship,,,,,,,,1,N,N,N,,Y,,,,,,,,,,,,,,,,,,,,,,,,,,,,,,,,,,,,,,,
428,lopunny,Sinnoh,73.4,"3'11""",normal,,3.11,,,,,,,,,,,,,,,,,2,N,N,N,,Y,,,,,,,,,,,,,,,,,,,,,,,,,,,,,,,,,,,,,,,
429,mismagius,Sinnoh,9.7,"2'11""",ghost,,2.11,,,,,,,,,,,,,,,,,2,N,N,N,,Y,,,,,,,,,,,,,,,,,,,,,,,,,,,,,,,,,,,,,,,
430,honchkrow,Sinnoh,60.2,"2'11""",dark,flying,2.11,,,,,,,,,,,,,,,,,2,N,N,N,,Y,,,,,,,,,,,,,,,,,,,,,,,,,,,,,,,,,,,,,,,
431,glameow,Sinnoh,8.6,"1'08""",normal,,1.08,purugly,,,,,,,,38,,,,,,,,1,N,N,N,,Y,,,,,,,,,,,,,,,,,,,,,,,,,,,,,,,,,,,,,,,
432,purugly,Sinnoh,96.6,"3'03""",normal,,3.03,,,,,,,,,,,,,,,,,2,N,N,N,,Y,,,,,,,,,,,,,,,,,,,,,,,,,,,,,,,,,,,,,,,
433,chingling,Sinnoh,1.3,"0'08""",psychic,,0.08,chimecho,,,,,,,,lvl+ with friendship at night,,,,,,,,1,N,N,N,,Y,,,,,,,,,,,,,,,,,,,,,,,,,,,,,,,,,,,,,,,
434,stunky,Sinnoh,42.3,"1'04""",poison,dark,1.04,skuntank,,,,,,,,34,,,,,,,,1,N,N,N,,Y,,,,,,,,,,,,,,,,,,,,,,,,,,,,,,,,,,,,,,,
435,skuntank,Sinnoh,83.8,"3'03""",poison,dark,3.03,,,,,,,,,,,,,,,,,2,N,N,N,,Y,,,,,,,,,,,,,,,,,,,,,,,,,,,,,,,,,,,,,,,
436,bronzor,Sinnoh,133.4,"1'08""",steel,psychic,1.08,bronzong,,,,,,,,33,,,,,,,,1,N,N,N,,Y,,,,,,,,,,,,,,,,,,,,,,,,,,,,,,,,,,,,,,,
437,bronzong,Sinnoh,412.3,"4'03""",steel,psychic,4.03,,,,,,,,,,,,,,,,,2,N,N,N,,Y,,,,,,,,,,,,,,,,,,,,,,,,,,,,,,,,,,,,,,,
438,bonsly,Sinnoh,33.1,"1'08""",rock,,1.08,sudowoodo,,,,,,,,lvl+ with mimic,,,,,,,,1,N,N,N,,Y,,,,,,,,,,,,,,,,,,,,,,,,,,,,,,,,,,,,,,,
439,mime jr.,Sinnoh,28.7,"2'00""",psychic,fairy,2,mr. mime,mr. mime,,,,,,,lvl+ with mimic,lvl+ with mimic in Galar,,,,,,,1,N,N,N,,Y,,,,,,,,,,,,,,,,,,,,,,,,,,,,,,,,,,,,,,,
440,happiny,Sinnoh,53.8,"2'00""",normal,,2,chansey,,,,,,,,lvl+ with oval stone at day,,,,,,,,1,N,N,N,,Y,,,,,,,,,,,,,,,,,,,,,,,,,,,,,,,,,,,,,,,
441,chatot,Sinnoh,4.2,"1'08""",normal,flying,1.08,,,,,,,,,,,,,,,,,0,N,N,N,,Y,,,,,,,,,,,,,,,,,,,,,,,,,,,,,,,,,,,,,,,
442,spiritomb,Sinnoh,238.1,"3'03""",ghost,dark,3.03,,,,,,,,,,,,,,,,,0,N,N,N,,Y,,,,,,,,,,,,,,,,,,,,,,,,,,,,,,,,,,,,,,,
443,gible,Sinnoh,45.2,"2'04""",dragon,ground,2.04,gabite,,,,,,,,24,,,,,,,,1,N,N,N,,Y,,,,,,,,,,,,,,,,,,,,,,,,,,,,,,,,,,,,,,,
444,gabite,Sinnoh,123.5,"4'07""",dragon,ground,4.07,garchomp,,,,,,,,48,,,,,,,,2,N,N,N,,Y,,,,,,,,,,,,,,,,,,,,,,,,,,,,,,,,,,,,,,,
445,garchomp,Sinnoh,209.4,"6'03""",dragon,ground,6.03,,,,,,,,,,,,,,,,,3,N,N,N,,Y,,,,,,,,,,,,,,,,,,,,,,,,,,,,,,,,,,,,,,,
446,munchlax,Sinnoh,231.5,"2'00""",normal,,2,snorlax,,,,,,,,lvl+ with friendship,,,,,,,,1,N,N,N,,Y,,,,,,,,,,,,,,,,,,,,,,,,,,,,,,,,,,,,,,,
447,riolu,Sinnoh,44.5,"2'04""",fighting,,2.04,lucario,,,,,,,,lvl+ with friendship at day,,,,,,,,1,N,N,N,,Y,,,,,,,,,,,,,,,,,,,,,,,,,,,,,,,,,,,,,,,
448,lucario,Sinnoh,119,"3'11""",fighting,steel,3.11,,,,,,,,,,,,,,,,,2,N,N,N,,Y,,,,,,,,,,,,,,,,,,,,,,,,,,,,,,,,,,,,,,,
449,hippopotas,Sinnoh,109.1,"2'07""",ground,,2.07,hippowdon,,,,,,,,34,,,,,,,,1,N,N,N,,Y,,,,,,,,,,,,,,,,,,,,,,,,,,,,,,,,,,,,,,,
450,hippowdon,Sinnoh,661.4,"6'07""",ground,,6.07,,,,,,,,,,,,,,,,,2,N,N,N,,Y,,,,,,,,,,,,,,,,,,,,,,,,,,,,,,,,,,,,,,,
451,skorupi,Sinnoh,26.5,"2'07""",poison,bug,2.07,drapion,,,,,,,,40,,,,,,,,1,N,N,N,,Y,,,,,,,,,,,,,,,,,,,,,,,,,,,,,,,,,,,,,,,
452,drapion,Sinnoh,135.6,"4'03""",poison,dark,4.03,,,,,,,,,,,,,,,,,2,N,N,N,,Y,,,,,,,,,,,,,,,,,,,,,,,,,,,,,,,,,,,,,,,
453,croagunk,Sinnoh,50.7,"2'04""",poison,fighting,2.04,toxicroak,,,,,,,,37,,,,,,,,1,N,N,N,,Y,,,,,,,,,,,,,,,,,,,,,,,,,,,,,,,,,,,,,,,
454,toxicroak,Sinnoh,97.9,"4'03""",poison,fighting,4.03,,,,,,,,,,,,,,,,,2,N,N,N,,Y,,,,,,,,,,,,,,,,,,,,,,,,,,,,,,,,,,,,,,,
455,carnivine,Sinnoh,59.5,"4'07""",grass,,4.07,,,,,,,,,,,,,,,,,0,N,N,N,,Y,,,,,,,,,,,,,,,,,,,,,,,,,,,,,,,,,,,,,,,
456,finneon,Sinnoh,15.4,"1'04""",water,,1.04,lumineon,,,,,,,,31,,,,,,,,1,N,N,N,,Y,,,,,,,,,,,,,,,,,,,,,,,,,,,,,,,,,,,,,,,
457,lumineon,Sinnoh,52.9,"3'11""",water,,3.11,,,,,,,,,,,,,,,,,2,N,N,N,,Y,,,,,,,,,,,,,,,,,,,,,,,,,,,,,,,,,,,,,,,
458,mantyke,Sinnoh,143.3,"3'03""",water,flying,3.03,mantine,,,,,,,,lvl+ with remoraid in team,,,,,,,,1,N,N,N,,Y,,,,,,,,,,,,,,,,,,,,,,,,,,,,,,,,,,,,,,,
459,snover,Sinnoh,111.3,"3'03""",grass,ice,3.03,abomasnow,,,,,,,,40,,,,,,,,1,N,N,N,,Y,,,,,,,,,,,,,,,,,,,,,,,,,,,,,,,,,,,,,,,
460,abomasnow,Sinnoh,298.7,"7'03""",grass,ice,7.03,,,,,,,,,,,,,,,,,2,N,N,N,,Y,,,,,,,,,,,,,,,,,,,,,,,,,,,,,,,,,,,,,,,
461,weavile,Sinnoh,75,"3'07""",dark,ice,3.07,,,,,,,,,,,,,,,,,2,N,N,N,,Y,,,,,,,,,,,,,,,,,,,,,,,,,,,,,,,,,,,,,,,
462,magnezone,Sinnoh,396.8,"3'11""",electric,steel,3.11,,,,,,,,,,,,,,,,,3,N,N,N,,Y,,,,,,,,,,,,,,,,,,,,,,,,,,,,,,,,,,,,,,,
463,lickilicky,Sinnoh,308.6,"5'07""",normal,,5.07,,,,,,,,,,,,,,,,,2,N,N,N,,Y,,,,,,,,,,,,,,,,,,,,,,,,,,,,,,,,,,,,,,,
464,rhyperior,Sinnoh,623.5,"7'10""",ground,rock,7.1,,,,,,,,,,,,,,,,,3,N,N,N,,Y,,,,,,,,,,,,,,,,,,,,,,,,,,,,,,,,,,,,,,,
465,tangrowth,Sinnoh,283.5,"6'07""",grass,,6.07,,,,,,,,,,,,,,,,,2,N,N,N,,Y,,,,,,,,,,,,,,,,,,,,,,,,,,,,,,,,,,,,,,,
466,electrivire,Sinnoh,305.6,"5'11""",electric,,5.11,,,,,,,,,,,,,,,,,3,N,N,N,,Y,,,,,,,,,,,,,,,,,,,,,,,,,,,,,,,,,,,,,,,
467,magmortar,Sinnoh,149.9,"5'03""",fire,,5.03,,,,,,,,,,,,,,,,,3,N,N,N,,Y,,,,,,,,,,,,,,,,,,,,,,,,,,,,,,,,,,,,,,,
468,togekiss,Sinnoh,83.8,"4'11""",fairy,flying,4.11,,,,,,,,,,,,,,,,,3,N,N,N,,Y,,,,,,,,,,,,,,,,,,,,,,,,,,,,,,,,,,,,,,,
469,yanmega,Sinnoh,113.5,"6'03""",bug,flying,6.03,,,,,,,,,,,,,,,,,2,N,N,N,,Y,,,,,,,,,,,,,,,,,,,,,,,,,,,,,,,,,,,,,,,
470,leafeon,Sinnoh,56.2,"3'03""",grass,,3.03,,,,,,,,,,,,,,,,,2,N,N,N,,Y,,,,,,,,,,,,,,,,,,,,,,,,,,,,,,,,,,,,,,,
471,glaceon,Sinnoh,57.1,"2'07""",ice,,2.07,,,,,,,,,,,,,,,,,2,N,N,N,,Y,,,,,,,,,,,,,,,,,,,,,,,,,,,,,,,,,,,,,,,
472,gliscor,Sinnoh,93.7,"6'07""",ground,flying,6.07,,,,,,,,,,,,,,,,,2,N,N,N,,Y,,,,,,,,,,,,,,,,,,,,,,,,,,,,,,,,,,,,,,,
473,mamoswine,Sinnoh,641.5,"8'02""",ice,ground,8.02,,,,,,,,,,,,,,,,,3,N,N,N,,Y,,,,,,,,,,,,,,,,,,,,,,,,,,,,,,,,,,,,,,,
474,porygon-Z,Sinnoh,75,"2'11""",normal,,2.11,,,,,,,,,,,,,,,,,3,N,N,N,,Y,,,,,,,,,,,,,,,,,,,,,,,,,,,,,,,,,,,,,,,
475,gallade,Sinnoh,114.6,"5'03""",psychic,fighting,5.03,,,,,,,,,,,,,,,,,3,N,N,N,,Y,,,,,,,,,,,,,,,,,,,,,,,,,,,,,,,,,,,,,,,
476,probopass,Sinnoh,749.6,"4'07""",rock,steel,4.07,,,,,,,,,,,,,,,,,2,N,N,N,,Y,,,,,,,,,,,,,,,,,,,,,,,,,,,,,,,,,,,,,,,
477,dusknoir,Sinnoh,235,"7'03""",ghost,,7.03,,,,,,,,,,,,,,,,,3,N,N,N,,Y,,,,,,,,,,,,,,,,,,,,,,,,,,,,,,,,,,,,,,,
478,froslass,Sinnoh,58.6,"4'03""",ice,ghost,4.03,,,,,,,,,,,,,,,,,2,N,N,N,,Y,,,,,,,,,,,,,,,,,,,,,,,,,,,,,,,,,,,,,,,
479,rotom,Sinnoh,0.7,"1'00""",electric,ghost,1,,,,,,,,,,,,,,,,,0,N,N,N,,Y,,,,,,,,,,,,,,,,,,,,,,,,,,,,,,,,,,,,,,,
479.1,rotom,Sinnoh,0.7,"1'00""",electric,fire,1,,,,,,,,,,,,,,,,,0,N,N,N,,Y,,,,,,,,,,,,,,,,,,,,,,,,,,,,,,,,,,,,,,,
479.2,rotom,Sinnoh,0.7,"1'00""",electric,water,1,,,,,,,,,,,,,,,,,0,N,N,N,,Y,,,,,,,,,,,,,,,,,,,,,,,,,,,,,,,,,,,,,,,
479.3,rotom,Sinnoh,0.7,"1'00""",electric,ice,1,,,,,,,,,,,,,,,,,0,N,N,N,,Y,,,,,,,,,,,,,,,,,,,,,,,,,,,,,,,,,,,,,,,
479.4,rotom,Sinnoh,0.7,"1'00""",electric,flying,1,,,,,,,,,,,,,,,,,0,N,N,N,,Y,,,,,,,,,,,,,,,,,,,,,,,,,,,,,,,,,,,,,,,
479.5,rotom,Sinnoh,0.7,"1'00""",electric,grass,1,,,,,,,,,,,,,,,,,0,N,N,N,,Y,,,,,,,,,,,,,,,,,,,,,,,,,,,,,,,,,,,,,,,
480,uxie,Sinnoh,0.7,"1'00""",psychic,,1,,,,,,,,,,,,,,,,,0,N,N,N,,Y,,,,,,,,,,,,,,,,,,,,,,,,,,,,,,,,,,,,,,,
481,mesprit,Sinnoh,0.7,"1'00""",psychic,,1,,,,,,,,,,,,,,,,,0,N,N,N,,Y,,,,,,,,,,,,,,,,,,,,,,,,,,,,,,,,,,,,,,,
482,azelf,Sinnoh,0.7,"1'00""",psychic,,1,,,,,,,,,,,,,,,,,0,N,N,N,,Y,,,,,,,,,,,,,,,,,,,,,,,,,,,,,,,,,,,,,,,
483,dialga,Sinnoh,1505.7,"17'09""",steel,dragon,17.09,,,,,,,,,,,,,,,,,0,N,N,N,,Y,,,,,,,,,,,,,,,,,,,,,,,,,,,,,,,,,,,,,,,
484,palkia,Sinnoh,740.7,"13'09""",water,dragon,13.09,,,,,,,,,,,,,,,,,0,N,N,N,,Y,,,,,,,,,,,,,,,,,,,,,,,,,,,,,,,,,,,,,,,
485,heatran,Sinnoh,948,"5'07""",fire,steel,5.07,,,,,,,,,,,,,,,,,0,N,N,N,,Y,,,,,,,,,,,,,,,,,,,,,,,,,,,,,,,,,,,,,,,
486,regigigas,Sinnoh,925.9,"12'02""",normal,,12.02,,,,,,,,,,,,,,,,,0,N,N,N,,Y,,,,,,,,,,,,,,,,,,,,,,,,,,,,,,,,,,,,,,,
487,giratina,Sinnoh,1653.4,"14'09""",ghost,dragon,14.09,,,,,,,,,,,,,,,,,0,N,N,N,,Y,,,,,,,,,,,,,,,,,,,,,,,,,,,,,,,,,,,,,,,
487.1,giratina,Sinnoh,1433,"22'08""",ghost,dragon,22.08,,,,,,,,,,,,,,,,,0,N,N,N,,Y,,,,,,,,,,,,,,,,,,,,,,,,,,,,,,,,,,,,,,,
488,cresselia,Sinnoh,188.7,"4'11""",psychic,,4.11,,,,,,,,,,,,,,,,,0,N,N,N,,Y,,,,,,,,,,,,,,,,,,,,,,,,,,,,,,,,,,,,,,,
489,phione,Sinnoh,6.8,"1'04""",water,,1.04,,,,,,,,,,,,,,,,,0,N,N,N,,Y,,,,,,,,,,,,,,,,,,,,,,,,,,,,,,,,,,,,,,,
490,manaphy,Sinnoh,3.1,"1'00""",water,,1,,,,,,,,,,,,,,,,,0,N,N,N,,Y,,,,,,,,,,,,,,,,,,,,,,,,,,,,,,,,,,,,,,,
491,darkrai,Sinnoh,111.3,"4'11""",dark,,4.11,,,,,,,,,,,,,,,,,0,N,N,N,,Y,,,,,,,,,,,,,,,,,,,,,,,,,,,,,,,,,,,,,,,
492,shaymin,Sinnoh,4.6,"0'08""",grass,,0.08,,,,,,,,,,,,,,,,,0,N,N,N,,Y,,,,,,,,,,,,,,,,,,,,,,,,,,,,,,,,,,,,,,,
492.1,shaymin,Sinnoh,11.5,"1'04""",grass,flying,1.04,,,,,,,,,,,,,,,,,0,N,N,N,,Y,,,,,,,,,,,,,,,,,,,,,,,,,,,,,,,,,,,,,,,
493,arceus,Sinnoh,705.5,"10'06""",normal,,10.06,,,,,,,,,,,,,,,,,0,N,N,N,,Y,,,,,,,,,,,,,,,,,,,,,,,,,,,,,,,,,,,,,,,
494,victini,Unova,8.8,"1'04""",psychic,fire,1.04,,,,,,,,,,,,,,,,,0,N,N,N,,N,,Y,,,,,,,,,,,,,,,,,,,,,,,,,,,,,,,,,,,,,
495,snivy,Unova,17.9,"2'00""",grass,,2,servine,,,,,,,,17,,,,,,,,1,N,N,N,,N,,Y,,,,,,,,,,,,,,,,,,,,,,,,,,,,,,,,,,,,,
496,servine,Unova,35.3,"2'07""",grass,,2.07,serperior,,,,,,,,36,,,,,,,,2,N,N,N,,N,,Y,,,,,,,,,,,,,,,,,,,,,,,,,,,,,,,,,,,,,
497,serperior,Unova,138.9,"10'10""",grass,,10.1,,,,,,,,,,,,,,,,,3,N,N,N,,N,,Y,,,,,,,,,,,,,,,,,,,,,,,,,,,,,,,,,,,,,
498,tepig,Unova,21.8,"1'08""",fire,,1.08,pignite,,,,,,,,17,,,,,,,,1,N,N,N,,N,,Y,,,,,,,,,,,,,,,,,,,,,,,,,,,,,,,,,,,,,
499,pignite,Unova,122.4,"3'03""",fire,fighting,3.03,emboar,,,,,,,,36,,,,,,,,2,N,N,N,,N,,Y,,,,,,,,,,,,,,,,,,,,,,,,,,,,,,,,,,,,,
500,emboar,Unova,330.7,"5'03""",fire,fighting,5.03,,,,,,,,,,,,,,,,,3,N,N,N,,N,,Y,,,,,,,,,,,,,,,,,,,,,,,,,,,,,,,,,,,,,
501,oshawott,Unova,13,"1'08""",water,,1.08,dewott,,,,,,,,17,,,,,,,,1,N,N,N,,N,,Y,,,,,,,,,,,,,,,,,,,,,,,,,,,,,,,,,,,,,
502,dewott,Unova,54,"2'07""",water,,2.07,samurott,,,,,,,,36,,,,,,,,2,N,N,N,,N,,Y,,,,,,,,,,,,,,,,,,,,,,,,,,,,,,,,,,,,,
503,samurott,Unova,208.6,"4'11""",water,,4.11,,,,,,,,,,,,,,,,,3,N,N,N,,N,,Y,,,,,,,,,,,,,,,,,,,,,,,,,,,,,,,,,,,,,
504,patrat,Unova,25.6,"1'08""",normal,,1.08,watchdog,,,,,,,,20,,,,,,,,1,N,N,N,,N,,Y,,,,,,,,,,,,,,,,,,,,,,,,,,,,,,,,,,,,,
505,watchdog,Unova,59.5,"3'07""",normal,,3.07,,,,,,,,,,,,,,,,,2,N,N,N,,N,,Y,,,,,,,,,,,,,,,,,,,,,,,,,,,,,,,,,,,,,
506,lilipup,Unova,9,"1'04""",normal,,1.04,herdier,,,,,,,,16,,,,,,,,1,N,N,N,,N,,Y,,,,,,,,,,,,,,,,,,,,,,,,,,,,,,,,,,,,,
507,herdier,Unova,32.4,"2'11""",normal,,2.11,stoutland,,,,,,,,32,,,,,,,,2,N,N,N,,N,,Y,,,,,,,,,,,,,,,,,,,,,,,,,,,,,,,,,,,,,
508,stoutland,Unova,134.5,"3'11""",normal,,3.11,,,,,,,,,,,,,,,,,3,N,N,N,,N,,Y,,,,,,,,,,,,,,,,,,,,,,,,,,,,,,,,,,,,,
509,purrloin,Unova,22.3,"1'03""",dark,,1.04,liepard,,,,,,,,20,,,,,,,,1,N,N,N,,N,,Y,,,,,,,,,,,,,,,,,,,,,,,,,,,,,,,,,,,,,
510,liepard,Unova,82.7,"3'07""",dark,,3.07,,,,,,,,,,,,,,,,,2,N,N,N,,N,,Y,,,,,,,,,,,,,,,,,,,,,,,,,,,,,,,,,,,,,
511,pansage,Unova,23.1,"2'00""",grass,,2,semisage,,,,,,,,leaf stone,,,,,,,,1,N,N,N,,N,,Y,,,,,,,,,,,,,,,,,,,,,,,,,,,,,,,,,,,,,
512,semisage,Unova,67.2,"3'07""",grass,,3.07,,,,,,,,,,,,,,,,,2,N,N,N,,N,,Y,,,,,,,,,,,,,,,,,,,,,,,,,,,,,,,,,,,,,
513,pansear,Unova,24.3,"2'00""",fire,,2,semisear,,,,,,,,fire stone,,,,,,,,1,N,N,N,,N,,Y,,,,,,,,,,,,,,,,,,,,,,,,,,,,,,,,,,,,,
514,semisear,Unova,61.7,"3'03""",fire,,3.03,,,,,,,,,,,,,,,,,2,N,N,N,,N,,Y,,,,,,,,,,,,,,,,,,,,,,,,,,,,,,,,,,,,,
515,panpour,Unova,29.8,"2'00""",water,,2,semipour,,,,,,,,water stone,,,,,,,,1,N,N,N,,N,,Y,,,,,,,,,,,,,,,,,,,,,,,,,,,,,,,,,,,,,
516,semipour,Unova,63.9,"3'03""",water,,3.03,,,,,,,,,,,,,,,,,2,N,N,N,,N,,Y,,,,,,,,,,,,,,,,,,,,,,,,,,,,,,,,,,,,,
517,munna,Unova,51.4,"2'00""",psychic,,2,musharna,,,,,,,,moon stone,,,,,,,,1,N,N,N,,N,,Y,,,,,,,,,,,,,,,,,,,,,,,,,,,,,,,,,,,,,
518,musharna,Unova,133.4,"3'07""",psychic,,3.07,,,,,,,,,,,,,,,,,2,N,N,N,,N,,Y,,,,,,,,,,,,,,,,,,,,,,,,,,,,,,,,,,,,,
519,pidove,Unova,4.6,"1'00""",normal,flying,1,tranquill,,,,,,,,21,,,,,,,,1,N,N,N,,N,,Y,,,,,,,,,,,,,,,,,,,,,,,,,,,,,,,,,,,,,
520,tranquill,Unova,33.1,"2'00""",normal,flying,2,unfezant,,,,,,,,32,,,,,,,,2,N,N,N,,N,,Y,,,,,,,,,,,,,,,,,,,,,,,,,,,,,,,,,,,,,
521,unfezant,Unova,63.9,"3'11""",normal,flying,3.11,,,,,,,,,,,,,,,,,3,N,N,N,,N,,Y,,,,,,,,,,,,,,,,,,,,,,,,,,,,,,,,,,,,,
522,blitzle,Unova,65.7,"2'07""",electric,,2.07,zebstrika,,,,,,,,27,,,,,,,,1,N,N,N,,N,,Y,,,,,,,,,,,,,,,,,,,,,,,,,,,,,,,,,,,,,
523,zebstrika,Unova,175.3,"5'03""",electric,,5.03,,,,,,,,,,,,,,,,,2,N,N,N,,N,,Y,,,,,,,,,,,,,,,,,,,,,,,,,,,,,,,,,,,,,
524,roggenrola,Unova,39.7,"1'04""",rock,,1.04,boldore,,,,,,,,25,,,,,,,,1,N,N,N,,N,,Y,,,,,,,,,,,,,,,,,,,,,,,,,,,,,,,,,,,,,
525,boldore,Unova,224.9,"2'11""",rock,,2.11,gigalith,,,,,,,,trade,,,,,,,,2,N,N,N,,N,,Y,,,,,,,,,,,,,,,,,,,,,,,,,,,,,,,,,,,,,
526,gigalith,Unova,573.2,"5'07""",rock,,5.07,,,,,,,,,,,,,,,,,3,N,N,N,,N,,Y,,,,,,,,,,,,,,,,,,,,,,,,,,,,,,,,,,,,,
527,woobat,Unova,4.6,"1'04""",psychic,flying,1.04,swoobat,,,,,,,,lvl+ with friendship,,,,,,,,1,N,N,N,,N,,Y,,,,,,,,,,,,,,,,,,,,,,,,,,,,,,,,,,,,,
528,swoobat,Unova,23.1,"2'11""",psychic,flying,2.11,,,,,,,,,,,,,,,,,2,N,N,N,,N,,Y,,,,,,,,,,,,,,,,,,,,,,,,,,,,,,,,,,,,,
529,drilbur,Unova,18.7,"1'00""",ground,,1,excadrill,,,,,,,,31,,,,,,,,1,N,N,N,,N,,Y,,,,,,,,,,,,,,,,,,,,,,,,,,,,,,,,,,,,,
530,excadrill,Unova,89.1,"2'04""",ground,steel,2.04,,,,,,,,,,,,,,,,,2,N,N,N,,N,,Y,,,,,,,,,,,,,,,,,,,,,,,,,,,,,,,,,,,,,
531,audino,Unova,68.3,"3'07""",normal,,3.07,,,,,,,,,,,,,,,,,0,N,N,N,,N,,Y,,,,,,,,,,,,,,,,,,,,,,,,,,,,,,,,,,,,,
532,timburr,Unova,27.6,"2'00""",fighting,,2,gurdurr,,,,,,,,25,,,,,,,,1,N,N,N,,N,,Y,,,,,,,,,,,,,,,,,,,,,,,,,,,,,,,,,,,,,
533,gurdurr,Unova,88.2,"3'11""",fighting,,3.11,conkeldurr,,,,,,,,trade,,,,,,,,2,N,N,N,,N,,Y,,,,,,,,,,,,,,,,,,,,,,,,,,,,,,,,,,,,,
534,conkeldurr,Unova,191.8,"4'07""",fighting,,4.07,,,,,,,,,,,,,,,,,3,N,N,N,,N,,Y,,,,,,,,,,,,,,,,,,,,,,,,,,,,,,,,,,,,,
535,tympole,Unova,9.9,"1'08""",water,,1.08,palpitoad,,,,,,,,25,,,,,,,,1,N,N,N,,N,,Y,,,,,,,,,,,,,,,,,,,,,,,,,,,,,,,,,,,,,
536,palpitoad,Unova,37.5,"2'07""",water,ground,2.07,seismitoad,,,,,,,,36,,,,,,,,2,N,N,N,,N,,Y,,,,,,,,,,,,,,,,,,,,,,,,,,,,,,,,,,,,,
537,seismitoad,Unova,136.7,"4'11""",water,ground,4.11,,,,,,,,,,,,,,,,,3,N,N,N,,N,,Y,,,,,,,,,,,,,,,,,,,,,,,,,,,,,,,,,,,,,
538,throh,Unova,122.4,"4'03""",fighting,,4.03,,,,,,,,,,,,,,,,,0,N,N,N,,N,,Y,,,,,,,,,,,,,,,,,,,,,,,,,,,,,,,,,,,,,
539,sawk,Unova,112.4,"4'07""",fighting,,4.07,,,,,,,,,,,,,,,,,0,N,N,N,,N,,Y,,,,,,,,,,,,,,,,,,,,,,,,,,,,,,,,,,,,,
540,swewaddle,Unova,5.5,"1'00""",bug,grass,1,swadloon,,,,,,,,20,,,,,,,,1,N,N,N,,N,,Y,,,,,,,,,,,,,,,,,,,,,,,,,,,,,,,,,,,,,
541,swadloon,Unova,16.1,"1'08""",bug,grass,1.08,leavanny,,,,,,,,lvl+ with friendship,,,,,,,,2,N,N,N,,N,,Y,,,,,,,,,,,,,,,,,,,,,,,,,,,,,,,,,,,,,
542,leavanny,Unova,45.2,"3'11""",bug,grass,3.11,,,,,,,,,,,,,,,,,3,N,N,N,,N,,Y,,,,,,,,,,,,,,,,,,,,,,,,,,,,,,,,,,,,,
543,venipede,Unova,11.7,"1'04""",bug,poison,1.04,whirlipede,,,,,,,,22,,,,,,,,1,N,N,N,,N,,Y,,,,,,,,,,,,,,,,,,,,,,,,,,,,,,,,,,,,,
544,whirlipede,Unova,129,"3'11""",bug,poison,3.11,scolopede,,,,,,,,30,,,,,,,,2,N,N,N,,N,,Y,,,,,,,,,,,,,,,,,,,,,,,,,,,,,,,,,,,,,
545,scolopede,Unova,442,"8'02""",bug,poison,8.02,,,,,,,,,,,,,,,,,3,N,N,N,,N,,Y,,,,,,,,,,,,,,,,,,,,,,,,,,,,,,,,,,,,,
546,cottenee,Unova,1.3,"1'00""",grass,fairy,1,whimsicott,,,,,,,,sun stone,,,,,,,,1,N,N,N,,N,,Y,,,,,,,,,,,,,,,,,,,,,,,,,,,,,,,,,,,,,
547,whimsicott,Unova,14.6,"2'04""",grass,fairy,2.04,,,,,,,,,,,,,,,,,2,N,N,N,,N,,Y,,,,,,,,,,,,,,,,,,,,,,,,,,,,,,,,,,,,,
548,petilil,Unova,14.6,"1'08""",grass,,1.08,liligant,,,,,,,,sun stone,,,,,,,,1,N,N,N,,N,,Y,,,,,,,,,,,,,,,,,,,,,,,,,,,,,,,,,,,,,
549,liligant,Unova,35.9,"3'07""",grass,,3.07,,,,,,,,,,,,,,,,,2,N,N,N,,N,,Y,,,,,,,,,,,,,,,,,,,,,,,,,,,,,,,,,,,,,
550,basculin,Unova,39.7,"3'03""",water,,3.03,,,,,,,,,,,,,,,,,0,N,N,N,,N,,Y,,,,,,,,,,,,,,,,,,,,,,,,,,,,,,,,,,,,,
551,sandile,Unova,33.5,"2'04""",ground,dark,2.04,krokorok,,,,,,,,29,,,,,,,,1,N,N,N,,N,,Y,,,,,,,,,,,,,,,,,,,,,,,,,,,,,,,,,,,,,
552,krokorok,Unova,73.6,"3'03""",ground,dark,3.03,krookodile,,,,,,,,40,,,,,,,,2,N,N,N,,N,,Y,,,,,,,,,,,,,,,,,,,,,,,,,,,,,,,,,,,,,
553,krookodile,Unova,212.3,"4'11""",ground,dark,4.11,,,,,,,,,,,,,,,,,3,N,N,N,,N,,Y,,,,,,,,,,,,,,,,,,,,,,,,,,,,,,,,,,,,,
554,darumaka,Unova,82.7,"2'00""",fire,,2,darmanitan,,,,,,,,35,,,,,,,,1,N,N,N,,N,,Y,,,,,,,,,,,,,,,,,,,,,,,,,,,,,,,,,,,,,
554.1,darumaka,Galar,106.9,"4'07""",ice,,4.07,darmanitan,,,,,,,,ice stone,,,,,,,,1,N,N,N,,N,,N,,,,,,,,,,,,,,,,,,,,,,,,,,,,,,,,,,,,,
555,darmanitan,Unova,204.8,"4'03""",fire,,4.03,,,,,,,,,,,,,,,,,2,N,N,N,,N,,Y,,,,,,,,,,,,,,,,,,,,,,,,,,,,,,,,,,,,,
555.1,darmanitan,Galar,264.6,"5'07""",ice,,5.07,,,,,,,,,,,,,,,,,2,N,N,N,,N,,N,,,,,,,,,,,,,,,,,,,,,,,,,,,,,,,,,,,,,
556,maractus,Unova,61.7,"3'03""",grass,,3.03,,,,,,,,,,,,,,,,,0,N,N,N,,N,,Y,,,,,,,,,,,,,,,,,,,,,,,,,,,,,,,,,,,,,
557,dwebble,Unova,32,"1'00""",bug,rock,1,crustle,,,,,,,,34,,,,,,,,1,N,N,N,,N,,Y,,,,,,,,,,,,,,,,,,,,,,,,,,,,,,,,,,,,,
558,crustle,Unova,440.9,"4'07""",bug,rock,4.07,,,,,,,,,,,,,,,,,2,N,N,N,,N,,Y,,,,,,,,,,,,,,,,,,,,,,,,,,,,,,,,,,,,,
559,scraggy,Unova,26,"2'00""",dark,fighting,2,scrafty,,,,,,,,39,,,,,,,,1,N,N,N,,N,,Y,,,,,,,,,,,,,,,,,,,,,,,,,,,,,,,,,,,,,
560,scrafty,Unova,66.1,"3'07""",dark,fighting,3.07,,,,,,,,,,,,,,,,,2,N,N,N,,N,,Y,,,,,,,,,,,,,,,,,,,,,,,,,,,,,,,,,,,,,
561,sigilyph,Unova,30.9,"4'07""",psychic,flying,4.07,,,,,,,,,,,,,,,,,0,N,N,N,,N,,Y,,,,,,,,,,,,,,,,,,,,,,,,,,,,,,,,,,,,,
562,yamask,Unova,3.3,"1'08""",ghost,,1.08,cofagrigus,,,,,,,,34,,,,,,,,1,N,N,N,,N,,Y,,,,,,,,,,,,,,,,,,,,,,,,,,,,,,,,,,,,,
562.1,yamask,Galar,3.3,"1'08""",ground,ghost,1.08,runerigus,,,,,,,,49+ damage in the dusty bowl,,,,,,,,1,N,N,N,,N,,N,,,,,,,,,,,,,,,,,,,,,,,,,,,,,,,,,,,,,
563,cofagrigus,Unova,168.7,"5'07""",ghost,,5.07,,,,,,,,,,,,,,,,,2,N,N,N,,N,,Y,,,,,,,,,,,,,,,,,,,,,,,,,,,,,,,,,,,,,
564,tirtouga,Unova,36.4,"2'04""",water,rock,2.04,carracosta,,,,,,,,37,,,,,,,,1,N,N,N,,N,,Y,,,,,,,,,,,,,,,,,,,,,,,,,,,,,,,,,,,,,
565,carracosta,Unova,178.6,"3'11""",water,rock,3.11,,,,,,,,,,,,,,,,,2,N,N,N,,N,,Y,,,,,,,,,,,,,,,,,,,,,,,,,,,,,,,,,,,,,
566,archen,Unova,20.9,"1'08""",rock,flying,1.08,archeops,,,,,,,,37,,,,,,,,1,N,N,N,,N,,Y,,,,,,,,,,,,,,,,,,,,,,,,,,,,,,,,,,,,,
567,archeops,Unova,70.5,"4'07""",rock,flying,4.07,,,,,,,,,,,,,,,,,2,N,N,N,,N,,Y,,,,,,,,,,,,,,,,,,,,,,,,,,,,,,,,,,,,,
568,trubbish,Unova,68.3,"2'00""",poison,,2,garbodor,,,,,,,,36,,,,,,,,1,N,N,N,,N,,Y,,,,,,,,,,,,,,,,,,,,,,,,,,,,,,,,,,,,,
569,garbodor,Unova,236.6,"6'03""",poison,,6.03,,,,,,,,,,,,,,,,,2,N,N,N,,N,,Y,,,,,,,,,,,,,,,,,,,,,,,,,,,,,,,,,,,,,
570,zorua,Unova,27.6,"2'04""",dark,,2.04,zoroark,,,,,,,,30,,,,,,,,1,N,N,N,,N,,Y,,,,,,,,,,,,,,,,,,,,,,,,,,,,,,,,,,,,,
571,zoroark,Unova,178.8,"5'03""",dark,,5.03,,,,,,,,,,,,,,,,,2,N,N,N,,N,,Y,,,,,,,,,,,,,,,,,,,,,,,,,,,,,,,,,,,,,
572,minccino,Unova,12.8,"1'04""",normal,,1.04,cinccino,,,,,,,,shiny stone,,,,,,,,1,N,N,N,,N,,Y,,,,,,,,,,,,,,,,,,,,,,,,,,,,,,,,,,,,,
573,cinccino,Unova,16.5,"1'08""",normal,,1.08,,,,,,,,,,,,,,,,,2,N,N,N,,N,,Y,,,,,,,,,,,,,,,,,,,,,,,,,,,,,,,,,,,,,
574,gothita,Unova,12.8,"1'04""",psychic,,1.04,gothorita,,,,,,,,32,,,,,,,,1,N,N,N,,N,,Y,,,,,,,,,,,,,,,,,,,,,,,,,,,,,,,,,,,,,
575,gothorita,Unova,39.7,"2'04""",psychic,,2.04,gothitelle,,,,,,,,41,,,,,,,,2,N,N,N,,N,,Y,,,,,,,,,,,,,,,,,,,,,,,,,,,,,,,,,,,,,
576,gothitelle,Unova,97,"4'11""",psychic,,4.11,,,,,,,,,,,,,,,,,3,N,N,N,,N,,Y,,,,,,,,,,,,,,,,,,,,,,,,,,,,,,,,,,,,,
577,solosis,Unova,2.2,"1'00""",psychic,,1,duossion,,,,,,,,32,,,,,,,,1,N,N,N,,N,,Y,,,,,,,,,,,,,,,,,,,,,,,,,,,,,,,,,,,,,
578,duossion,Unova,17.6,"2'00""",psychic,,2,reuniclus,,,,,,,,41,,,,,,,,2,N,N,N,,N,,Y,,,,,,,,,,,,,,,,,,,,,,,,,,,,,,,,,,,,,
579,reuniclus,Unova,44.3,"3'03""",psychic,,3.03,,,,,,,,,,,,,,,,,3,N,N,N,,N,,Y,,,,,,,,,,,,,,,,,,,,,,,,,,,,,,,,,,,,,
580,ducklett,Unova,12.1,"1'08""",water,flying,1.08,swanna,,,,,,,,35,,,,,,,,1,N,N,N,,N,,Y,,,,,,,,,,,,,,,,,,,,,,,,,,,,,,,,,,,,,
581,swanna,Unova,53.4,"4'03""",water,flying,4.03,,,,,,,,,,,,,,,,,2,N,N,N,,N,,Y,,,,,,,,,,,,,,,,,,,,,,,,,,,,,,,,,,,,,
582,vanillite,Unova,12.6,"1'04""",ice,,1.04,vanillish,,,,,,,,35,,,,,,,,1,N,N,N,,N,,Y,,,,,,,,,,,,,,,,,,,,,,,,,,,,,,,,,,,,,
583,vanillish,Unova,90.4,"3'07""",ice,,3.07,vanilluxe,,,,,,,,47,,,,,,,,2,N,N,N,,N,,Y,,,,,,,,,,,,,,,,,,,,,,,,,,,,,,,,,,,,,
584,vanilluxe,Unova,126.8,"4'03""",ice,,4.03,,,,,,,,,,,,,,,,,3,N,N,N,,N,,Y,,,,,,,,,,,,,,,,,,,,,,,,,,,,,,,,,,,,,
585,deerling,Unova,43,"2'00""",normal,grass,2,sawsbuck,,,,,,,,34,,,,,,,,1,N,N,N,,N,,Y,,,,,,,,,,,,,,,,,,,,,,,,,,,,,,,,,,,,,
586,sawsbuck,Unova,203.9,"6'03""",normal,grass,6.03,,,,,,,,,,,,,,,,,2,N,N,N,,N,,Y,,,,,,,,,,,,,,,,,,,,,,,,,,,,,,,,,,,,,
587,emolga,Unova,11,"1'04""",electric,flying,1.04,,,,,,,,,,,,,,,,,0,N,N,N,,N,,Y,,,,,,,,,,,,,,,,,,,,,,,,,,,,,,,,,,,,,
588,karrablast,Unova,13,"1'08""",bug,,1.08,escavalier,,,,,,,,trade with shelmut,,,,,,,,1,N,N,N,,N,,Y,,,,,,,,,,,,,,,,,,,,,,,,,,,,,,,,,,,,,
589,escavalier,Unova,72.8,"3'03""",bug,steel,3.03,,,,,,,,,,,,,,,,,2,N,N,N,,N,,Y,,,,,,,,,,,,,,,,,,,,,,,,,,,,,,,,,,,,,
590,foongus,Unova,2.2,"0'08""",grass,poison,0.08,amoonguss,,,,,,,,39,,,,,,,,1,N,N,N,,N,,Y,,,,,,,,,,,,,,,,,,,,,,,,,,,,,,,,,,,,,
591,amoonguss,Unova,23.1,"2'00""",grass,poison,2,,,,,,,,,,,,,,,,,2,N,N,N,,N,,Y,,,,,,,,,,,,,,,,,,,,,,,,,,,,,,,,,,,,,
592,frillish,Unova,72.8,"3'11""",water,ghost,3.11,jelicent,,,,,,,,40,,,,,,,,1,N,N,N,,N,,Y,,,,,,,,,,,,,,,,,,,,,,,,,,,,,,,,,,,,,
593,jelicent,Unova,297.6,"7'03""",water,ghost,7.03,,,,,,,,,,,,,,,,,2,N,N,N,,N,,Y,,,,,,,,,,,,,,,,,,,,,,,,,,,,,,,,,,,,,
594,alomomola,Unova,69.7,"3'11""",water,,3.11,,,,,,,,,,,,,,,,,0,N,N,N,,N,,Y,,,,,,,,,,,,,,,,,,,,,,,,,,,,,,,,,,,,,
595,joltik,Unova,1.3,"0'04""",bug,electric,0.04,galvantula,,,,,,,,36,,,,,,,,1,N,N,N,,N,,Y,,,,,,,,,,,,,,,,,,,,,,,,,,,,,,,,,,,,,
596,galvantula,Unova,31.5,"2'07""",bug,electric,2.07,,,,,,,,,,,,,,,,,2,N,N,N,,N,,Y,,,,,,,,,,,,,,,,,,,,,,,,,,,,,,,,,,,,,
597,ferroseed,Unova,41.4,"2'00""",grass,steel,2,ferrothorn,,,,,,,,40,,,,,,,,1,N,N,N,,N,,Y,,,,,,,,,,,,,,,,,,,,,,,,,,,,,,,,,,,,,
598,ferrothorn,Unova,242.5,"3'03""",grass,steel,3.03,,,,,,,,,,,,,,,,,2,N,N,N,,N,,Y,,,,,,,,,,,,,,,,,,,,,,,,,,,,,,,,,,,,,
599,klink,Unova,46.3,"1'00""",steel,,1,klang,,,,,,,,38,,,,,,,,1,N,N,N,,N,,Y,,,,,,,,,,,,,,,,,,,,,,,,,,,,,,,,,,,,,
600,klang,Unova,112.4,"2'00""",steel,,2,klinklang,,,,,,,,49,,,,,,,,2,N,N,N,,N,,Y,,,,,,,,,,,,,,,,,,,,,,,,,,,,,,,,,,,,,
601,klinklang,Unova,178.6,"2'00""",steel,,2,,,,,,,,,,,,,,,,,3,N,N,N,,N,,Y,,,,,,,,,,,,,,,,,,,,,,,,,,,,,,,,,,,,,
602,tynamo,Unova,0.7,"0'08""",electric,,0.08,eelektrik,,,,,,,,39,,,,,,,,1,N,N,N,,N,,Y,,,,,,,,,,,,,,,,,,,,,,,,,,,,,,,,,,,,,
603,eelektrik,Unova,48.5,"3'11""",electric,,3.11,eelektross,,,,,,,,thunderstone,,,,,,,,2,N,N,N,,N,,Y,,,,,,,,,,,,,,,,,,,,,,,,,,,,,,,,,,,,,
604,eelektross,Unova,177.5,"6'11""",electric,,6.11,,,,,,,,,,,,,,,,,3,N,N,N,,N,,Y,,,,,,,,,,,,,,,,,,,,,,,,,,,,,,,,,,,,,
605,elgyem,Unova,19.8,"1'08""",psychic,,1.08,beheeyem,,,,,,,,42,,,,,,,,1,N,N,N,,N,,Y,,,,,,,,,,,,,,,,,,,,,,,,,,,,,,,,,,,,,
606,beheeyem,Unova,76.1,"3'03""",psychic,,3.03,,,,,,,,,,,,,,,,,2,N,N,N,,N,,Y,,,,,,,,,,,,,,,,,,,,,,,,,,,,,,,,,,,,,
607,litwick,Unova,6.8,"1'00""",ghost,fire,1,lampent,,,,,,,,41,,,,,,,,1,N,N,N,,N,,Y,,,,,,,,,,,,,,,,,,,,,,,,,,,,,,,,,,,,,
608,lampent,Unova,28.7,"2'00""",ghost,fire,2,chandelure,,,,,,,,dusk stone,,,,,,,,2,N,N,N,,N,,Y,,,,,,,,,,,,,,,,,,,,,,,,,,,,,,,,,,,,,
609,chandelure,Unova,75.6,"3'03""",ghost,fire,3.03,,,,,,,,,,,,,,,,,3,N,N,N,,N,,Y,,,,,,,,,,,,,,,,,,,,,,,,,,,,,,,,,,,,,
610,axew,Unova,39.7,"2'00""",dragon,,2,fraxure,,,,,,,,38,,,,,,,,1,N,N,N,,N,,Y,,,,,,,,,,,,,,,,,,,,,,,,,,,,,,,,,,,,,
611,fraxure,Unova,79.4,"3'03""",dragon,,3.03,haxorus,,,,,,,,48,,,,,,,,2,N,N,N,,N,,Y,,,,,,,,,,,,,,,,,,,,,,,,,,,,,,,,,,,,,
612,haxorus,Unova,232.6,"5'11""",dragon,,5.11,,,,,,,,,,,,,,,,,3,N,N,N,,N,,Y,,,,,,,,,,,,,,,,,,,,,,,,,,,,,,,,,,,,,
613,cubchoo,Unova,18.7,"1'08""",ice,,1.08,beartic,,,,,,,,37,,,,,,,,1,N,N,N,,N,,Y,,,,,,,,,,,,,,,,,,,,,,,,,,,,,,,,,,,,,
614,beartic,Unova,573.2,"8'06""",ice,,8.06,,,,,,,,,,,,,,,,,2,N,N,N,,N,,Y,,,,,,,,,,,,,,,,,,,,,,,,,,,,,,,,,,,,,
615,cryogonal,Unova,326.3,"3'07""",ice,,3.07,,,,,,,,,,,,,,,,,0,N,N,N,,N,,Y,,,,,,,,,,,,,,,,,,,,,,,,,,,,,,,,,,,,,
616,shelmet,Unova,17,"1'04""",bug,,1.04,accelgor,,,,,,,,trade with karrablast,,,,,,,,1,N,N,N,,N,,Y,,,,,,,,,,,,,,,,,,,,,,,,,,,,,,,,,,,,,
617,accelgor,Unova,55.8,"2'07""",bug,,2.07,,,,,,,,,,,,,,,,,2,N,N,N,,N,,Y,,,,,,,,,,,,,,,,,,,,,,,,,,,,,,,,,,,,,
618,stunfisk,Unova,24.3,"2'04""",ground,electric,2.04,,,,,,,,,,,,,,,,,0,N,N,N,,N,,Y,,,,,,,,,,,,,,,,,,,,,,,,,,,,,,,,,,,,,
618.1,stunfisk,Galar,45.2,"2'04""",ground,steel,2.04,,,,,,,,,,,,,,,,,0,N,N,N,,N,,Y,,,,,,,,,,,,,,,,,,,,,,,,,,,,,,,,,,,,,
619,mienfoo,Unova,44.1,"2'11""",fighting,,2.11,mienshao,,,,,,,,50,,,,,,,,1,N,N,N,,N,,Y,,,,,,,,,,,,,,,,,,,,,,,,,,,,,,,,,,,,,
620,mienshao,Unova,78.3,"4'07""",fighting,,4.07,,,,,,,,,,,,,,,,,2,N,N,N,,N,,Y,,,,,,,,,,,,,,,,,,,,,,,,,,,,,,,,,,,,,
621,druddigon,Unova,306.4,"5'03""",dragon,,5.03,,,,,,,,,,,,,,,,,0,N,N,N,,N,,Y,,,,,,,,,,,,,,,,,,,,,,,,,,,,,,,,,,,,,
622,golett,Unova,202.8,"3'03""",ground,ghost,3.03,golurk,,,,,,,,43,,,,,,,,1,N,N,N,,N,,Y,,,,,,,,,,,,,,,,,,,,,,,,,,,,,,,,,,,,,
623,golurk,Unova,727.5,"9'02""",ground,ghost,9.02,,,,,,,,,,,,,,,,,2,N,N,N,,N,,Y,,,,,,,,,,,,,,,,,,,,,,,,,,,,,,,,,,,,,
624,pawniard,Unova,22.5,"1'08""",dark,steel,1.08,bisharp,,,,,,,,52,,,,,,,,1,N,N,N,,N,,Y,,,,,,,,,,,,,,,,,,,,,,,,,,,,,,,,,,,,,
625,bisharp,Unova,154.3,"5'03""",dark,steel,5.03,,,,,,,,,,,,,,,,,2,N,N,N,,N,,Y,,,,,,,,,,,,,,,,,,,,,,,,,,,,,,,,,,,,,
626,bouffalant,Unova,208.6,"5'03""",normal,,5.03,,,,,,,,,,,,,,,,,0,N,N,N,,N,,Y,,,,,,,,,,,,,,,,,,,,,,,,,,,,,,,,,,,,,
627,rufflet,Unova,23.1,"1'08""",normal,flying,1.08,braviary,,,,,,,,54,,,,,,,,1,N,N,N,,N,,Y,,,,,,,,,,,,,,,,,,,,,,,,,,,,,,,,,,,,,
628,braviary,Unova,90.4,"4'11""",normal,flying,4.11,,,,,,,,,,,,,,,,,2,N,N,N,,N,,Y,,,,,,,,,,,,,,,,,,,,,,,,,,,,,,,,,,,,,
629,vullaby,Unova,19.8,"1'08""",dark,flying,1.08,mandibuzz,,,,,,,,54,,,,,,,,1,N,N,N,,N,,Y,,,,,,,,,,,,,,,,,,,,,,,,,,,,,,,,,,,,,
630,mandibuzz,Unova,87.1,"3'11""",dark,flying,3.11,,,,,,,,,,,,,,,,,2,N,N,N,,N,,Y,,,,,,,,,,,,,,,,,,,,,,,,,,,,,,,,,,,,,
631,heatmor,Unova,127.9,"4'07""",fire,,4.07,,,,,,,,,,,,,,,,,0,N,N,N,,N,,Y,,,,,,,,,,,,,,,,,,,,,,,,,,,,,,,,,,,,,
632,durant,Unova,72.8,"1'00""",bug,steel,1,,,,,,,,,,,,,,,,,0,N,N,N,,N,,Y,,,,,,,,,,,,,,,,,,,,,,,,,,,,,,,,,,,,,
633,deino,Unova,38.1,"2'07""",dark,dragon,2.07,zweilous,,,,,,,,50,,,,,,,,1,N,N,N,,N,,Y,,,,,,,,,,,,,,,,,,,,,,,,,,,,,,,,,,,,,
634,zweilous,Unova,110.2,"4'07""",dark,dragon,4.07,hydreigon,,,,,,,,64,,,,,,,,2,N,N,N,,N,,Y,,,,,,,,,,,,,,,,,,,,,,,,,,,,,,,,,,,,,
635,hydreigon,Unova,352.7,"5'11""",dark,dragon,5.11,,,,,,,,,,,,,,,,,3,N,N,N,,N,,Y,,,,,,,,,,,,,,,,,,,,,,,,,,,,,,,,,,,,,
636,larvesta,Unova,63.5,"3'07""",bug,fire,3.07,volcarona,,,,,,,,59,,,,,,,,1,N,N,N,,N,,Y,,,,,,,,,,,,,,,,,,,,,,,,,,,,,,,,,,,,,
637,volcarona,Unova,101.4,"5'03""",bug,fire,5.03,,,,,,,,,,,,,,,,,2,N,N,N,,N,,Y,,,,,,,,,,,,,,,,,,,,,,,,,,,,,,,,,,,,,
638,cobalion,Unova,551.1,"6'11""",steel,fighting,6.11,,,,,,,,,,,,,,,,,0,N,N,N,,N,,Y,,,,,,,,,,,,,,,,,,,,,,,,,,,,,,,,,,,,,
639,terrakion,Unova,573.2,"6'03""",rock,fighting,6.03,,,,,,,,,,,,,,,,,0,N,N,N,,N,,Y,,,,,,,,,,,,,,,,,,,,,,,,,,,,,,,,,,,,,
640,virizion,Unova,440.9,"6'07""",grass,fighting,6.07,,,,,,,,,,,,,,,,,0,N,N,N,,N,,Y,,,,,,,,,,,,,,,,,,,,,,,,,,,,,,,,,,,,,
641,tornadus,Unova,138.9,"4'11""",flying,,4.11,,,,,,,,,,,,,,,,,0,N,N,N,,N,,Y,,,,,,,,,,,,,,,,,,,,,,,,,,,,,,,,,,,,,
642,thundurus,Unova,134.5,"4'11""",electric,flying,4.11,,,,,,,,,,,,,,,,,0,N,N,N,,N,,Y,,,,,,,,,,,,,,,,,,,,,,,,,,,,,,,,,,,,,
643,reshiram,Unova,727.5,"10'06""",dragon,fire,10.06,,,,,,,,,,,,,,,,,0,N,N,N,,N,,Y,,,,,,,,,,,,,,,,,,,,,,,,,,,,,,,,,,,,,
644,zekrom,Unova,760.6,"9'06""",dragon,electric,9.06,,,,,,,,,,,,,,,,,0,N,N,N,,N,,Y,,,,,,,,,,,,,,,,,,,,,,,,,,,,,,,,,,,,,
645,landorus,Unova,149.9,"4'11""",ground,flying,4.11,,,,,,,,,,,,,,,,,0,N,N,N,,N,,Y,,,,,,,,,,,,,,,,,,,,,,,,,,,,,,,,,,,,,
646,kyurem,Unova,716.5,"9'10""",dragon,ice,9.1,,,,,,,,,,,,,,,,,0,N,N,N,,N,,Y,,,,,,,,,,,,,,,,,,,,,,,,,,,,,,,,,,,,,
647,keldeo,Unova,106.9,"4'07""",water,fighting,4.07,,,,,,,,,,,,,,,,,0,N,N,N,,N,,Y,,,,,,,,,,,,,,,,,,,,,,,,,,,,,,,,,,,,,
648,meloetta,Unova,14.3,"2'00""",normal,psychic,2,,,,,,,,,,,,,,,,,0,N,N,N,,N,,Y,,,,,,,,,,,,,,,,,,,,,,,,,,,,,,,,,,,,,
648.1,meloetta,Unova,14.3,"2'00""",normal,fighting,2,,,,,,,,,,,,,,,,,0,N,N,N,,N,,Y,,,,,,,,,,,,,,,,,,,,,,,,,,,,,,,,,,,,,
649,genesect,Unova,181.9,"4'11""",bug,steel,4.11,,,,,,,,,,,,,,,,,0,N,N,N,,N,,Y,,,,,,,,,,,,,,,,,,,,,,,,,,,,,,,,,,,,,
650,chespin,Kalos,19.8,"1'04""",grass,,1.04,quiladin,,,,,,,,16,,,,,,,,1,N,N,N,,N,,N,Y,,,,,,,,,,,,,,,,,,,,,,,,,,,,,,,,,,,,
651,quiladin,Kalos,63.9,"2'04""",grass,,2.04,chesnaught,,,,,,,,36,,,,,,,,2,N,N,N,,N,,N,Y,,,,,,,,,,,,,,,,,,,,,,,,,,,,,,,,,,,,
652,chesnaught,Kalos,198.4,"5'03""",grass,fighting,5.03,,,,,,,,,,,,,,,,,3,N,N,N,,N,,N,Y,,,,,,,,,,,,,,,,,,,,,,,,,,,,,,,,,,,,
653,fennekin,Kalos,20.7,"1'04""",fire,,1.04,braixen,,,,,,,,16,,,,,,,,1,N,N,N,,N,,N,Y,,,,,,,,,,,,,,,,,,,,,,,,,,,,,,,,,,,,
654,braixen,Kalos,32,"3'03""",fire,,3.03,delphox,,,,,,,,36,,,,,,,,2,N,N,N,,N,,N,Y,,,,,,,,,,,,,,,,,,,,,,,,,,,,,,,,,,,,
655,delphox,Kalos,86,"4'11""",fire,psychic,4.11,,,,,,,,,,,,,,,,,3,N,N,N,,N,,N,Y,,,,,,,,,,,,,,,,,,,,,,,,,,,,,,,,,,,,
656,froakie,Kalos,15.4,"1'00""",water,,1,frogadier,,,,,,,,16,,,,,,,,1,N,N,N,,N,,N,Y,,,,,,,,,,,,,,,,,,,,,,,,,,,,,,,,,,,,
657,frogadier,Kalos,24,"2'00""",water,,2,greninja,,,,,,,,36,,,,,,,,2,N,N,N,,N,,N,Y,,,,,,,,,,,,,,,,,,,,,,,,,,,,,,,,,,,,
658,greninja,Kalos,88.2,"4'11""",water,dark,4.11,,,,,,,,,,,,,,,,,3,N,N,N,,N,,N,Y,,,,,,,,,,,,,,,,,,,,,,,,,,,,,,,,,,,,
659,bunnelby,Kalos,11,"1'04""",normal,,1.04,diggersby,,,,,,,,20,,,,,,,,1,N,N,N,,N,,N,Y,,,,,,,,,,,,,,,,,,,,,,,,,,,,,,,,,,,,
660,diggersby,Kalos,93.5,"3'03""",normal,ground,3.03,,,,,,,,,,,,,,,,,2,N,N,N,,N,,N,Y,,,,,,,,,,,,,,,,,,,,,,,,,,,,,,,,,,,,
661,fletchling,Kalos,3.7,"1'00""",normal,flying,1,fletchinder,,,,,,,,17,,,,,,,,1,N,N,N,,N,,N,Y,,,,,,,,,,,,,,,,,,,,,,,,,,,,,,,,,,,,
662,fletchinder,Kalos,35.3,"2'04""",fire,flying,2.04,talonflame,,,,,,,,35,,,,,,,,2,N,N,N,,N,,N,Y,,,,,,,,,,,,,,,,,,,,,,,,,,,,,,,,,,,,
663,talonflame,Kalos,54,"3'11""",fire,flying,3.11,,,,,,,,,,,,,,,,,3,N,N,N,,N,,N,Y,,,,,,,,,,,,,,,,,,,,,,,,,,,,,,,,,,,,
664,scatterbug,Kalos,5.5,"1'00""",bug,,1,spewpa,,,,,,,,9,,,,,,,,1,N,N,N,,N,,N,Y,,,,,,,,,,,,,,,,,,,,,,,,,,,,,,,,,,,,
665,spewpa,Kalos,18.5,"1'00""",bug,,1,vivillon,,,,,,,,12,,,,,,,,2,N,N,N,,N,,N,Y,,,,,,,,,,,,,,,,,,,,,,,,,,,,,,,,,,,,
666,vivillon,Kalos,37.5,"3'11""",bug,flying,3.11,,,,,,,,,,,,,,,,,3,N,N,N,,N,,N,Y,,,,,,,,,,,,,,,,,,,,,,,,,,,,,,,,,,,,
667,litleo,Kalos,29.8,"2'00""",fire,normal,2,pyroar,,,,,,,,35,,,,,,,,1,N,N,N,,N,,N,Y,,,,,,,,,,,,,,,,,,,,,,,,,,,,,,,,,,,,
668,pyroar,Kalos,179.7,"4'11""",fire,normal,4.11,,,,,,,,,,,,,,,,,2,N,N,N,,N,,N,Y,,,,,,,,,,,,,,,,,,,,,,,,,,,,,,,,,,,,
669,Flabébé,Kalos,0.2,"0'04""",fairy,,0.04,floette,,,,,,,,19,,,,,,,,1,N,N,N,,N,,N,Y,,,,,,,,,,,,,,,,,,,,,,,,,,,,,,,,,,,,
670,floette,Kalos,2,"0'08""",fairy,,0.08,florges,,,,,,,,Shiny stone,,,,,,,,2,N,N,N,,N,,N,Y,,,,,,,,,,,,,,,,,,,,,,,,,,,,,,,,,,,,
671,florges,Kalos,22,"3'07""",fairy,,3.07,,,,,,,,,,,,,,,,,3,N,N,N,,N,,N,Y,,,,,,,,,,,,,,,,,,,,,,,,,,,,,,,,,,,,
672,skiddo,Kalos,68.3,"2'11""",grass,,2.11,gogoat,,,,,,,,32,,,,,,,,1,N,N,N,,N,,N,Y,,,,,,,,,,,,,,,,,,,,,,,,,,,,,,,,,,,,
673,gogoat,Kalos,200.6,"5'07""",grass,,5.07,,,,,,,,,,,,,,,,,2,N,N,N,,N,,N,Y,,,,,,,,,,,,,,,,,,,,,,,,,,,,,,,,,,,,
674,pancham,Kalos,17.6,"2'00""",fighting,,2,pangoro,,,,,,,,32 with a dark type in team,,,,,,,,1,N,N,N,,N,,N,Y,,,,,,,,,,,,,,,,,,,,,,,,,,,,,,,,,,,,
675,pangoro,Kalos,299.8,"6'11""",fighting,dark,6.11,,,,,,,,,,,,,,,,,2,N,N,N,,N,,N,Y,,,,,,,,,,,,,,,,,,,,,,,,,,,,,,,,,,,,
676,furfrou,Kalos,61.7,"3'11""",normal,,3.11,,,,,,,,,,,,,,,,,0,N,N,N,,N,,N,Y,,,,,,,,,,,,,,,,,,,,,,,,,,,,,,,,,,,,
677,espurr,Kalos,7.7,"1'00""",psychic,,1,meowstic,,,,,,,,25,,,,,,,,1,N,N,N,,N,,N,Y,,,,,,,,,,,,,,,,,,,,,,,,,,,,,,,,,,,,
678,meowstic,Kalos,18.7,"2'00""",psychic,,2,,,,,,,,,,,,,,,,,2,N,N,N,,N,,N,Y,,,,,,,,,,,,,,,,,,,,,,,,,,,,,,,,,,,,
679,honedge,Kalos,4.4,"2'07""",steel,ghost,2.07,doublade,,,,,,,,35,,,,,,,,1,N,N,N,,N,,N,Y,,,,,,,,,,,,,,,,,,,,,,,,,,,,,,,,,,,,
680,doublade,Kalos,9.9,"2'07""",steel,ghost,2.07,aegislash,,,,,,,,dusk stone,,,,,,,,2,N,N,N,,N,,N,Y,,,,,,,,,,,,,,,,,,,,,,,,,,,,,,,,,,,,
681,aegislash,Kalos,116.8,"5'07""",steel,ghost,5.07,,,,,,,,,,,,,,,,,3,N,N,N,,N,,N,Y,,,,,,,,,,,,,,,,,,,,,,,,,,,,,,,,,,,,
682,spritzee,Kalos,1.1,"0'08""",fairy,,0.08,aromatisse,,,,,,,,trade with a sachet,,,,,,,,1,N,N,N,,N,,N,Y,,,,,,,,,,,,,,,,,,,,,,,,,,,,,,,,,,,,
683,aromatisse,Kalos,34.2,"2'07""",fairy,,2.07,,,,,,,,,,,,,,,,,2,N,N,N,,N,,N,Y,,,,,,,,,,,,,,,,,,,,,,,,,,,,,,,,,,,,
684,swirlix,Kalos,7.7,"1'04""",fairy,,1.04,slurpuff,,,,,,,,trade with a whipped dream,,,,,,,,1,N,N,N,,N,,N,Y,,,,,,,,,,,,,,,,,,,,,,,,,,,,,,,,,,,,
685,slurpuff,Kalos,11,"2'07""",fairy,,2.07,,,,,,,,,,,,,,,,,2,N,N,N,,N,,N,Y,,,,,,,,,,,,,,,,,,,,,,,,,,,,,,,,,,,,
686,inkay,Kalos,7.7,"1'04""",dark,psychic,1.04,malamar,,,,,,,,30 with the console upside down,,,,,,,,1,N,N,N,,N,,N,Y,,,,,,,,,,,,,,,,,,,,,,,,,,,,,,,,,,,,
687,malamar,Kalos,103.6,"4'11""",dark,psychic,4.11,,,,,,,,,,,,,,,,,2,N,N,N,,N,,N,Y,,,,,,,,,,,,,,,,,,,,,,,,,,,,,,,,,,,,
688,binacle,Kalos,68.3,"1'08""",rock,water,1.08,barbaracle,,,,,,,,39,,,,,,,,1,N,N,N,,N,,N,Y,,,,,,,,,,,,,,,,,,,,,,,,,,,,,,,,,,,,
689,barbaracle,Kalos,211.6,"4'03""",rock,water,4.03,,,,,,,,,,,,,,,,,2,N,N,N,,N,,N,Y,,,,,,,,,,,,,,,,,,,,,,,,,,,,,,,,,,,,
690,skrelp,Kalos,16.1,"1'08""",poison,water,1.08,dragalage,,,,,,,,48,,,,,,,,1,N,N,N,,N,,N,Y,,,,,,,,,,,,,,,,,,,,,,,,,,,,,,,,,,,,
691,dragalage,Kalos,179.7,"5'11""",poison,dragon,5.11,,,,,,,,,,,,,,,,,2,N,N,N,,N,,N,Y,,,,,,,,,,,,,,,,,,,,,,,,,,,,,,,,,,,,
692,clauncher,Kalos,18.3,"1'08""",water,,1.08,clawitzer,,,,,,,,37,,,,,,,,1,N,N,N,,N,,N,Y,,,,,,,,,,,,,,,,,,,,,,,,,,,,,,,,,,,,
693,clawitzer,Kalos,77.8,"4'03""",water,,4.03,,,,,,,,,,,,,,,,,2,N,N,N,,N,,N,Y,,,,,,,,,,,,,,,,,,,,,,,,,,,,,,,,,,,,
694,helioptile,Kalos,13.2,"1'08""",electric,normal,1.08,heliolisk,,,,,,,,sun stone,,,,,,,,1,N,N,N,,N,,N,Y,,,,,,,,,,,,,,,,,,,,,,,,,,,,,,,,,,,,
695,heliolisk,Kalos,46.3,"3'03""",electric,normal,3.03,,,,,,,,,,,,,,,,,2,N,N,N,,N,,N,Y,,,,,,,,,,,,,,,,,,,,,,,,,,,,,,,,,,,,
696,tyrunt,Kalos,57.3,"2'07""",rock,dragon,2.07,tyrantrum,,,,,,,,39 during day,,,,,,,,1,N,N,N,,N,,N,Y,,,,,,,,,,,,,,,,,,,,,,,,,,,,,,,,,,,,
697,tyrantrum,Kalos,595.2,"8'02""",rock,dragon,8.02,,,,,,,,,,,,,,,,,2,N,N,N,,N,,N,Y,,,,,,,,,,,,,,,,,,,,,,,,,,,,,,,,,,,,
698,amaura,Kalos,55.6,"4'03""",rock,ice,4.03,aurorus,,,,,,,,39 during night,,,,,,,,1,N,N,N,,N,,N,Y,,,,,,,,,,,,,,,,,,,,,,,,,,,,,,,,,,,,
699,aurorus,Kalos,496,"8'10""",rock,ice,8.1,,,,,,,,,,,,,,,,,2,N,N,N,,N,,N,Y,,,,,,,,,,,,,,,,,,,,,,,,,,,,,,,,,,,,
700,sylveon,Kalos,51.8,"3'03""",fairy,,3.03,,,,,,,,,,,,,,,,,2,N,N,N,,N,,N,Y,,,,,,,,,,,,,,,,,,,,,,,,,,,,,,,,,,,,
701,hawlucha,Kalos,47.4,"2'07""",fighting,flying,2.07,,,,,,,,,,,,,,,,,0,N,N,N,,N,,N,Y,,,,,,,,,,,,,,,,,,,,,,,,,,,,,,,,,,,,
702,dedenne,Kalos,4.9,"0'08""",electric,fairy,0.08,,,,,,,,,,,,,,,,,0,N,N,N,,N,,N,Y,,,,,,,,,,,,,,,,,,,,,,,,,,,,,,,,,,,,
703,carbink,Kalos,12.6,"1'00""",rock,fairy,1,,,,,,,,,,,,,,,,,0,N,N,N,,N,,N,Y,,,,,,,,,,,,,,,,,,,,,,,,,,,,,,,,,,,,
704,goomy,Kalos,6.2,"1'00""",dragon,,1,sliggoo,,,,,,,,40,,,,,,,,1,N,N,N,,N,,N,Y,,,,,,,,,,,,,,,,,,,,,,,,,,,,,,,,,,,,
705,sliggoo,Kalos,38.6,"2'07""",dragon,,2.07,goodra,,,,,,,,50 with rain,,,,,,,,2,N,N,N,,N,,N,Y,,,,,,,,,,,,,,,,,,,,,,,,,,,,,,,,,,,,
706,goodra,Kalos,331.8,"6'07""",dragon,,6.07,,,,,,,,,,,,,,,,,3,N,N,N,,N,,N,Y,,,,,,,,,,,,,,,,,,,,,,,,,,,,,,,,,,,,
707,klefki,Kalos,6.6,"0'08""",steel,fairy,0.08,,,,,,,,,,,,,,,,,0,N,N,N,,N,,N,Y,,,,,,,,,,,,,,,,,,,,,,,,,,,,,,,,,,,,
708,phantump,Kalos,15.4,"1'04""",ghost,grass,1.04,trevenant,,,,,,,,trade,,,,,,,,1,N,N,N,,N,,N,Y,,,,,,,,,,,,,,,,,,,,,,,,,,,,,,,,,,,,
709,trevenant,Kalos,156.5,"4'11""",ghost,grass,4.11,,,,,,,,,,,,,,,,,2,N,N,N,,N,,N,Y,,,,,,,,,,,,,,,,,,,,,,,,,,,,,,,,,,,,
710,pumpkaboo,Kalos,11,"1'04""",ghost,grass,1.04,gourgeist,,,,,,,,trade,,,,,,,,1,N,N,N,,N,,N,Y,,,,,,,,,,,,,,,,,,,,,,,,,,,,,,,,,,,,
711,gourgeist,Kalos,27.6,"2'11""",ghost,grass,2.11,,,,,,,,,,,,,,,,,2,N,N,N,,N,,N,Y,,,,,,,,,,,,,,,,,,,,,,,,,,,,,,,,,,,,
712,bergmite,Kalos,219.4,"3'03""",ice,,3.03,avalugg,,,,,,,,37,,,,,,,,1,N,N,N,,N,,N,Y,,,,,,,,,,,,,,,,,,,,,,,,,,,,,,,,,,,,
713,avalugg,Kalos,1113.3,"6'07""",ice,,6.07,,,,,,,,,,,,,,,,,2,N,N,N,,N,,N,Y,,,,,,,,,,,,,,,,,,,,,,,,,,,,,,,,,,,,
714,noibat,Kalos,17.6,"1'08""",flying,dragon,1.08,noivern,,,,,,,,48,,,,,,,,1,N,N,N,,N,,N,Y,,,,,,,,,,,,,,,,,,,,,,,,,,,,,,,,,,,,
715,noivern,Kalos,187.4,"4'11""",flying,dragon,4.11,,,,,,,,,,,,,,,,,2,N,N,N,,N,,N,Y,,,,,,,,,,,,,,,,,,,,,,,,,,,,,,,,,,,,
716,xerneas,Kalos,474,"9'10""",fairy,,9.1,,,,,,,,,,,,,,,,,0,N,N,N,,N,,N,Y,,,,,,,,,,,,,,,,,,,,,,,,,,,,,,,,,,,,
717,yveltal,Kalos,447.5,"19'00""",dark,flying,19,,,,,,,,,,,,,,,,,0,N,N,N,,N,,N,Y,,,,,,,,,,,,,,,,,,,,,,,,,,,,,,,,,,,,
718,zygarde 50%,Kalos,672.4,"3'11""",dragon,ground,3.11,,,,,,,,,,,,,,,,,0,N,N,N,,N,,N,Y,,,,,,,,,,,,,,,,,,,,,,,,,,,,,,,,,,,,
718.1,zygarde 10%,Kalos,73.9,"16'05""",dragon,ground,16.05,,,,,,,,,,,,,,,,,0,N,N,N,,N,,N,Y,,,,,,,,,,,,,,,,,,,,,,,,,,,,,,,,,,,,
718.2,zygarde 100%,Kalos,1344.8,"14'09""",dragon,ground,14.09,,,,,,,,,,,,,,,,,0,N,N,N,,N,,N,Y,,,,,,,,,,,,,,,,,,,,,,,,,,,,,,,,,,,,
719,diancie,Kalos,19.4,"2'04""",rock,fairy,2.04,,,,,,,,,,,,,,,,,0,N,N,N,,N,,N,Y,,,,,,,,,,,,,,,,,,,,,,,,,,,,,,,,,,,,
720,hoopa,Kalos,19.8,"1'08""",psychic,ghost,1.08,,,,,,,,,,,,,,,,,0,N,N,N,,N,,N,Y,,,,,,,,,,,,,,,,,,,,,,,,,,,,,,,,,,,,
720.1,hoopa,Kalos,1080.2,"21'04""",psychic,dark,21.04,,,,,,,,,,,,,,,,,0,N,N,N,,N,,N,Y,,,,,,,,,,,,,,,,,,,,,,,,,,,,,,,,,,,,
721,volcanion,Kalos,429.9,"5'07""",fire,water,5.07,,,,,,,,,,,,,,,,,0,N,N,N,,N,,N,Y,,,,,,,,,,,,,,,,,,,,,,,,,,,,,,,,,,,,
722,rowlet,Alola,3.3,"1'00""",grass,flying,1,dartrix,,,,,,,,17,,,,,,,,1,N,N,N,,N,,N,N,,Y,,,,,,,,,,,,,,,,,,,,,,,,,,,,,,,,,,
723,dartrix,Alola,35.3,"2'04""",grass,flying,2.04,decidueye,,,,,,,,34,,,,,,,,2,N,N,N,,N,,N,N,,Y,,,,,,,,,,,,,,,,,,,,,,,,,,,,,,,,,,
724,decidueye,Alola,80.7,"5'03""",grass,ghost,5.03,,,,,,,,,,,,,,,,,3,N,N,N,,N,,N,N,,Y,,,,,,,,,,,,,,,,,,,,,,,,,,,,,,,,,,
725,litten,Alola,9.5,"1'04""",fire,,1.04,torracat,,,,,,,,17,,,,,,,,1,N,N,N,,N,,N,N,,Y,,,,,,,,,,,,,,,,,,,,,,,,,,,,,,,,,,
726,torracat,Alola,55.1,"2'04""",fire,,2.04,incineroar,,,,,,,,34,,,,,,,,2,N,N,N,,N,,N,N,,Y,,,,,,,,,,,,,,,,,,,,,,,,,,,,,,,,,,
727,incineroar,Alola,183,"5'11""",fire,dark,5.11,,,,,,,,,,,,,,,,,3,N,N,N,,N,,N,N,,Y,,,,,,,,,,,,,,,,,,,,,,,,,,,,,,,,,,
728,popplio,Alola,16.5,"1'04""",water,,1.04,brionne,,,,,,,,17,,,,,,,,1,N,N,N,,N,,N,N,,Y,,,,,,,,,,,,,,,,,,,,,,,,,,,,,,,,,,
729,brionne,Alola,38.6,"2'00""",water,,2,primarina,,,,,,,,34,,,,,,,,2,N,N,N,,N,,N,N,,Y,,,,,,,,,,,,,,,,,,,,,,,,,,,,,,,,,,
730,primarina,Alola,97,"5'11""",water,fairy,5.11,,,,,,,,,,,,,,,,,3,N,N,N,,N,,N,N,,Y,,,,,,,,,,,,,,,,,,,,,,,,,,,,,,,,,,
731,pikipek,Alola,2.6,"1'00""",normal,flying,1,trumbeak,,,,,,,,14,,,,,,,,1,N,N,N,,N,,N,N,,Y,,,,,,,,,,,,,,,,,,,,,,,,,,,,,,,,,,
732,trumbeak,Alola,32.6,"2'00""",normal,flying,2,toucannon,,,,,,,,28,,,,,,,,2,N,N,N,,N,,N,N,,Y,,,,,,,,,,,,,,,,,,,,,,,,,,,,,,,,,,
733,toucannon,Alola,57.3,"3'07""",normal,flying,3.07,,,,,,,,,,,,,,,,,3,N,N,N,,N,,N,N,,Y,,,,,,,,,,,,,,,,,,,,,,,,,,,,,,,,,,
734,yungoos,Alola,13.2,"1'04""",normal,,1.04,gumshoos,,,,,,,,20 during day,,,,,,,,1,N,N,N,,N,,N,N,,Y,,,,,,,,,,,,,,,,,,,,,,,,,,,,,,,,,,
735,gumshoos,Alola,31.3,"2'04""",normal,,2.04,,,,,,,,,,,,,,,,,2,N,N,N,,N,,N,N,,Y,,,,,,,,,,,,,,,,,,,,,,,,,,,,,,,,,,
736,grubbin,Alola,9.7,"1'04""",bug,,1.04,charjabugg,,,,,,,,20,,,,,,,,1,N,N,N,,N,,N,N,,Y,,,,,,,,,,,,,,,,,,,,,,,,,,,,,,,,,,
737,charjabugg,Alola,23.1,"1'08""",bug,electric,1.08,vikavolt,,,,,,,,thunderstone or lvl+ in electric area,,,,,,,,2,N,N,N,,N,,N,N,,Y,,,,,,,,,,,,,,,,,,,,,,,,,,,,,,,,,,
738,vikavolt,Alola,99.2,"4'11""",bug,electric,4.11,,,,,,,,,,,,,,,,,3,N,N,N,,N,,N,N,,Y,,,,,,,,,,,,,,,,,,,,,,,,,,,,,,,,,,
739,crabrawler,Alola,15.4,"2'00""",fighting,,2,crabominable,,,,,,,,lvl+ on top of Mount Lanakina,,,,,,,,1,N,N,N,,N,,N,N,,Y,,,,,,,,,,,,,,,,,,,,,,,,,,,,,,,,,,
740,crabominable,Alola,396.8,"5'07""",fighting,ice,5.07,,,,,,,,,,,,,,,,,2,N,N,N,,N,,N,N,,Y,,,,,,,,,,,,,,,,,,,,,,,,,,,,,,,,,,
741,oricorio,Alola,7.5,"2'00""",fire,flying,2,,,,,,,,,,,,,,,,,0,N,N,N,,N,,N,N,,Y,,,,,,,,,,,,,,,,,,,,,,,,,,,,,,,,,,
741.1,oricorio,Alola,7.5,"2'00""",electric,flying,2,,,,,,,,,,,,,,,,,0,N,N,N,,N,,N,N,,Y,,,,,,,,,,,,,,,,,,,,,,,,,,,,,,,,,,
741.2,oricorio,Alola,7.5,"2'00""",psychic,flying,2,,,,,,,,,,,,,,,,,0,N,N,N,,N,,N,N,,Y,,,,,,,,,,,,,,,,,,,,,,,,,,,,,,,,,,
741.3,oricorio,Alola,7.5,"2'00""",ghost,flying,2,,,,,,,,,,,,,,,,,0,N,N,N,,N,,N,N,,Y,,,,,,,,,,,,,,,,,,,,,,,,,,,,,,,,,,
742,cutiefly,Alola,0.4,"0'04""",bug,fairy,0.04,ribombee,,,,,,,,25,,,,,,,,1,N,N,N,,N,,N,N,,Y,,,,,,,,,,,,,,,,,,,,,,,,,,,,,,,,,,
743,ribombee,Alola,1.1,"0'08""",bug,fairy,0.08,,,,,,,,,,,,,,,,,2,N,N,N,,N,,N,N,,Y,,,,,,,,,,,,,,,,,,,,,,,,,,,,,,,,,,
744,rockruff,Alola,20.3,"1'08""",rock,,1.08,lycanroc,lycanroc,lycanroc,,,,,,25 during day,25 during night,25 with ability own tempo and between 7pm and 8pm,,,,,,1,N,N,N,,N,,N,N,,Y,,,,,,,,,,,,,,,,,,,,,,,,,,,,,,,,,,
745,lycanroc,Alola,55.1,"2'07""",rock,,2.07,,,,,,,,,,,,,,,,,2,N,N,N,,N,,N,N,,Y,,,,,,,,,,,,,,,,,,,,,,,,,,,,,,,,,,
745.1,lycanroc,Alola,55.1,"3'07""",rock,,3.07,,,,,,,,,,,,,,,,,2,N,N,N,,N,,N,N,,Y,,,,,,,,,,,,,,,,,,,,,,,,,,,,,,,,,,
745.2,lycanroc,Alola,55.1,"2'07""",rock,,2.07,,,,,,,,,,,,,,,,,2,N,N,N,,N,,N,N,,Y,,,,,,,,,,,,,,,,,,,,,,,,,,,,,,,,,,
746,wishiwashi,Alola,0.7,"0'08""",water,,0.08,,,,,,,,,,,,,,,,,0,N,N,N,,N,,N,N,,Y,,,,,,,,,,,,,,,,,,,,,,,,,,,,,,,,,,
747,mareanie,Alola,17.6,"1'04""",poison,water,1.04,toxapex,,,,,,,,38,,,,,,,,1,N,N,N,,N,,N,N,,Y,,,,,,,,,,,,,,,,,,,,,,,,,,,,,,,,,,
748,toxapex,Alola,32,"2'04""",poison,water,2.04,,,,,,,,,,,,,,,,,2,N,N,N,,N,,N,N,,Y,,,,,,,,,,,,,,,,,,,,,,,,,,,,,,,,,,
749,mudbray,Alola,242.5,"3'03""",ground,,3.03,mudsdale,,,,,,,,30,,,,,,,,1,N,N,N,,N,,N,N,,Y,,,,,,,,,,,,,,,,,,,,,,,,,,,,,,,,,,
750,mudsdale,Alola,2028.2,"8'02""",ground,,8.02,,,,,,,,,,,,,,,,,2,N,N,N,,N,,N,N,,Y,,,,,,,,,,,,,,,,,,,,,,,,,,,,,,,,,,
751,dewpider,Alola,8.8,"1'00""",water,bug,1,araquanid,,,,,,,,22,,,,,,,,1,N,N,N,,N,,N,N,,Y,,,,,,,,,,,,,,,,,,,,,,,,,,,,,,,,,,
752,araquanid,Alola,180.8,"5'11""",water,bug,5.11,,,,,,,,,,,,,,,,,2,N,N,N,,N,,N,N,,Y,,,,,,,,,,,,,,,,,,,,,,,,,,,,,,,,,,
753,fomantis,Alola,3.3,"1'00""",grass,,1,lurantis,,,,,,,,34 during day,,,,,,,,1,N,N,N,,N,,N,N,,Y,,,,,,,,,,,,,,,,,,,,,,,,,,,,,,,,,,
754,lurantis,Alola,40.8,"2'11""",grass,,2.11,,,,,,,,,,,,,,,,,2,N,N,N,,N,,N,N,,Y,,,,,,,,,,,,,,,,,,,,,,,,,,,,,,,,,,
755,morelull,Alola,3.3,"0'08""",grass,fairy,0.08,shiinotic,,,,,,,,24,,,,,,,,1,N,N,N,,N,,N,N,,Y,,,,,,,,,,,,,,,,,,,,,,,,,,,,,,,,,,
756,shiinotic,Alola,25.4,"3'03""",grass,fairy,3.03,,,,,,,,,,,,,,,,,2,N,N,N,,N,,N,N,,Y,,,,,,,,,,,,,,,,,,,,,,,,,,,,,,,,,,
757,salandit,Alola,10.6,"2'00""",poison,,2,salazzle,,,,,,,,33 and female,,,,,,,,1,N,N,N,,N,,N,N,,Y,,,,,,,,,,,,,,,,,,,,,,,,,,,,,,,,,,
758,salazzle,Alola,48.9,"3'11""",poison,,3.11,,,,,,,,,,,,,,,,,2,N,N,N,,N,,N,N,,Y,,,,,,,,,,,,,,,,,,,,,,,,,,,,,,,,,,
759,stufful,Alola,15,"1'08""",normal,fighting,1.08,bewear,,,,,,,,27,,,,,,,,1,N,N,N,,N,,N,N,,Y,,,,,,,,,,,,,,,,,,,,,,,,,,,,,,,,,,
760,bewear,Alola,297.6,"6'11""",normal,fighting,6.11,,,,,,,,,,,,,,,,,2,N,N,N,,N,,N,N,,Y,,,,,,,,,,,,,,,,,,,,,,,,,,,,,,,,,,
761,bounsweet,Alola,7.1,"1'00""",grass,,1,steenee,,,,,,,,18,,,,,,,,1,N,N,N,,N,,N,N,,Y,,,,,,,,,,,,,,,,,,,,,,,,,,,,,,,,,,
762,steenee,Alola,18.1,"2'04""",grass,,2.04,tsareena,,,,,,,,lvl+ with move stomp,,,,,,,,2,N,N,N,,N,,N,N,,Y,,,,,,,,,,,,,,,,,,,,,,,,,,,,,,,,,,
763,tsareena,Alola,47.2,"3'11""",grass,,3.11,,,,,,,,,,,,,,,,,3,N,N,N,,N,,N,N,,Y,,,,,,,,,,,,,,,,,,,,,,,,,,,,,,,,,,
764,comfey,Alola,0.7,"0'04""",fairy,,0.04,,,,,,,,,,,,,,,,,0,N,N,N,,N,,N,N,,Y,,,,,,,,,,,,,,,,,,,,,,,,,,,,,,,,,,
765,oranguru,Alola,167.5,"4'11""",normal,psychic,4.11,,,,,,,,,,,,,,,,,0,N,N,N,,N,,N,N,,Y,,,,,,,,,,,,,,,,,,,,,,,,,,,,,,,,,,
766,passimian,Alola,182.5,"6'07""",fighting,,6.07,,,,,,,,,,,,,,,,,0,N,N,N,,N,,N,N,,Y,,,,,,,,,,,,,,,,,,,,,,,,,,,,,,,,,,
767,wimpod,Alola,26.5,"1'08""",bug,water,1.08,golisopod,,,,,,,,30,,,,,,,,1,N,N,N,,N,,N,N,,Y,,,,,,,,,,,,,,,,,,,,,,,,,,,,,,,,,,
768,golisopod,Alola,238.1,"6'07""",bug,water,6.07,,,,,,,,,,,,,,,,,2,N,N,N,,N,,N,N,,Y,,,,,,,,,,,,,,,,,,,,,,,,,,,,,,,,,,
769,sandygast,Alola,154.3,"1'08""",ghost,ground,1.08,palosand,,,,,,,,42,,,,,,,,1,N,N,N,,N,,N,N,,Y,,,,,,,,,,,,,,,,,,,,,,,,,,,,,,,,,,
770,palosand,Alola,551.1,"4'03""",ghost,ground,4.03,,,,,,,,,,,,,,,,,2,N,N,N,,N,,N,N,,Y,,,,,,,,,,,,,,,,,,,,,,,,,,,,,,,,,,
771,pyukumuku,Alola,2.6,"1'00""",water,,1,,,,,,,,,,,,,,,,,0,N,N,N,,N,,N,N,,Y,,,,,,,,,,,,,,,,,,,,,,,,,,,,,,,,,,
772,type: Null,Alola,265.7,"6'03""",normal,,6.03,silvally,,,,,,,,lvl+ with friendship,,,,,,,,1,N,N,N,,N,,N,N,,Y,,,,,,,,,,,,,,,,,,,,,,,,,,,,,,,,,,
773,silvally,Alola,221.6,"7'07""",normal,,7.07,,,,,,,,,,,,,,,,,2,N,N,N,,N,,N,N,,Y,,,,,,,,,,,,,,,,,,,,,,,,,,,,,,,,,,
774,minior,Alola,88.2,"1'00""",rock,flying,1,,,,,,,,,,,,,,,,,0,N,N,N,,N,,N,N,,Y,,,,,,,,,,,,,,,,,,,,,,,,,,,,,,,,,,
775,komala,Alola,43.9,"1'04""",normal,,1.04,,,,,,,,,,,,,,,,,0,N,N,N,,N,,N,N,,Y,,,,,,,,,,,,,,,,,,,,,,,,,,,,,,,,,,
776,turtonator,Alola,467.4,"6'07""",fire,dragon,6.07,,,,,,,,,,,,,,,,,0,N,N,N,,N,,N,N,,Y,,,,,,,,,,,,,,,,,,,,,,,,,,,,,,,,,,
777,togedemaru,Alola,7.3,"1'00""",electric,steel,1,,,,,,,,,,,,,,,,,0,N,N,N,,N,,N,N,,Y,,,,,,,,,,,,,,,,,,,,,,,,,,,,,,,,,,
778,mimikyu,Alola,1.5,"0'08""",ghost,fairy,0.08,,,,,,,,,,,,,,,,,0,N,N,N,,N,,N,N,,Y,,,,,,,,,,,,,,,,,,,,,,,,,,,,,,,,,,
779,bruxish,Alola,41.9,"2'11""",water,psychic,2.11,,,,,,,,,,,,,,,,,0,N,N,N,,N,,N,N,,Y,,,,,,,,,,,,,,,,,,,,,,,,,,,,,,,,,,
780,drampa,Alola,407.8,"9'10""",normal,dragon,9.1,,,,,,,,,,,,,,,,,0,N,N,N,,N,,N,N,,Y,,,,,,,,,,,,,,,,,,,,,,,,,,,,,,,,,,
781,dhelmise,Alola,463,"12'10""",ghost,grass,12.1,,,,,,,,,,,,,,,,,0,N,N,N,,N,,N,N,,Y,,,,,,,,,,,,,,,,,,,,,,,,,,,,,,,,,,
782,jangmo-o,Alola,65.5,"2'00""",dragon,,2,hakamo-o,,,,,,,,35,,,,,,,,1,N,N,N,,N,,N,N,,Y,,,,,,,,,,,,,,,,,,,,,,,,,,,,,,,,,,
783,hakamo-o,Alola,103.6,"3'11""",dragon,fighting,3.11,kommo-o,,,,,,,,45,,,,,,,,2,N,N,N,,N,,N,N,,Y,,,,,,,,,,,,,,,,,,,,,,,,,,,,,,,,,,
784,kommo-o,Alola,172.4,"5'03""",dragon,fighting,5.03,,,,,,,,,,,,,,,,,3,N,N,N,,N,,N,N,,Y,,,,,,,,,,,,,,,,,,,,,,,,,,,,,,,,,,
785,tapu Koko,Alola,45.2,"5'11""",electric,fairy,5.11,,,,,,,,,,,,,,,,,0,N,N,N,,N,,N,N,,Y,,,,,,,,,,,,,,,,,,,,,,,,,,,,,,,,,,
786,tapu Lele,Alola,41,"3'11""",psychic,fairy,3.11,,,,,,,,,,,,,,,,,0,N,N,N,,N,,N,N,,Y,,,,,,,,,,,,,,,,,,,,,,,,,,,,,,,,,,
787,tapu Bulu,Alola,100.3,"6'03""",grass,fairy,6.03,,,,,,,,,,,,,,,,,0,N,N,N,,N,,N,N,,Y,,,,,,,,,,,,,,,,,,,,,,,,,,,,,,,,,,
788,tapu Fini,Alola,46.7,"4'03""",water,fairy,4.03,,,,,,,,,,,,,,,,,0,N,N,N,,N,,N,N,,Y,,,,,,,,,,,,,,,,,,,,,,,,,,,,,,,,,,
789,cosmog,Alola,0.2,"0'08""",psychic,,0.08,cosmoem,,,,,,,,43,,,,,,,,1,N,N,N,,N,,N,N,,Y,,,,,,,,,,,,,,,,,,,,,,,,,,,,,,,,,,
790,cosmoem,Alola,2204.4,"0'04""",psychic,,0.04,solgaleo,lunala,,,,,,,53 in sword or sun,53 in shield or moon,,,,,,,2,N,N,N,,N,,N,N,,Y,,,,,,,,,,,,,,,,,,,,,,,,,,,,,,,,,,
791,solgaleo,Alola,507.1,"11'02""",psychic,steel,11.02,,,,,,,,,,,,,,,,,3,N,N,N,,N,,N,N,,Y,,,,,,,,,,,,,,,,,,,,,,,,,,,,,,,,,,
792,lunala,Alola,264.6,"13'01""",psychic,ghost,13.01,,,,,,,,,,,,,,,,,3,N,N,N,,N,,N,N,,Y,,,,,,,,,,,,,,,,,,,,,,,,,,,,,,,,,,
793,nihilego,Alola,122.4,"3'11""",rock,poison,3.11,,,,,,,,,,,,,,,,,0,N,N,N,,N,,N,N,,Y,,,,,,,,,,,,,,,,,,,,,,,,,,,,,,,,,,
794,buzzwole,Alola,735.5,"7'10""",bug,fighting,7.1,,,,,,,,,,,,,,,,,0,N,N,N,,N,,N,N,,Y,,,,,,,,,,,,,,,,,,,,,,,,,,,,,,,,,,
795,pheromosa,Alola,55.1,"5'11""",bug,fighting,5.11,,,,,,,,,,,,,,,,,0,N,N,N,,N,,N,N,,Y,,,,,,,,,,,,,,,,,,,,,,,,,,,,,,,,,,
796,xurkitree,Alola,220.5,"12'06""",electric,,12.06,,,,,,,,,,,,,,,,,0,N,N,N,,N,,N,N,,Y,,,,,,,,,,,,,,,,,,,,,,,,,,,,,,,,,,
797,celesteela,Alola,2204.4,"30'02""",steel,flying,30.02,,,,,,,,,,,,,,,,,0,N,N,N,,N,,N,N,,Y,,,,,,,,,,,,,,,,,,,,,,,,,,,,,,,,,,
798,kartana,Alola,0.2,"1'00""",grass,steel,1,,,,,,,,,,,,,,,,,0,N,N,N,,N,,N,N,,Y,,,,,,,,,,,,,,,,,,,,,,,,,,,,,,,,,,
799,guzzlord,Alola,1957.7,"18'01""",dark,dragon,18.01,,,,,,,,,,,,,,,,,0,N,N,N,,N,,N,N,,Y,,,,,,,,,,,,,,,,,,,,,,,,,,,,,,,,,,
800,necrozma,Alola,507.1,"7'10""",psychic,,7.1,,,,,,,,,,,,,,,,,0,N,N,N,,N,,N,N,,Y,,,,,,,,,,,,,,,,,,,,,,,,,,,,,,,,,,
801,magearna,Alola,177.5,"3'03""",steel,fairy,3.03,,,,,,,,,,,,,,,,,0,N,N,N,,N,,N,N,,Y,,,,,,,,,,,,,,,,,,,,,,,,,,,,,,,,,,
802,marshadow,Alola,48.9,"2'04""",fighting,ghost,2.04,,,,,,,,,,,,,,,,,0,N,N,N,,N,,N,N,,Y,,,,,,,,,,,,,,,,,,,,,,,,,,,,,,,,,,
803,poipole,Alola,4,"2'00""",poison,,2,naganadel,,,,,,,,lvl+ with move dragon pulse,,,,,,,,1,N,N,N,,N,,N,N,,Y,,,,,,,,,,,,,,,,,,,,,,,,,,,,,,,,,,
804,naganadel,Alola,330.7,"11'10""",poison,dragon,11.1,,,,,,,,,,,,,,,,,2,N,N,N,,N,,N,N,,Y,,,,,,,,,,,,,,,,,,,,,,,,,,,,,,,,,,
805,stakataka,Alola,1807.8,"18'01""",rock,steel,18.01,,,,,,,,,,,,,,,,,0,N,N,N,,N,,N,N,,Y,,,,,,,,,,,,,,,,,,,,,,,,,,,,,,,,,,
806,blacephalon,Alola,28.7,"5'11""",fire,ghost,5.11,,,,,,,,,,,,,,,,,0,N,N,N,,N,,N,N,,Y,,,,,,,,,,,,,,,,,,,,,,,,,,,,,,,,,,
807,zeraora,Alola,98.1,"4'11""",electric,,4.11,,,,,,,,,,,,,,,,,0,N,N,N,,N,,N,N,,Y,,,,,,,,,,,,,,,,,,,,,,,,,,,,,,,,,,
808,meltan,Alola,17.6,"0'08""",steel,,0.08,melmetal,,,,,,,,400 candies in pokemon go,,,,,,,,1,N,N,N,,N,,N,N,,Y,,,,,,,,,,,,,,,,,,,,,,,,,,,,,,,,,,
809,melmetal,Alola,1763.7,"8'02""",steel,,8.02,,,,,,,,,,,,,,,,,2,N,N,N,,N,,N,N,,Y,,,,,,,,,,,,,,,,,,,,,,,,,,,,,,,,,,
810,grookey,Galar,11,"1'00""",grass,,1,thwackey,,,,,,,,16,,,,,,,,1,N,N,N,,N,,N,N,,N,N,Y,,,,,,,,,,,,,,,,,,,,,,,,,,,,,,,,
811,thwackey,Galar,30.9,"2'04""",grass,,2.04,rillaboom,,,,,,,,35,,,,,,,,2,N,N,N,,N,,N,N,,N,N,Y,,,,,,,,,,,,,,,,,,,,,,,,,,,,,,,,
812,rillaboom,Galar,198.4,"6'11""",grass,,6.11,,,,,,,,,,,,,,,,,3,N,N,N,,N,,N,N,,N,N,Y,,,,,,,,,,,,,,,,,,,,,,,,,,,,,,,,
813,scorbunny,Galar,9.9,"1'00""",fire,,1,raboot,,,,,,,,16,,,,,,,,1,N,N,N,,N,,N,N,,N,N,Y,,,,,,,,,,,,,,,,,,,,,,,,,,,,,,,,
814,raboot,Galar,19.8,"2'00""",fire,,2,cinderace,,,,,,,,35,,,,,,,,2,N,N,N,,N,,N,N,,N,N,Y,,,,,,,,,,,,,,,,,,,,,,,,,,,,,,,,
815,cinderace,Galar,72.8,"4'07""",fire,,4.07,,,,,,,,,,,,,,,,,3,N,N,N,,N,,N,N,,N,N,Y,,,,,,,,,,,,,,,,,,,,,,,,,,,,,,,,
816,sobble,Galar,8.8,"1'00""",water,,1,drizzile,,,,,,,,16,,,,,,,,1,N,N,N,,N,,N,N,,N,N,Y,,,,,,,,,,,,,,,,,,,,,,,,,,,,,,,,
817,drizzile,Galar,25.4,"2'04""",water,,2.04,inteleon,,,,,,,,35,,,,,,,,2,N,N,N,,N,,N,N,,N,N,Y,,,,,,,,,,,,,,,,,,,,,,,,,,,,,,,,
818,inteleon,Galar,99.6,"6'03""",water,,6.03,,,,,,,,,,,,,,,,,3,N,N,N,,N,,N,N,,N,N,Y,,,,,,,,,,,,,,,,,,,,,,,,,,,,,,,,
819,skwovet,Galar,5.5,"1'00""",normal,,1,greedent,,,,,,,,24,,,,,,,,1,N,N,N,,N,,N,N,,N,N,Y,,,,,,,,,,,,,,,,,,,,,,,,,,,,,,,,
820,greedent,Galar,13.2,"2'00""",normal,,2,,,,,,,,,,,,,,,,,2,N,N,N,,N,,N,N,,N,N,Y,,,,,,,,,,,,,,,,,,,,,,,,,,,,,,,,
821,rookidee,Galar,4,"0'08""",flying,,0.08,corvisquire,,,,,,,,18,,,,,,,,1,N,N,N,,N,,N,N,,N,N,Y,,,,,,,,,,,,,,,,,,,,,,,,,,,,,,,,
822,corvisquire,Galar,35.3,"2'07""",flying,,2.07,corviknight,,,,,,,,38,,,,,,,,2,N,N,N,,N,,N,N,,N,N,Y,,,,,,,,,,,,,,,,,,,,,,,,,,,,,,,,
823,corviknight,Galar,165.3,"7'03""",flying,steel,7.03,,,,,,,,,,,,,,,,,3,N,N,N,,N,,N,N,,N,N,Y,,,,,,,,,,,,,,,,,,,,,,,,,,,,,,,,
824,blipbug,Galar,17.6,"1'04""",bug,,1.04,dottler,,,,,,,,10,,,,,,,,1,N,N,N,,N,,N,N,,N,N,Y,,,,,,,,,,,,,,,,,,,,,,,,,,,,,,,,
825,dottler,Galar,43,"1'04""",bug,psychic,1.04,orbeetle,,,,,,,,30,,,,,,,,2,N,N,N,,N,,N,N,,N,N,Y,,,,,,,,,,,,,,,,,,,,,,,,,,,,,,,,
826,orbeetle,Galar,89.9,"1'04""",bug,psychic,1.04,,,,,,,,,,,,,,,,,3,N,N,N,,N,,N,N,,N,N,Y,,,,,,,,,,,,,,,,,,,,,,,,,,,,,,,,
827,nickit,Galar,19.6,"2'00""",dark,,2,thievul,,,,,,,,18,,,,,,,,1,N,N,N,,N,,N,N,,N,N,Y,,,,,,,,,,,,,,,,,,,,,,,,,,,,,,,,
828,thievul,Galar,43.9,"3'11""",dark,,3.11,,,,,,,,,,,,,,,,,2,N,N,N,,N,,N,N,,N,N,Y,,,,,,,,,,,,,,,,,,,,,,,,,,,,,,,,
829,gossifleur,Galar,4.9,"1'04""",grass,,1.04,eldegoss,,,,,,,,20,,,,,,,,1,N,N,N,,N,,N,N,,N,N,Y,,,,,,,,,,,,,,,,,,,,,,,,,,,,,,,,
830,eldegoss,Galar,5.5,"1'08""",grass,,1.08,,,,,,,,,,,,,,,,,2,N,N,N,,N,,N,N,,N,N,Y,,,,,,,,,,,,,,,,,,,,,,,,,,,,,,,,
831,wooloo,Galar,13.2,"2'00""",normal,,2,dubwool,,,,,,,,24,,,,,,,,1,N,N,N,,N,,N,N,,N,N,Y,,,,,,,,,,,,,,,,,,,,,,,,,,,,,,,,
832,dubwool,Galar,94.8,"4'03""",normal,,4.03,,,,,,,,,,,,,,,,,2,N,N,N,,N,,N,N,,N,N,Y,,,,,,,,,,,,,,,,,,,,,,,,,,,,,,,,
833,chewtle,Galar,18.7,"1'00""",water,,1,drednaw,,,,,,,,22,,,,,,,,1,N,N,N,,N,,N,N,,N,N,Y,,,,,,,,,,,,,,,,,,,,,,,,,,,,,,,,
834,drednaw,Galar,254.6,"3'03""",water,rock,3.03,,,,,,,,,,,,,,,,,2,N,N,N,,N,,N,N,,N,N,Y,,,,,,,,,,,,,,,,,,,,,,,,,,,,,,,,
835,yamper,Galar,29.8,"1'00""",electric,,1,boltund,,,,,,,,25,,,,,,,,1,N,N,N,,N,,N,N,,N,N,Y,,,,,,,,,,,,,,,,,,,,,,,,,,,,,,,,
836,boltund,Galar,75,"3'03""",electric,,3.03,,,,,,,,,,,,,,,,,2,N,N,N,,N,,N,N,,N,N,Y,,,,,,,,,,,,,,,,,,,,,,,,,,,,,,,,
837,rolycoly,Galar,26.5,"1'00""",rock,,1,carkol,,,,,,,,18,,,,,,,,1,N,N,N,,N,,N,N,,N,N,Y,,,,,,,,,,,,,,,,,,,,,,,,,,,,,,,,
838,carkol,Galar,172,"3'07""",rock,fire,3.07,coalossal,,,,,,,,34,,,,,,,,2,N,N,N,,N,,N,N,,N,N,Y,,,,,,,,,,,,,,,,,,,,,,,,,,,,,,,,
839,coalossal,Galar,684.5,"9'02""",rock,fire,9.02,,,,,,,,,,,,,,,,,3,N,N,N,,N,,N,N,,N,N,Y,,,,,,,,,,,,,,,,,,,,,,,,,,,,,,,,
840,applin,Galar,1.1,"0'08""",grass,dragon,0.08,flapple,appletun,,,,,,,tart apple,sweet apple,,,,,,,1,N,N,N,,N,,N,N,,N,N,Y,,,,,,,,,,,,,,,,,,,,,,,,,,,,,,,,
841,flapple,Galar,2.2,"1'00""",grass,dragon,1,,,,,,,,,,,,,,,,,2,N,N,N,,N,,N,N,,N,N,Y,,,,,,,,,,,,,,,,,,,,,,,,,,,,,,,,
842,appletun,Galar,28.7,"1'04""",grass,dragon,1.04,,,,,,,,,,,,,,,,,2,N,N,N,,N,,N,N,,N,N,Y,,,,,,,,,,,,,,,,,,,,,,,,,,,,,,,,
843,silicobra,Galar,16.8,"7'03""",ground,,7.03,sandaconda,,,,,,,,36,,,,,,,,1,N,N,N,,N,,N,N,,N,N,Y,,,,,,,,,,,,,,,,,,,,,,,,,,,,,,,,
844,sandaconda,Galar,144.4,"12'06""",ground,,12.06,,,,,,,,,,,,,,,,,2,N,N,N,,N,,N,N,,N,N,Y,,,,,,,,,,,,,,,,,,,,,,,,,,,,,,,,
845,cramorant,Galar,39.7,"2'07""",flying,water,2.07,,,,,,,,,,,,,,,,,0,N,N,N,,N,,N,N,,N,N,Y,,,,,,,,,,,,,,,,,,,,,,,,,,,,,,,,
846,arrokuda,Galar,2.2,"1'08""",water,,1.08,barraskewda,,,,,,,,26,,,,,,,,1,N,N,N,,N,,N,N,,N,N,Y,,,,,,,,,,,,,,,,,,,,,,,,,,,,,,,,
847,barraskewda,Galar,66.1,"4'03""",water,,4.03,,,,,,,,,,,,,,,,,2,N,N,N,,N,,N,N,,N,N,Y,,,,,,,,,,,,,,,,,,,,,,,,,,,,,,,,
848,toxel,Galar,24.3,"1'04""",electric,poison,1.04,toxtricity,toxtricity,,,,,,,30 random,30 random,,,,,,,1,N,N,N,,N,,N,N,,N,N,Y,,,,,,,,,,,,,,,,,,,,,,,,,,,,,,,,
849,toxtricity,Galar,88.2,"5'03""",electric,poison,5.03,,,,,,,,,,,,,,,,,2,N,N,N,,N,,N,N,,N,N,Y,,,,,,,,,,,,,,,,,,,,,,,,,,,,,,,,
849.1,toxtricity,Galar,88.2,"5'03""",electric,poison,5.03,,,,,,,,,,,,,,,,,2,N,N,N,,N,,N,N,,N,N,Y,,,,,,,,,,,,,,,,,,,,,,,,,,,,,,,,
850,sizzlipede,Galar,2.2,"2'04""",fire,bug,2.04,centiskorch,,,,,,,,28,,,,,,,,1,N,N,N,,N,,N,N,,N,N,Y,,,,,,,,,,,,,,,,,,,,,,,,,,,,,,,,
851,centiskorch,Galar,264.6,"9'10""",fire,bug,9.1,,,,,,,,,,,,,,,,,2,N,N,N,,N,,N,N,,N,N,Y,,,,,,,,,,,,,,,,,,,,,,,,,,,,,,,,
852,clobbopus,Galar,8.8,"2'00""",fighting,,2,grapploct,,,,,,,,lvl+ with move taunt,,,,,,,,1,N,N,N,,N,,N,N,,N,N,Y,,,,,,,,,,,,,,,,,,,,,,,,,,,,,,,,
853,grapploct,Galar,86,"5'03""",fighting,,5.03,,,,,,,,,,,,,,,,,2,N,N,N,,N,,N,N,,N,N,Y,,,,,,,,,,,,,,,,,,,,,,,,,,,,,,,,
854,sinistea,Galar,0.4,"0'04""",ghost,,0.04,polteageist,,,,,,,,cracked pot or chipped pot,,,,,,,,1,N,N,N,,N,,N,N,,N,N,Y,,,,,,,,,,,,,,,,,,,,,,,,,,,,,,,,
855,polteageist,Galar,0.9,"0'08""",ghost,,0.08,,,,,,,,,,,,,,,,,2,N,N,N,,N,,N,N,,N,N,Y,,,,,,,,,,,,,,,,,,,,,,,,,,,,,,,,
856,hatenna,Galar,7.5,"1'04""",psychic,,1.04,hattrem,,,,,,,,32,,,,,,,,1,N,N,N,,N,,N,N,,N,N,Y,,,,,,,,,,,,,,,,,,,,,,,,,,,,,,,,
857,hattrem,Galar,10.6,"2'00""",psychic,,2,hatterene,,,,,,,,42,,,,,,,,2,N,N,N,,N,,N,N,,N,N,Y,,,,,,,,,,,,,,,,,,,,,,,,,,,,,,,,
858,hatterene,Galar,11.2,"6'11""",psychic,fairy,6.11,,,,,,,,,,,,,,,,,3,N,N,N,,N,,N,N,,N,N,Y,,,,,,,,,,,,,,,,,,,,,,,,,,,,,,,,
859,impidimp,Galar,12.1,"1'04""",dark,fairy,1.04,morgrem,,,,,,,,32,,,,,,,,1,N,N,N,,N,,N,N,,N,N,Y,,,,,,,,,,,,,,,,,,,,,,,,,,,,,,,,
860,morgrem,Galar,27.6,"2'07""",dark,fairy,2.07,grimmsnarl,,,,,,,,42,,,,,,,,2,N,N,N,,N,,N,N,,N,N,Y,,,,,,,,,,,,,,,,,,,,,,,,,,,,,,,,
861,grimmsnarl,Galar,134.5,"4'11""",dark,fairy,4.11,,,,,,,,,,,,,,,,,3,N,N,N,,N,,N,N,,N,N,Y,,,,,,,,,,,,,,,,,,,,,,,,,,,,,,,,
862,obstagoon,Galar,101.4,"5'03""",dark,normal,5.03,,,,,,,,,,,,,,,,,3,N,N,N,,N,,N,N,,N,N,Y,,,,,,,,,,,,,,,,,,,,,,,,,,,,,,,,
863,perrserker,Galar,61.7,"2'07""",steel,,2.07,,,,,,,,,,,,,,,,,2,N,N,N,,N,,N,N,,N,N,Y,,,,,,,,,,,,,,,,,,,,,,,,,,,,,,,,
864,cursola,Galar,0.9,"3'03""",ghost,,3.03,,,,,,,,,,,,,,,,,2,N,N,N,,N,,N,N,,N,N,Y,,,,,,,,,,,,,,,,,,,,,,,,,,,,,,,,
865,sirfetch'd,Galar,257.9,"2'07""",fighting,,2.07,,,,,,,,,,,,,,,,,2,N,N,N,,N,,N,N,,N,N,Y,,,,,,,,,,,,,,,,,,,,,,,,,,,,,,,,
866,mr. Rime,Galar,128.3,"4'11""",ice,psychic,4.11,,,,,,,,,,,,,,,,,3,N,N,N,,N,,N,N,,N,N,Y,,,,,,,,,,,,,,,,,,,,,,,,,,,,,,,,
867,runerigus,Galar,146.8,"5'03""",ground,ghost,5.03,,,,,,,,,,,,,,,,,2,N,N,N,,N,,N,N,,N,N,Y,,,,,,,,,,,,,,,,,,,,,,,,,,,,,,,,
868,milcery,Galar,0.7,"0'08""",fairy,,0.08,alcremie,,,,,,,,have it hold a treat and spin,,,,,,,,1,N,N,N,,N,,N,N,,N,N,Y,,,,,,,,,,,,,,,,,,,,,,,,,,,,,,,,
869,alcremie,Galar,1.1,"1'00""",fairy,,1,,,,,,,,,,,,,,,,,2,N,N,N,,N,,N,N,,N,N,Y,,,,,,,,,,,,,,,,,,,,,,,,,,,,,,,,
870,flalinks,Galar,136.7,"9'10""",fighting,,9.1,,,,,,,,,,,,,,,,,0,N,N,N,,N,,N,N,,N,N,Y,,,,,,,,,,,,,,,,,,,,,,,,,,,,,,,,
871,pincurchin,Galar,2.2,"1'00""",electric,,1,,,,,,,,,,,,,,,,,0,N,N,N,,N,,N,N,,N,N,Y,,,,,,,,,,,,,,,,,,,,,,,,,,,,,,,,
872,snom,Galar,8.4,"1'00""",ice,bug,1,frosmoth,,,,,,,,lvl+ with friendship at night,,,,,,,,1,N,N,N,,N,,N,N,,N,N,Y,,,,,,,,,,,,,,,,,,,,,,,,,,,,,,,,
873,frosmoth,Galar,92.6,"4'03""",ice,bug,4.03,,,,,,,,,,,,,,,,,2,N,N,N,,N,,N,N,,N,N,Y,,,,,,,,,,,,,,,,,,,,,,,,,,,,,,,,
874,stonjourner,Galar,1146.4,"8'02""",rock,,8.02,,,,,,,,,,,,,,,,,0,N,N,N,,N,,N,N,,N,N,Y,,,,,,,,,,,,,,,,,,,,,,,,,,,,,,,,
875,eiscue,Galar,196.2,"4'07""",ice,,4.07,,,,,,,,,,,,,,,,,0,N,N,N,,N,,N,N,,N,N,Y,,,,,,,,,,,,,,,,,,,,,,,,,,,,,,,,
876,indeedee,Galar,61.7,"2'11""",psychic,normal,2.11,,,,,,,,,,,,,,,,,0,N,N,N,,N,,N,N,,N,N,Y,,,,,,,,,,,,,,,,,,,,,,,,,,,,,,,,
877,morpeko,Galar,6.6,"1'00""",electric,dark,1,,,,,,,,,,,,,,,,,0,N,N,N,,N,,N,N,,N,N,Y,,,,,,,,,,,,,,,,,,,,,,,,,,,,,,,,
878,cufant,Galar,220.5,"3'11""",steel,,3.11,copperajah,,,,,,,,34,,,,,,,,1,N,N,N,,N,,N,N,,N,N,Y,,,,,,,,,,,,,,,,,,,,,,,,,,,,,,,,
879,copperajah,Galar,1433,"9'10""",steel,,9.1,,,,,,,,,,,,,,,,,2,N,N,N,,N,,N,N,,N,N,Y,,,,,,,,,,,,,,,,,,,,,,,,,,,,,,,,
880,dracozolt,Galar,418.9,"5'11""",electric,dragon,5.11,,,,,,,,,,,,,,,,,0,N,N,N,,N,,N,N,,N,N,Y,,,,,,,,,,,,,,,,,,,,,,,,,,,,,,,,
881,arctozolt,Galar,330.7,"7'07""",electric,ice,7.07,,,,,,,,,,,,,,,,,0,N,N,N,,N,,N,N,,N,N,Y,,,,,,,,,,,,,,,,,,,,,,,,,,,,,,,,
882,dracovish,Galar,474,"7'07""",water,dragon,7.07,,,,,,,,,,,,,,,,,0,N,N,N,,N,,N,N,,N,N,Y,,,,,,,,,,,,,,,,,,,,,,,,,,,,,,,,
883,arctovish,Galar,385.8,"6'07""",water,ice,6.07,,,,,,,,,,,,,,,,,0,N,N,N,,N,,N,N,,N,N,Y,,,,,,,,,,,,,,,,,,,,,,,,,,,,,,,,
884,duraludon,Galar,88.2,"5'11""",steel,dragon,5.11,,,,,,,,,,,,,,,,,0,N,N,N,,N,,N,N,,N,N,Y,,,,,,,,,,,,,,,,,,,,,,,,,,,,,,,,
885,dreepy,Galar,4.4,"1'08""",dragon,ghost,1.08,drakloak,,,,,,,,50,,,,,,,,1,N,N,N,,N,,N,N,,N,N,Y,,,,,,,,,,,,,,,,,,,,,,,,,,,,,,,,
886,drakloak,Galar,24.3,"4'07""",dragon,ghost,4.07,dragapult,,,,,,,,60,,,,,,,,2,N,N,N,,N,,N,N,,N,N,Y,,,,,,,,,,,,,,,,,,,,,,,,,,,,,,,,
887,dragapult,Galar,110.2,"9'10""",dragon,ghost,9.1,,,,,,,,,,,,,,,,,3,N,N,N,,N,,N,N,,N,N,Y,,,,,,,,,,,,,,,,,,,,,,,,,,,,,,,,
888,zacian,Galar,242.5,"9'02""",fairy,,9.02,,,,,,,,,,,,,,,,,0,N,N,N,,N,,N,N,,N,N,Y,,,,,,,,,,,,,,,,,,,,,,,,,,,,,,,,
888.1,zacian,Galar,242.5,"9'02""",fairy,steel,9.02,,,,,,,,,,,,,,,,,0,N,N,N,,N,,N,N,,N,N,Y,,,,,,,,,,,,,,,,,,,,,,,,,,,,,,,,
889,zamazenta,Galar,463,"9'06""",fighting,,9.06,,,,,,,,,,,,,,,,,0,N,N,N,,N,,N,N,,N,N,Y,,,,,,,,,,,,,,,,,,,,,,,,,,,,,,,,
889.1,zamazenta,Galar,463,"9'06""",fighting,steel,9.06,,,,,,,,,,,,,,,,,0,N,N,N,,N,,N,N,,N,N,Y,,,,,,,,,,,,,,,,,,,,,,,,,,,,,,,,
890,eternatus,Galar,2094.4,"65'07""",poison,dragon,65.07,,,,,,,,,,,,,,,,,0,N,N,N,,N,,N,N,,N,N,Y,,,,,,,,,,,,,,,,,,,,,,,,,,,,,,,,
891,kubfu,Galar,26.5,"2'00""",fighting,,2,urshifu,urshifu,,,,,,,complete tower of darkness,complete tower of water,,,,,,,1,N,N,N,,N,,N,N,,N,N,Y,,,,,,,,,,,,,,,,,,,,,,,,,,,,,,,,
892,urshifu,Galar,231.5,"6'03""",fighting,dark,6.03,,,,,,,,,,,,,,,,,2,N,N,N,,N,,N,N,,N,N,Y,,,,,,,,,,,,,,,,,,,,,,,,,,,,,,,,
892.1,urshifu,Galar,231.5,"6'03""",fighting,water,6.03,,,,,,,,,,,,,,,,,2,N,N,N,,N,,N,N,,N,N,Y,,,,,,,,,,,,,,,,,,,,,,,,,,,,,,,,
893,zarude,Galar,154.3,"5'11""",dark,grass,5.11,,,,,,,,,,,,,,,,,0,N,N,N,,N,,N,N,,N,N,Y,,,,,,,,,,,,,,,,,,,,,,,,,,,,,,,,
894,regieleki,Galar,319.7,"3'11""",electric,,3.11,,,,,,,,,,,,,,,,,0,N,N,N,,N,,N,N,,N,N,Y,,,,,,,,,,,,,,,,,,,,,,,,,,,,,,,,
895,regidrago,Galar,440.9,"6'11""",dragon,,6.11,,,,,,,,,,,,,,,,,0,N,N,N,,N,,N,N,,N,N,Y,,,,,,,,,,,,,,,,,,,,,,,,,,,,,,,,
896,glastrier,Galar,1763.7,"7'03""",ice,,7.03,,,,,,,,,,,,,,,,,0,N,N,N,,N,,N,N,,N,N,Y,,,,,,,,,,,,,,,,,,,,,,,,,,,,,,,,
897,spectrier,Galar,98.1,"6'07""",ghost,,6.07,,,,,,,,,,,,,,,,,0,N,N,N,,N,,N,N,,N,N,Y,,,,,,,,,,,,,,,,,,,,,,,,,,,,,,,,
898,calyrex,Galar,17,"3'07""",psychic,grass,3.07,,,,,,,,,,,,,,,,,0,N,N,N,,N,,N,N,,N,N,Y,,,,,,,,,,,,,,,,,,,,,,,,,,,,,,,,
898.1,calyrex,Galar,1783.7,"7'10""",psychic,ice,7.1,,,,,,,,,,,,,,,,,0,N,N,N,,N,,N,N,,N,N,Y,,,,,,,,,,,,,,,,,,,,,,,,,,,,,,,,
898.2,calyrex,Galar,118.2,"7'10""",psychic,ghost,7.1,,,,,,,,,,,,,,,,,0,N,N,N,,N,,N,N,,N,N,Y,,,,,,,,,,,,,,,,,,,,,,,,,,,,,,,,
